<?xml version="1.0" encoding="UTF-8"?>
<gpx xmlns:xsi="http://www.w3.org/2001/XMLSchema-instance" xsi:schemaLocation="http://www.topografix.com/GPX/1/1 http://www.topografix.com/GPX/1/1/gpx.xsd" creator="StravaGPX" version="1.1" xmlns="http://www.topografix.com/GPX/1/1">
 <trk>
  <name>Casa - Trilha do Bugre - Casa</name>
  <type>cycling</type>
  <trkseg>
   <trkpt lat="-26.2558760" lon="-51.0839670">
    <ele>752.0</ele>
   </trkpt>
   <trkpt lat="-26.2558760" lon="-51.0839670">
    <ele>752.0</ele>
   </trkpt>
   <trkpt lat="-26.2558610" lon="-51.0839760">
    <ele>752.0</ele>
   </trkpt>
   <trkpt lat="-26.2558470" lon="-51.0839750">
    <ele>752.0</ele>
   </trkpt>
   <trkpt lat="-26.2558240" lon="-51.0839910">
    <ele>751.8</ele>
   </trkpt>
   <trkpt lat="-26.2558170" lon="-51.0840060">
    <ele>751.8</ele>
   </trkpt>
   <trkpt lat="-26.2558160" lon="-51.0840200">
    <ele>752.0</ele>
   </trkpt>
   <trkpt lat="-26.2558190" lon="-51.0840490">
    <ele>752.0</ele>
   </trkpt>
   <trkpt lat="-26.2558190" lon="-51.0840680">
    <ele>752.2</ele>
   </trkpt>
   <trkpt lat="-26.2558290" lon="-51.0841070">
    <ele>752.4</ele>
   </trkpt>
   <trkpt lat="-26.2558410" lon="-51.0841250">
    <ele>752.6</ele>
   </trkpt>
   <trkpt lat="-26.2558580" lon="-51.0841450">
    <ele>752.6</ele>
   </trkpt>
   <trkpt lat="-26.2558770" lon="-51.0841650">
    <ele>752.6</ele>
   </trkpt>
   <trkpt lat="-26.2558950" lon="-51.0841790">
    <ele>752.8</ele>
   </trkpt>
   <trkpt lat="-26.2559100" lon="-51.0841960">
    <ele>753.2</ele>
   </trkpt>
   <trkpt lat="-26.2559860" lon="-51.0842690">
    <ele>753.6</ele>
   </trkpt>
   <trkpt lat="-26.2560450" lon="-51.0843210">
    <ele>754.2</ele>
   </trkpt>
   <trkpt lat="-26.2561090" lon="-51.0843710">
    <ele>754.8</ele>
   </trkpt>
   <trkpt lat="-26.2561510" lon="-51.0844070">
    <ele>755.0</ele>
   </trkpt>
   <trkpt lat="-26.2561700" lon="-51.0844240">
    <ele>755.2</ele>
   </trkpt>
   <trkpt lat="-26.2561890" lon="-51.0844420">
    <ele>755.2</ele>
   </trkpt>
   <trkpt lat="-26.2562060" lon="-51.0844590">
    <ele>755.2</ele>
   </trkpt>
   <trkpt lat="-26.2562240" lon="-51.0844780">
    <ele>755.4</ele>
   </trkpt>
   <trkpt lat="-26.2562450" lon="-51.0844960">
    <ele>755.4</ele>
   </trkpt>
   <trkpt lat="-26.2562660" lon="-51.0845140">
    <ele>755.4</ele>
   </trkpt>
   <trkpt lat="-26.2562860" lon="-51.0845310">
    <ele>755.8</ele>
   </trkpt>
   <trkpt lat="-26.2563040" lon="-51.0845450">
    <ele>755.8</ele>
   </trkpt>
   <trkpt lat="-26.2563360" lon="-51.0845650">
    <ele>755.8</ele>
   </trkpt>
   <trkpt lat="-26.2563750" lon="-51.0845910">
    <ele>756.0</ele>
   </trkpt>
   <trkpt lat="-26.2564050" lon="-51.0846120">
    <ele>756.0</ele>
   </trkpt>
   <trkpt lat="-26.2564340" lon="-51.0846350">
    <ele>755.8</ele>
   </trkpt>
   <trkpt lat="-26.2564620" lon="-51.0846660">
    <ele>755.6</ele>
   </trkpt>
   <trkpt lat="-26.2564910" lon="-51.0847010">
    <ele>755.4</ele>
   </trkpt>
   <trkpt lat="-26.2565250" lon="-51.0847370">
    <ele>755.0</ele>
   </trkpt>
   <trkpt lat="-26.2565630" lon="-51.0847740">
    <ele>754.4</ele>
   </trkpt>
   <trkpt lat="-26.2566040" lon="-51.0848150">
    <ele>754.0</ele>
   </trkpt>
   <trkpt lat="-26.2566990" lon="-51.0849040">
    <ele>752.4</ele>
   </trkpt>
   <trkpt lat="-26.2568060" lon="-51.0849930">
    <ele>751.0</ele>
   </trkpt>
   <trkpt lat="-26.2568610" lon="-51.0850440">
    <ele>749.8</ele>
   </trkpt>
   <trkpt lat="-26.2569650" lon="-51.0851570">
    <ele>748.8</ele>
   </trkpt>
   <trkpt lat="-26.2570250" lon="-51.0852060">
    <ele>748.6</ele>
   </trkpt>
   <trkpt lat="-26.2570910" lon="-51.0852360">
    <ele>748.6</ele>
   </trkpt>
   <trkpt lat="-26.2571540" lon="-51.0852370">
    <ele>748.8</ele>
   </trkpt>
   <trkpt lat="-26.2572080" lon="-51.0852140">
    <ele>748.8</ele>
   </trkpt>
   <trkpt lat="-26.2572460" lon="-51.0851760">
    <ele>749.4</ele>
   </trkpt>
   <trkpt lat="-26.2572710" lon="-51.0851360">
    <ele>750.6</ele>
   </trkpt>
   <trkpt lat="-26.2572900" lon="-51.0851000">
    <ele>752.0</ele>
   </trkpt>
   <trkpt lat="-26.2573070" lon="-51.0850720">
    <ele>753.2</ele>
   </trkpt>
   <trkpt lat="-26.2573210" lon="-51.0850500">
    <ele>754.0</ele>
   </trkpt>
   <trkpt lat="-26.2573320" lon="-51.0850290">
    <ele>754.6</ele>
   </trkpt>
   <trkpt lat="-26.2573420" lon="-51.0850110">
    <ele>755.2</ele>
   </trkpt>
   <trkpt lat="-26.2573520" lon="-51.0849970">
    <ele>755.4</ele>
   </trkpt>
   <trkpt lat="-26.2573620" lon="-51.0849830">
    <ele>755.8</ele>
   </trkpt>
   <trkpt lat="-26.2573730" lon="-51.0849690">
    <ele>756.2</ele>
   </trkpt>
   <trkpt lat="-26.2573850" lon="-51.0849550">
    <ele>756.4</ele>
   </trkpt>
   <trkpt lat="-26.2573930" lon="-51.0849390">
    <ele>756.6</ele>
   </trkpt>
   <trkpt lat="-26.2574020" lon="-51.0849210">
    <ele>756.8</ele>
   </trkpt>
   <trkpt lat="-26.2574140" lon="-51.0849040">
    <ele>757.2</ele>
   </trkpt>
   <trkpt lat="-26.2574240" lon="-51.0848920">
    <ele>757.4</ele>
   </trkpt>
   <trkpt lat="-26.2574320" lon="-51.0848750">
    <ele>757.8</ele>
   </trkpt>
   <trkpt lat="-26.2574380" lon="-51.0848580">
    <ele>757.8</ele>
   </trkpt>
   <trkpt lat="-26.2574480" lon="-51.0848430">
    <ele>758.0</ele>
   </trkpt>
   <trkpt lat="-26.2574510" lon="-51.0848210">
    <ele>758.2</ele>
   </trkpt>
   <trkpt lat="-26.2574570" lon="-51.0848020">
    <ele>758.2</ele>
   </trkpt>
   <trkpt lat="-26.2574670" lon="-51.0847860">
    <ele>758.4</ele>
   </trkpt>
   <trkpt lat="-26.2574780" lon="-51.0847710">
    <ele>758.8</ele>
   </trkpt>
   <trkpt lat="-26.2574880" lon="-51.0847550">
    <ele>759.0</ele>
   </trkpt>
   <trkpt lat="-26.2574950" lon="-51.0847400">
    <ele>759.0</ele>
   </trkpt>
   <trkpt lat="-26.2574980" lon="-51.0847250">
    <ele>759.2</ele>
   </trkpt>
   <trkpt lat="-26.2575040" lon="-51.0847070">
    <ele>759.2</ele>
   </trkpt>
   <trkpt lat="-26.2575120" lon="-51.0846930">
    <ele>759.2</ele>
   </trkpt>
   <trkpt lat="-26.2575210" lon="-51.0846750">
    <ele>759.4</ele>
   </trkpt>
   <trkpt lat="-26.2575320" lon="-51.0846560">
    <ele>759.4</ele>
   </trkpt>
   <trkpt lat="-26.2575420" lon="-51.0846400">
    <ele>759.4</ele>
   </trkpt>
   <trkpt lat="-26.2575550" lon="-51.0846240">
    <ele>759.6</ele>
   </trkpt>
   <trkpt lat="-26.2575690" lon="-51.0846090">
    <ele>759.6</ele>
   </trkpt>
   <trkpt lat="-26.2575840" lon="-51.0845930">
    <ele>759.6</ele>
   </trkpt>
   <trkpt lat="-26.2575990" lon="-51.0845790">
    <ele>759.8</ele>
   </trkpt>
   <trkpt lat="-26.2576120" lon="-51.0845630">
    <ele>759.8</ele>
   </trkpt>
   <trkpt lat="-26.2576230" lon="-51.0845450">
    <ele>759.8</ele>
   </trkpt>
   <trkpt lat="-26.2576350" lon="-51.0845270">
    <ele>759.8</ele>
   </trkpt>
   <trkpt lat="-26.2576440" lon="-51.0845080">
    <ele>759.8</ele>
   </trkpt>
   <trkpt lat="-26.2576570" lon="-51.0844900">
    <ele>760.0</ele>
   </trkpt>
   <trkpt lat="-26.2576680" lon="-51.0844710">
    <ele>760.0</ele>
   </trkpt>
   <trkpt lat="-26.2576810" lon="-51.0844500">
    <ele>760.2</ele>
   </trkpt>
   <trkpt lat="-26.2576940" lon="-51.0844300">
    <ele>760.2</ele>
   </trkpt>
   <trkpt lat="-26.2577040" lon="-51.0844100">
    <ele>760.2</ele>
   </trkpt>
   <trkpt lat="-26.2577170" lon="-51.0843910">
    <ele>760.2</ele>
   </trkpt>
   <trkpt lat="-26.2577350" lon="-51.0843700">
    <ele>760.2</ele>
   </trkpt>
   <trkpt lat="-26.2577460" lon="-51.0843550">
    <ele>760.4</ele>
   </trkpt>
   <trkpt lat="-26.2577600" lon="-51.0843380">
    <ele>760.6</ele>
   </trkpt>
   <trkpt lat="-26.2577750" lon="-51.0843170">
    <ele>760.6</ele>
   </trkpt>
   <trkpt lat="-26.2578080" lon="-51.0842650">
    <ele>760.8</ele>
   </trkpt>
   <trkpt lat="-26.2578200" lon="-51.0842450">
    <ele>760.8</ele>
   </trkpt>
   <trkpt lat="-26.2578980" lon="-51.0841230">
    <ele>761.2</ele>
   </trkpt>
   <trkpt lat="-26.2579320" lon="-51.0840660">
    <ele>761.6</ele>
   </trkpt>
   <trkpt lat="-26.2579730" lon="-51.0839940">
    <ele>762.2</ele>
   </trkpt>
   <trkpt lat="-26.2579850" lon="-51.0839790">
    <ele>762.6</ele>
   </trkpt>
   <trkpt lat="-26.2579980" lon="-51.0839620">
    <ele>762.6</ele>
   </trkpt>
   <trkpt lat="-26.2580100" lon="-51.0839470">
    <ele>762.8</ele>
   </trkpt>
   <trkpt lat="-26.2580220" lon="-51.0839330">
    <ele>763.0</ele>
   </trkpt>
   <trkpt lat="-26.2580330" lon="-51.0839180">
    <ele>763.2</ele>
   </trkpt>
   <trkpt lat="-26.2580410" lon="-51.0839070">
    <ele>763.4</ele>
   </trkpt>
   <trkpt lat="-26.2580510" lon="-51.0838890">
    <ele>763.6</ele>
   </trkpt>
   <trkpt lat="-26.2580590" lon="-51.0838780">
    <ele>763.8</ele>
   </trkpt>
   <trkpt lat="-26.2580680" lon="-51.0838640">
    <ele>764.0</ele>
   </trkpt>
   <trkpt lat="-26.2580770" lon="-51.0838500">
    <ele>764.2</ele>
   </trkpt>
   <trkpt lat="-26.2580850" lon="-51.0838330">
    <ele>764.4</ele>
   </trkpt>
   <trkpt lat="-26.2580920" lon="-51.0838190">
    <ele>764.6</ele>
   </trkpt>
   <trkpt lat="-26.2581000" lon="-51.0838010">
    <ele>765.0</ele>
   </trkpt>
   <trkpt lat="-26.2581070" lon="-51.0837830">
    <ele>765.4</ele>
   </trkpt>
   <trkpt lat="-26.2581150" lon="-51.0837620">
    <ele>765.6</ele>
   </trkpt>
   <trkpt lat="-26.2581210" lon="-51.0837460">
    <ele>765.6</ele>
   </trkpt>
   <trkpt lat="-26.2581280" lon="-51.0837350">
    <ele>766.0</ele>
   </trkpt>
   <trkpt lat="-26.2581380" lon="-51.0837230">
    <ele>766.4</ele>
   </trkpt>
   <trkpt lat="-26.2581530" lon="-51.0837090">
    <ele>766.6</ele>
   </trkpt>
   <trkpt lat="-26.2581630" lon="-51.0836950">
    <ele>766.8</ele>
   </trkpt>
   <trkpt lat="-26.2581730" lon="-51.0836800">
    <ele>767.0</ele>
   </trkpt>
   <trkpt lat="-26.2581790" lon="-51.0836640">
    <ele>767.0</ele>
   </trkpt>
   <trkpt lat="-26.2581820" lon="-51.0836480">
    <ele>767.4</ele>
   </trkpt>
   <trkpt lat="-26.2581860" lon="-51.0836320">
    <ele>767.6</ele>
   </trkpt>
   <trkpt lat="-26.2581950" lon="-51.0836170">
    <ele>768.0</ele>
   </trkpt>
   <trkpt lat="-26.2582050" lon="-51.0836010">
    <ele>768.2</ele>
   </trkpt>
   <trkpt lat="-26.2582200" lon="-51.0835880">
    <ele>768.4</ele>
   </trkpt>
   <trkpt lat="-26.2582330" lon="-51.0835760">
    <ele>768.6</ele>
   </trkpt>
   <trkpt lat="-26.2582450" lon="-51.0835630">
    <ele>768.6</ele>
   </trkpt>
   <trkpt lat="-26.2582580" lon="-51.0835540">
    <ele>768.8</ele>
   </trkpt>
   <trkpt lat="-26.2582730" lon="-51.0835450">
    <ele>769.2</ele>
   </trkpt>
   <trkpt lat="-26.2582840" lon="-51.0835350">
    <ele>769.4</ele>
   </trkpt>
   <trkpt lat="-26.2582910" lon="-51.0835230">
    <ele>769.6</ele>
   </trkpt>
   <trkpt lat="-26.2582980" lon="-51.0835100">
    <ele>769.8</ele>
   </trkpt>
   <trkpt lat="-26.2583100" lon="-51.0834980">
    <ele>770.0</ele>
   </trkpt>
   <trkpt lat="-26.2583190" lon="-51.0834890">
    <ele>770.2</ele>
   </trkpt>
   <trkpt lat="-26.2583290" lon="-51.0834710">
    <ele>770.4</ele>
   </trkpt>
   <trkpt lat="-26.2583370" lon="-51.0834550">
    <ele>770.6</ele>
   </trkpt>
   <trkpt lat="-26.2583440" lon="-51.0834390">
    <ele>770.6</ele>
   </trkpt>
   <trkpt lat="-26.2583510" lon="-51.0834260">
    <ele>771.0</ele>
   </trkpt>
   <trkpt lat="-26.2583580" lon="-51.0834120">
    <ele>771.2</ele>
   </trkpt>
   <trkpt lat="-26.2583610" lon="-51.0833990">
    <ele>771.4</ele>
   </trkpt>
   <trkpt lat="-26.2583590" lon="-51.0833870">
    <ele>771.8</ele>
   </trkpt>
   <trkpt lat="-26.2583560" lon="-51.0833730">
    <ele>771.8</ele>
   </trkpt>
   <trkpt lat="-26.2583530" lon="-51.0833560">
    <ele>772.0</ele>
   </trkpt>
   <trkpt lat="-26.2583530" lon="-51.0833390">
    <ele>772.0</ele>
   </trkpt>
   <trkpt lat="-26.2583570" lon="-51.0833230">
    <ele>772.2</ele>
   </trkpt>
   <trkpt lat="-26.2583670" lon="-51.0833110">
    <ele>772.2</ele>
   </trkpt>
   <trkpt lat="-26.2583800" lon="-51.0833020">
    <ele>772.4</ele>
   </trkpt>
   <trkpt lat="-26.2583910" lon="-51.0832960">
    <ele>772.6</ele>
   </trkpt>
   <trkpt lat="-26.2584050" lon="-51.0832910">
    <ele>772.8</ele>
   </trkpt>
   <trkpt lat="-26.2584190" lon="-51.0832850">
    <ele>773.0</ele>
   </trkpt>
   <trkpt lat="-26.2584300" lon="-51.0832770">
    <ele>773.4</ele>
   </trkpt>
   <trkpt lat="-26.2584390" lon="-51.0832650">
    <ele>773.4</ele>
   </trkpt>
   <trkpt lat="-26.2584500" lon="-51.0832520">
    <ele>773.6</ele>
   </trkpt>
   <trkpt lat="-26.2584590" lon="-51.0832420">
    <ele>773.8</ele>
   </trkpt>
   <trkpt lat="-26.2584670" lon="-51.0832310">
    <ele>774.0</ele>
   </trkpt>
   <trkpt lat="-26.2584770" lon="-51.0832210">
    <ele>774.2</ele>
   </trkpt>
   <trkpt lat="-26.2584850" lon="-51.0832070">
    <ele>774.2</ele>
   </trkpt>
   <trkpt lat="-26.2584910" lon="-51.0831930">
    <ele>774.6</ele>
   </trkpt>
   <trkpt lat="-26.2584980" lon="-51.0831760">
    <ele>774.6</ele>
   </trkpt>
   <trkpt lat="-26.2585070" lon="-51.0831630">
    <ele>775.0</ele>
   </trkpt>
   <trkpt lat="-26.2585150" lon="-51.0831500">
    <ele>775.2</ele>
   </trkpt>
   <trkpt lat="-26.2585220" lon="-51.0831350">
    <ele>775.2</ele>
   </trkpt>
   <trkpt lat="-26.2585300" lon="-51.0831210">
    <ele>775.6</ele>
   </trkpt>
   <trkpt lat="-26.2585390" lon="-51.0831120">
    <ele>775.6</ele>
   </trkpt>
   <trkpt lat="-26.2585470" lon="-51.0831030">
    <ele>775.8</ele>
   </trkpt>
   <trkpt lat="-26.2585550" lon="-51.0830940">
    <ele>776.0</ele>
   </trkpt>
   <trkpt lat="-26.2585570" lon="-51.0830820">
    <ele>776.2</ele>
   </trkpt>
   <trkpt lat="-26.2585580" lon="-51.0830700">
    <ele>776.4</ele>
   </trkpt>
   <trkpt lat="-26.2585600" lon="-51.0830570">
    <ele>776.8</ele>
   </trkpt>
   <trkpt lat="-26.2585620" lon="-51.0830430">
    <ele>776.8</ele>
   </trkpt>
   <trkpt lat="-26.2585630" lon="-51.0830260">
    <ele>777.0</ele>
   </trkpt>
   <trkpt lat="-26.2585660" lon="-51.0830090">
    <ele>777.2</ele>
   </trkpt>
   <trkpt lat="-26.2585750" lon="-51.0829950">
    <ele>777.4</ele>
   </trkpt>
   <trkpt lat="-26.2585860" lon="-51.0829890">
    <ele>777.6</ele>
   </trkpt>
   <trkpt lat="-26.2586000" lon="-51.0829850">
    <ele>777.8</ele>
   </trkpt>
   <trkpt lat="-26.2586140" lon="-51.0829820">
    <ele>778.0</ele>
   </trkpt>
   <trkpt lat="-26.2586270" lon="-51.0829790">
    <ele>778.2</ele>
   </trkpt>
   <trkpt lat="-26.2586370" lon="-51.0829710">
    <ele>778.4</ele>
   </trkpt>
   <trkpt lat="-26.2586490" lon="-51.0829600">
    <ele>778.4</ele>
   </trkpt>
   <trkpt lat="-26.2586560" lon="-51.0829470">
    <ele>778.6</ele>
   </trkpt>
   <trkpt lat="-26.2586600" lon="-51.0829330">
    <ele>778.6</ele>
   </trkpt>
   <trkpt lat="-26.2586620" lon="-51.0829200">
    <ele>779.0</ele>
   </trkpt>
   <trkpt lat="-26.2586630" lon="-51.0829060">
    <ele>779.2</ele>
   </trkpt>
   <trkpt lat="-26.2586630" lon="-51.0828880">
    <ele>779.2</ele>
   </trkpt>
   <trkpt lat="-26.2586660" lon="-51.0828710">
    <ele>779.4</ele>
   </trkpt>
   <trkpt lat="-26.2586800" lon="-51.0828600">
    <ele>779.8</ele>
   </trkpt>
   <trkpt lat="-26.2586940" lon="-51.0828530">
    <ele>780.0</ele>
   </trkpt>
   <trkpt lat="-26.2587080" lon="-51.0828500">
    <ele>780.0</ele>
   </trkpt>
   <trkpt lat="-26.2587210" lon="-51.0828440">
    <ele>780.2</ele>
   </trkpt>
   <trkpt lat="-26.2587360" lon="-51.0828360">
    <ele>780.4</ele>
   </trkpt>
   <trkpt lat="-26.2587490" lon="-51.0828270">
    <ele>780.4</ele>
   </trkpt>
   <trkpt lat="-26.2587590" lon="-51.0828170">
    <ele>780.8</ele>
   </trkpt>
   <trkpt lat="-26.2587620" lon="-51.0828060">
    <ele>781.0</ele>
   </trkpt>
   <trkpt lat="-26.2587610" lon="-51.0827930">
    <ele>781.0</ele>
   </trkpt>
   <trkpt lat="-26.2587570" lon="-51.0827780">
    <ele>781.2</ele>
   </trkpt>
   <trkpt lat="-26.2587550" lon="-51.0827610">
    <ele>781.4</ele>
   </trkpt>
   <trkpt lat="-26.2587560" lon="-51.0827450">
    <ele>781.4</ele>
   </trkpt>
   <trkpt lat="-26.2587630" lon="-51.0827320">
    <ele>781.6</ele>
   </trkpt>
   <trkpt lat="-26.2587700" lon="-51.0827200">
    <ele>781.8</ele>
   </trkpt>
   <trkpt lat="-26.2587810" lon="-51.0827110">
    <ele>782.0</ele>
   </trkpt>
   <trkpt lat="-26.2587970" lon="-51.0827060">
    <ele>782.0</ele>
   </trkpt>
   <trkpt lat="-26.2588130" lon="-51.0827050">
    <ele>782.4</ele>
   </trkpt>
   <trkpt lat="-26.2588280" lon="-51.0827010">
    <ele>782.6</ele>
   </trkpt>
   <trkpt lat="-26.2588410" lon="-51.0826950">
    <ele>782.6</ele>
   </trkpt>
   <trkpt lat="-26.2588500" lon="-51.0826850">
    <ele>782.8</ele>
   </trkpt>
   <trkpt lat="-26.2588570" lon="-51.0826720">
    <ele>783.0</ele>
   </trkpt>
   <trkpt lat="-26.2588600" lon="-51.0826580">
    <ele>783.2</ele>
   </trkpt>
   <trkpt lat="-26.2588580" lon="-51.0826440">
    <ele>783.4</ele>
   </trkpt>
   <trkpt lat="-26.2588570" lon="-51.0826320">
    <ele>783.4</ele>
   </trkpt>
   <trkpt lat="-26.2588570" lon="-51.0826160">
    <ele>783.6</ele>
   </trkpt>
   <trkpt lat="-26.2588610" lon="-51.0826030">
    <ele>783.6</ele>
   </trkpt>
   <trkpt lat="-26.2588690" lon="-51.0825900">
    <ele>783.8</ele>
   </trkpt>
   <trkpt lat="-26.2588820" lon="-51.0825840">
    <ele>784.0</ele>
   </trkpt>
   <trkpt lat="-26.2588970" lon="-51.0825780">
    <ele>784.2</ele>
   </trkpt>
   <trkpt lat="-26.2589090" lon="-51.0825700">
    <ele>784.4</ele>
   </trkpt>
   <trkpt lat="-26.2589170" lon="-51.0825590">
    <ele>784.6</ele>
   </trkpt>
   <trkpt lat="-26.2589270" lon="-51.0825460">
    <ele>784.6</ele>
   </trkpt>
   <trkpt lat="-26.2589390" lon="-51.0825380">
    <ele>784.8</ele>
   </trkpt>
   <trkpt lat="-26.2589490" lon="-51.0825290">
    <ele>785.0</ele>
   </trkpt>
   <trkpt lat="-26.2589540" lon="-51.0825170">
    <ele>785.2</ele>
   </trkpt>
   <trkpt lat="-26.2589570" lon="-51.0825040">
    <ele>785.2</ele>
   </trkpt>
   <trkpt lat="-26.2589600" lon="-51.0824920">
    <ele>785.2</ele>
   </trkpt>
   <trkpt lat="-26.2589610" lon="-51.0824800">
    <ele>785.6</ele>
   </trkpt>
   <trkpt lat="-26.2589630" lon="-51.0824670">
    <ele>785.8</ele>
   </trkpt>
   <trkpt lat="-26.2589690" lon="-51.0824510">
    <ele>785.8</ele>
   </trkpt>
   <trkpt lat="-26.2589770" lon="-51.0824390">
    <ele>786.0</ele>
   </trkpt>
   <trkpt lat="-26.2589890" lon="-51.0824320">
    <ele>786.2</ele>
   </trkpt>
   <trkpt lat="-26.2589990" lon="-51.0824230">
    <ele>786.4</ele>
   </trkpt>
   <trkpt lat="-26.2590070" lon="-51.0824120">
    <ele>786.4</ele>
   </trkpt>
   <trkpt lat="-26.2590140" lon="-51.0824000">
    <ele>786.6</ele>
   </trkpt>
   <trkpt lat="-26.2590190" lon="-51.0823870">
    <ele>786.8</ele>
   </trkpt>
   <trkpt lat="-26.2590280" lon="-51.0823750">
    <ele>786.8</ele>
   </trkpt>
   <trkpt lat="-26.2590340" lon="-51.0823640">
    <ele>787.0</ele>
   </trkpt>
   <trkpt lat="-26.2590400" lon="-51.0823520">
    <ele>787.2</ele>
   </trkpt>
   <trkpt lat="-26.2590460" lon="-51.0823400">
    <ele>787.2</ele>
   </trkpt>
   <trkpt lat="-26.2590540" lon="-51.0823280">
    <ele>787.6</ele>
   </trkpt>
   <trkpt lat="-26.2590620" lon="-51.0823150">
    <ele>787.8</ele>
   </trkpt>
   <trkpt lat="-26.2590700" lon="-51.0823010">
    <ele>788.0</ele>
   </trkpt>
   <trkpt lat="-26.2590780" lon="-51.0822870">
    <ele>788.0</ele>
   </trkpt>
   <trkpt lat="-26.2590820" lon="-51.0822750">
    <ele>788.2</ele>
   </trkpt>
   <trkpt lat="-26.2590900" lon="-51.0822580">
    <ele>788.2</ele>
   </trkpt>
   <trkpt lat="-26.2590990" lon="-51.0822480">
    <ele>788.6</ele>
   </trkpt>
   <trkpt lat="-26.2591080" lon="-51.0822370">
    <ele>788.6</ele>
   </trkpt>
   <trkpt lat="-26.2591170" lon="-51.0822270">
    <ele>789.0</ele>
   </trkpt>
   <trkpt lat="-26.2591200" lon="-51.0822170">
    <ele>789.2</ele>
   </trkpt>
   <trkpt lat="-26.2591200" lon="-51.0822070">
    <ele>789.4</ele>
   </trkpt>
   <trkpt lat="-26.2591200" lon="-51.0821950">
    <ele>789.6</ele>
   </trkpt>
   <trkpt lat="-26.2591230" lon="-51.0821800">
    <ele>790.0</ele>
   </trkpt>
   <trkpt lat="-26.2591350" lon="-51.0821690">
    <ele>790.0</ele>
   </trkpt>
   <trkpt lat="-26.2591510" lon="-51.0821650">
    <ele>790.0</ele>
   </trkpt>
   <trkpt lat="-26.2591660" lon="-51.0821600">
    <ele>790.4</ele>
   </trkpt>
   <trkpt lat="-26.2591770" lon="-51.0821500">
    <ele>790.6</ele>
   </trkpt>
   <trkpt lat="-26.2591880" lon="-51.0821440">
    <ele>791.0</ele>
   </trkpt>
   <trkpt lat="-26.2591990" lon="-51.0821380">
    <ele>791.0</ele>
   </trkpt>
   <trkpt lat="-26.2592050" lon="-51.0821300">
    <ele>791.2</ele>
   </trkpt>
   <trkpt lat="-26.2592030" lon="-51.0821190">
    <ele>791.4</ele>
   </trkpt>
   <trkpt lat="-26.2591980" lon="-51.0821050">
    <ele>791.6</ele>
   </trkpt>
   <trkpt lat="-26.2591950" lon="-51.0820930">
    <ele>792.0</ele>
   </trkpt>
   <trkpt lat="-26.2591910" lon="-51.0820790">
    <ele>792.2</ele>
   </trkpt>
   <trkpt lat="-26.2591890" lon="-51.0820630">
    <ele>792.2</ele>
   </trkpt>
   <trkpt lat="-26.2591880" lon="-51.0820490">
    <ele>792.4</ele>
   </trkpt>
   <trkpt lat="-26.2591960" lon="-51.0820360">
    <ele>792.6</ele>
   </trkpt>
   <trkpt lat="-26.2592120" lon="-51.0820340">
    <ele>792.8</ele>
   </trkpt>
   <trkpt lat="-26.2592280" lon="-51.0820350">
    <ele>793.0</ele>
   </trkpt>
   <trkpt lat="-26.2592390" lon="-51.0820360">
    <ele>793.4</ele>
   </trkpt>
   <trkpt lat="-26.2592480" lon="-51.0820350">
    <ele>793.6</ele>
   </trkpt>
   <trkpt lat="-26.2592610" lon="-51.0820320">
    <ele>793.8</ele>
   </trkpt>
   <trkpt lat="-26.2592690" lon="-51.0820270">
    <ele>794.0</ele>
   </trkpt>
   <trkpt lat="-26.2592700" lon="-51.0820160">
    <ele>794.0</ele>
   </trkpt>
   <trkpt lat="-26.2592690" lon="-51.0820040">
    <ele>794.4</ele>
   </trkpt>
   <trkpt lat="-26.2592670" lon="-51.0819910">
    <ele>794.8</ele>
   </trkpt>
   <trkpt lat="-26.2592650" lon="-51.0819750">
    <ele>795.0</ele>
   </trkpt>
   <trkpt lat="-26.2592650" lon="-51.0819550">
    <ele>795.0</ele>
   </trkpt>
   <trkpt lat="-26.2592680" lon="-51.0819380">
    <ele>795.2</ele>
   </trkpt>
   <trkpt lat="-26.2592740" lon="-51.0819240">
    <ele>795.4</ele>
   </trkpt>
   <trkpt lat="-26.2592830" lon="-51.0819150">
    <ele>795.8</ele>
   </trkpt>
   <trkpt lat="-26.2592970" lon="-51.0819150">
    <ele>796.0</ele>
   </trkpt>
   <trkpt lat="-26.2593130" lon="-51.0819190">
    <ele>796.2</ele>
   </trkpt>
   <trkpt lat="-26.2593260" lon="-51.0819210">
    <ele>796.4</ele>
   </trkpt>
   <trkpt lat="-26.2593370" lon="-51.0819190">
    <ele>796.6</ele>
   </trkpt>
   <trkpt lat="-26.2593460" lon="-51.0819130">
    <ele>796.8</ele>
   </trkpt>
   <trkpt lat="-26.2593510" lon="-51.0819030">
    <ele>796.8</ele>
   </trkpt>
   <trkpt lat="-26.2593490" lon="-51.0818910">
    <ele>797.0</ele>
   </trkpt>
   <trkpt lat="-26.2593470" lon="-51.0818800">
    <ele>797.2</ele>
   </trkpt>
   <trkpt lat="-26.2593440" lon="-51.0818660">
    <ele>797.6</ele>
   </trkpt>
   <trkpt lat="-26.2593430" lon="-51.0818530">
    <ele>797.6</ele>
   </trkpt>
   <trkpt lat="-26.2593390" lon="-51.0818440">
    <ele>798.0</ele>
   </trkpt>
   <trkpt lat="-26.2593410" lon="-51.0818330">
    <ele>798.0</ele>
   </trkpt>
   <trkpt lat="-26.2593510" lon="-51.0818230">
    <ele>798.2</ele>
   </trkpt>
   <trkpt lat="-26.2593610" lon="-51.0818200">
    <ele>798.6</ele>
   </trkpt>
   <trkpt lat="-26.2593700" lon="-51.0818210">
    <ele>798.8</ele>
   </trkpt>
   <trkpt lat="-26.2593780" lon="-51.0818200">
    <ele>798.8</ele>
   </trkpt>
   <trkpt lat="-26.2593850" lon="-51.0818190">
    <ele>799.0</ele>
   </trkpt>
   <trkpt lat="-26.2593890" lon="-51.0818160">
    <ele>799.2</ele>
   </trkpt>
   <trkpt lat="-26.2593910" lon="-51.0817870">
    <ele>799.8</ele>
   </trkpt>
   <trkpt lat="-26.2593880" lon="-51.0817730">
    <ele>800.2</ele>
   </trkpt>
   <trkpt lat="-26.2593890" lon="-51.0817610">
    <ele>800.2</ele>
   </trkpt>
   <trkpt lat="-26.2593960" lon="-51.0817480">
    <ele>800.4</ele>
   </trkpt>
   <trkpt lat="-26.2594080" lon="-51.0817430">
    <ele>800.4</ele>
   </trkpt>
   <trkpt lat="-26.2594200" lon="-51.0817410">
    <ele>800.6</ele>
   </trkpt>
   <trkpt lat="-26.2594290" lon="-51.0817370">
    <ele>800.8</ele>
   </trkpt>
   <trkpt lat="-26.2594370" lon="-51.0817320">
    <ele>801.0</ele>
   </trkpt>
   <trkpt lat="-26.2594440" lon="-51.0817180">
    <ele>801.2</ele>
   </trkpt>
   <trkpt lat="-26.2594440" lon="-51.0816940">
    <ele>801.8</ele>
   </trkpt>
   <trkpt lat="-26.2594460" lon="-51.0816780">
    <ele>802.0</ele>
   </trkpt>
   <trkpt lat="-26.2594490" lon="-51.0816690">
    <ele>802.2</ele>
   </trkpt>
   <trkpt lat="-26.2594500" lon="-51.0816610">
    <ele>802.4</ele>
   </trkpt>
   <trkpt lat="-26.2594610" lon="-51.0816220">
    <ele>802.8</ele>
   </trkpt>
   <trkpt lat="-26.2594630" lon="-51.0816130">
    <ele>803.0</ele>
   </trkpt>
   <trkpt lat="-26.2594620" lon="-51.0816050">
    <ele>803.2</ele>
   </trkpt>
   <trkpt lat="-26.2594610" lon="-51.0815990">
    <ele>803.4</ele>
   </trkpt>
   <trkpt lat="-26.2594430" lon="-51.0815840">
    <ele>803.8</ele>
   </trkpt>
   <trkpt lat="-26.2594380" lon="-51.0815720">
    <ele>803.8</ele>
   </trkpt>
   <trkpt lat="-26.2594340" lon="-51.0815610">
    <ele>804.0</ele>
   </trkpt>
   <trkpt lat="-26.2594350" lon="-51.0815480">
    <ele>804.0</ele>
   </trkpt>
   <trkpt lat="-26.2594380" lon="-51.0815380">
    <ele>804.2</ele>
   </trkpt>
   <trkpt lat="-26.2594400" lon="-51.0815280">
    <ele>804.4</ele>
   </trkpt>
   <trkpt lat="-26.2594450" lon="-51.0815200">
    <ele>804.8</ele>
   </trkpt>
   <trkpt lat="-26.2594480" lon="-51.0815110">
    <ele>804.8</ele>
   </trkpt>
   <trkpt lat="-26.2594500" lon="-51.0815070">
    <ele>805.0</ele>
   </trkpt>
   <trkpt lat="-26.2594490" lon="-51.0815040">
    <ele>805.2</ele>
   </trkpt>
   <trkpt lat="-26.2594390" lon="-51.0814960">
    <ele>805.4</ele>
   </trkpt>
   <trkpt lat="-26.2594270" lon="-51.0814910">
    <ele>805.6</ele>
   </trkpt>
   <trkpt lat="-26.2594170" lon="-51.0814860">
    <ele>805.8</ele>
   </trkpt>
   <trkpt lat="-26.2594070" lon="-51.0814770">
    <ele>806.0</ele>
   </trkpt>
   <trkpt lat="-26.2594020" lon="-51.0814700">
    <ele>806.2</ele>
   </trkpt>
   <trkpt lat="-26.2593950" lon="-51.0814600">
    <ele>806.4</ele>
   </trkpt>
   <trkpt lat="-26.2593900" lon="-51.0814540">
    <ele>806.6</ele>
   </trkpt>
   <trkpt lat="-26.2593870" lon="-51.0814460">
    <ele>806.8</ele>
   </trkpt>
   <trkpt lat="-26.2593790" lon="-51.0814310">
    <ele>807.0</ele>
   </trkpt>
   <trkpt lat="-26.2593750" lon="-51.0814230">
    <ele>807.4</ele>
   </trkpt>
   <trkpt lat="-26.2593710" lon="-51.0814140">
    <ele>807.6</ele>
   </trkpt>
   <trkpt lat="-26.2593650" lon="-51.0814050">
    <ele>807.8</ele>
   </trkpt>
   <trkpt lat="-26.2593570" lon="-51.0813870">
    <ele>808.0</ele>
   </trkpt>
   <trkpt lat="-26.2593490" lon="-51.0813780">
    <ele>808.2</ele>
   </trkpt>
   <trkpt lat="-26.2593420" lon="-51.0813700">
    <ele>808.4</ele>
   </trkpt>
   <trkpt lat="-26.2593400" lon="-51.0813610">
    <ele>808.8</ele>
   </trkpt>
   <trkpt lat="-26.2593380" lon="-51.0813500">
    <ele>809.0</ele>
   </trkpt>
   <trkpt lat="-26.2593340" lon="-51.0813430">
    <ele>809.4</ele>
   </trkpt>
   <trkpt lat="-26.2593320" lon="-51.0813340">
    <ele>809.8</ele>
   </trkpt>
   <trkpt lat="-26.2593280" lon="-51.0813240">
    <ele>810.0</ele>
   </trkpt>
   <trkpt lat="-26.2593240" lon="-51.0813150">
    <ele>810.0</ele>
   </trkpt>
   <trkpt lat="-26.2593180" lon="-51.0813080">
    <ele>810.2</ele>
   </trkpt>
   <trkpt lat="-26.2592960" lon="-51.0812740">
    <ele>811.0</ele>
   </trkpt>
   <trkpt lat="-26.2592900" lon="-51.0812600">
    <ele>811.0</ele>
   </trkpt>
   <trkpt lat="-26.2592470" lon="-51.0812070">
    <ele>811.8</ele>
   </trkpt>
   <trkpt lat="-26.2592520" lon="-51.0811570">
    <ele>812.2</ele>
   </trkpt>
   <trkpt lat="-26.2592630" lon="-51.0811500">
    <ele>812.2</ele>
   </trkpt>
   <trkpt lat="-26.2592760" lon="-51.0811430">
    <ele>812.2</ele>
   </trkpt>
   <trkpt lat="-26.2592820" lon="-51.0811390">
    <ele>812.2</ele>
   </trkpt>
   <trkpt lat="-26.2592860" lon="-51.0811350">
    <ele>812.4</ele>
   </trkpt>
   <trkpt lat="-26.2592970" lon="-51.0811280">
    <ele>812.4</ele>
   </trkpt>
   <trkpt lat="-26.2593100" lon="-51.0811220">
    <ele>812.6</ele>
   </trkpt>
   <trkpt lat="-26.2593210" lon="-51.0811110">
    <ele>813.0</ele>
   </trkpt>
   <trkpt lat="-26.2593300" lon="-51.0810980">
    <ele>813.2</ele>
   </trkpt>
   <trkpt lat="-26.2593440" lon="-51.0810880">
    <ele>813.4</ele>
   </trkpt>
   <trkpt lat="-26.2593580" lon="-51.0810780">
    <ele>813.4</ele>
   </trkpt>
   <trkpt lat="-26.2593710" lon="-51.0810720">
    <ele>813.6</ele>
   </trkpt>
   <trkpt lat="-26.2593830" lon="-51.0810660">
    <ele>814.0</ele>
   </trkpt>
   <trkpt lat="-26.2593930" lon="-51.0810580">
    <ele>814.2</ele>
   </trkpt>
   <trkpt lat="-26.2593980" lon="-51.0810450">
    <ele>814.4</ele>
   </trkpt>
   <trkpt lat="-26.2594020" lon="-51.0810290">
    <ele>814.4</ele>
   </trkpt>
   <trkpt lat="-26.2594050" lon="-51.0810170">
    <ele>814.8</ele>
   </trkpt>
   <trkpt lat="-26.2594050" lon="-51.0810000">
    <ele>815.2</ele>
   </trkpt>
   <trkpt lat="-26.2594030" lon="-51.0809860">
    <ele>815.4</ele>
   </trkpt>
   <trkpt lat="-26.2593990" lon="-51.0809740">
    <ele>815.6</ele>
   </trkpt>
   <trkpt lat="-26.2593910" lon="-51.0809590">
    <ele>815.6</ele>
   </trkpt>
   <trkpt lat="-26.2593850" lon="-51.0809430">
    <ele>815.8</ele>
   </trkpt>
   <trkpt lat="-26.2593840" lon="-51.0809270">
    <ele>815.8</ele>
   </trkpt>
   <trkpt lat="-26.2593830" lon="-51.0809130">
    <ele>816.0</ele>
   </trkpt>
   <trkpt lat="-26.2593830" lon="-51.0809000">
    <ele>816.2</ele>
   </trkpt>
   <trkpt lat="-26.2593840" lon="-51.0808900">
    <ele>816.2</ele>
   </trkpt>
   <trkpt lat="-26.2593830" lon="-51.0808780">
    <ele>816.4</ele>
   </trkpt>
   <trkpt lat="-26.2593800" lon="-51.0808630">
    <ele>816.6</ele>
   </trkpt>
   <trkpt lat="-26.2593820" lon="-51.0808480">
    <ele>816.6</ele>
   </trkpt>
   <trkpt lat="-26.2593840" lon="-51.0808350">
    <ele>816.8</ele>
   </trkpt>
   <trkpt lat="-26.2593860" lon="-51.0808200">
    <ele>817.0</ele>
   </trkpt>
   <trkpt lat="-26.2593860" lon="-51.0808080">
    <ele>817.2</ele>
   </trkpt>
   <trkpt lat="-26.2593840" lon="-51.0807960">
    <ele>817.4</ele>
   </trkpt>
   <trkpt lat="-26.2593830" lon="-51.0807790">
    <ele>817.6</ele>
   </trkpt>
   <trkpt lat="-26.2593810" lon="-51.0807650">
    <ele>817.6</ele>
   </trkpt>
   <trkpt lat="-26.2593760" lon="-51.0807530">
    <ele>817.6</ele>
   </trkpt>
   <trkpt lat="-26.2593720" lon="-51.0807460">
    <ele>817.6</ele>
   </trkpt>
   <trkpt lat="-26.2593660" lon="-51.0807380">
    <ele>817.8</ele>
   </trkpt>
   <trkpt lat="-26.2593620" lon="-51.0807290">
    <ele>818.0</ele>
   </trkpt>
   <trkpt lat="-26.2593610" lon="-51.0807210">
    <ele>818.0</ele>
   </trkpt>
   <trkpt lat="-26.2593580" lon="-51.0807110">
    <ele>818.2</ele>
   </trkpt>
   <trkpt lat="-26.2593590" lon="-51.0806990">
    <ele>818.2</ele>
   </trkpt>
   <trkpt lat="-26.2593650" lon="-51.0806880">
    <ele>818.2</ele>
   </trkpt>
   <trkpt lat="-26.2593690" lon="-51.0806750">
    <ele>818.4</ele>
   </trkpt>
   <trkpt lat="-26.2593710" lon="-51.0806600">
    <ele>818.4</ele>
   </trkpt>
   <trkpt lat="-26.2593760" lon="-51.0806490">
    <ele>818.6</ele>
   </trkpt>
   <trkpt lat="-26.2593780" lon="-51.0806370">
    <ele>818.6</ele>
   </trkpt>
   <trkpt lat="-26.2593820" lon="-51.0806250">
    <ele>818.8</ele>
   </trkpt>
   <trkpt lat="-26.2593840" lon="-51.0806110">
    <ele>818.8</ele>
   </trkpt>
   <trkpt lat="-26.2593890" lon="-51.0805980">
    <ele>818.8</ele>
   </trkpt>
   <trkpt lat="-26.2593960" lon="-51.0805860">
    <ele>818.8</ele>
   </trkpt>
   <trkpt lat="-26.2594030" lon="-51.0805740">
    <ele>819.0</ele>
   </trkpt>
   <trkpt lat="-26.2594100" lon="-51.0805600">
    <ele>819.0</ele>
   </trkpt>
   <trkpt lat="-26.2594180" lon="-51.0805470">
    <ele>819.0</ele>
   </trkpt>
   <trkpt lat="-26.2594220" lon="-51.0805320">
    <ele>819.2</ele>
   </trkpt>
   <trkpt lat="-26.2594300" lon="-51.0805190">
    <ele>819.2</ele>
   </trkpt>
   <trkpt lat="-26.2594380" lon="-51.0805060">
    <ele>819.4</ele>
   </trkpt>
   <trkpt lat="-26.2594460" lon="-51.0804910">
    <ele>819.4</ele>
   </trkpt>
   <trkpt lat="-26.2594530" lon="-51.0804790">
    <ele>819.6</ele>
   </trkpt>
   <trkpt lat="-26.2594790" lon="-51.0804350">
    <ele>820.6</ele>
   </trkpt>
   <trkpt lat="-26.2594880" lon="-51.0804260">
    <ele>820.8</ele>
   </trkpt>
   <trkpt lat="-26.2594960" lon="-51.0804150">
    <ele>820.8</ele>
   </trkpt>
   <trkpt lat="-26.2595040" lon="-51.0804030">
    <ele>820.8</ele>
   </trkpt>
   <trkpt lat="-26.2595150" lon="-51.0803890">
    <ele>821.0</ele>
   </trkpt>
   <trkpt lat="-26.2595260" lon="-51.0803770">
    <ele>821.0</ele>
   </trkpt>
   <trkpt lat="-26.2595310" lon="-51.0803600">
    <ele>821.2</ele>
   </trkpt>
   <trkpt lat="-26.2595330" lon="-51.0803420">
    <ele>821.6</ele>
   </trkpt>
   <trkpt lat="-26.2595320" lon="-51.0803270">
    <ele>822.0</ele>
   </trkpt>
   <trkpt lat="-26.2595320" lon="-51.0803100">
    <ele>822.6</ele>
   </trkpt>
   <trkpt lat="-26.2595340" lon="-51.0802930">
    <ele>822.6</ele>
   </trkpt>
   <trkpt lat="-26.2595350" lon="-51.0802770">
    <ele>822.8</ele>
   </trkpt>
   <trkpt lat="-26.2595370" lon="-51.0802630">
    <ele>822.8</ele>
   </trkpt>
   <trkpt lat="-26.2595420" lon="-51.0802520">
    <ele>823.0</ele>
   </trkpt>
   <trkpt lat="-26.2595450" lon="-51.0802380">
    <ele>823.2</ele>
   </trkpt>
   <trkpt lat="-26.2595480" lon="-51.0802210">
    <ele>823.2</ele>
   </trkpt>
   <trkpt lat="-26.2595550" lon="-51.0802070">
    <ele>823.4</ele>
   </trkpt>
   <trkpt lat="-26.2595600" lon="-51.0801960">
    <ele>823.4</ele>
   </trkpt>
   <trkpt lat="-26.2595620" lon="-51.0801810">
    <ele>823.6</ele>
   </trkpt>
   <trkpt lat="-26.2595660" lon="-51.0801660">
    <ele>823.8</ele>
   </trkpt>
   <trkpt lat="-26.2595680" lon="-51.0801510">
    <ele>824.0</ele>
   </trkpt>
   <trkpt lat="-26.2595680" lon="-51.0801350">
    <ele>824.2</ele>
   </trkpt>
   <trkpt lat="-26.2595700" lon="-51.0801180">
    <ele>824.2</ele>
   </trkpt>
   <trkpt lat="-26.2595720" lon="-51.0801040">
    <ele>824.4</ele>
   </trkpt>
   <trkpt lat="-26.2595740" lon="-51.0800950">
    <ele>824.6</ele>
   </trkpt>
   <trkpt lat="-26.2595720" lon="-51.0800800">
    <ele>824.8</ele>
   </trkpt>
   <trkpt lat="-26.2595700" lon="-51.0800650">
    <ele>825.0</ele>
   </trkpt>
   <trkpt lat="-26.2595680" lon="-51.0800500">
    <ele>825.2</ele>
   </trkpt>
   <trkpt lat="-26.2595680" lon="-51.0800380">
    <ele>825.2</ele>
   </trkpt>
   <trkpt lat="-26.2595710" lon="-51.0800260">
    <ele>825.4</ele>
   </trkpt>
   <trkpt lat="-26.2595770" lon="-51.0800120">
    <ele>825.6</ele>
   </trkpt>
   <trkpt lat="-26.2595810" lon="-51.0799990">
    <ele>825.8</ele>
   </trkpt>
   <trkpt lat="-26.2595870" lon="-51.0799910">
    <ele>826.0</ele>
   </trkpt>
   <trkpt lat="-26.2595940" lon="-51.0799810">
    <ele>826.2</ele>
   </trkpt>
   <trkpt lat="-26.2596030" lon="-51.0799730">
    <ele>826.4</ele>
   </trkpt>
   <trkpt lat="-26.2596100" lon="-51.0799640">
    <ele>826.6</ele>
   </trkpt>
   <trkpt lat="-26.2596170" lon="-51.0799580">
    <ele>826.6</ele>
   </trkpt>
   <trkpt lat="-26.2596240" lon="-51.0799540">
    <ele>826.8</ele>
   </trkpt>
   <trkpt lat="-26.2596320" lon="-51.0799440">
    <ele>827.0</ele>
   </trkpt>
   <trkpt lat="-26.2596400" lon="-51.0799300">
    <ele>827.0</ele>
   </trkpt>
   <trkpt lat="-26.2596470" lon="-51.0799170">
    <ele>827.0</ele>
   </trkpt>
   <trkpt lat="-26.2596560" lon="-51.0799080">
    <ele>827.2</ele>
   </trkpt>
   <trkpt lat="-26.2596660" lon="-51.0799000">
    <ele>827.2</ele>
   </trkpt>
   <trkpt lat="-26.2596780" lon="-51.0798940">
    <ele>827.4</ele>
   </trkpt>
   <trkpt lat="-26.2596900" lon="-51.0798890">
    <ele>827.4</ele>
   </trkpt>
   <trkpt lat="-26.2597010" lon="-51.0798880">
    <ele>827.6</ele>
   </trkpt>
   <trkpt lat="-26.2597110" lon="-51.0798870">
    <ele>827.6</ele>
   </trkpt>
   <trkpt lat="-26.2597200" lon="-51.0798840">
    <ele>827.6</ele>
   </trkpt>
   <trkpt lat="-26.2597260" lon="-51.0798780">
    <ele>827.8</ele>
   </trkpt>
   <trkpt lat="-26.2597340" lon="-51.0798690">
    <ele>828.0</ele>
   </trkpt>
   <trkpt lat="-26.2597410" lon="-51.0798580">
    <ele>828.0</ele>
   </trkpt>
   <trkpt lat="-26.2597460" lon="-51.0798480">
    <ele>828.0</ele>
   </trkpt>
   <trkpt lat="-26.2597540" lon="-51.0798390">
    <ele>828.0</ele>
   </trkpt>
   <trkpt lat="-26.2597650" lon="-51.0798330">
    <ele>828.2</ele>
   </trkpt>
   <trkpt lat="-26.2597770" lon="-51.0798310">
    <ele>828.2</ele>
   </trkpt>
   <trkpt lat="-26.2597890" lon="-51.0798320">
    <ele>828.2</ele>
   </trkpt>
   <trkpt lat="-26.2597990" lon="-51.0798300">
    <ele>828.4</ele>
   </trkpt>
   <trkpt lat="-26.2598110" lon="-51.0798310">
    <ele>828.6</ele>
   </trkpt>
   <trkpt lat="-26.2598240" lon="-51.0798360">
    <ele>828.6</ele>
   </trkpt>
   <trkpt lat="-26.2598310" lon="-51.0798410">
    <ele>828.8</ele>
   </trkpt>
   <trkpt lat="-26.2598350" lon="-51.0798430">
    <ele>829.2</ele>
   </trkpt>
   <trkpt lat="-26.2598290" lon="-51.0798390">
    <ele>829.0</ele>
   </trkpt>
   <trkpt lat="-26.2598290" lon="-51.0798390">
    <ele>828.8</ele>
   </trkpt>
   <trkpt lat="-26.2598290" lon="-51.0798390">
    <ele>828.8</ele>
   </trkpt>
   <trkpt lat="-26.2598290" lon="-51.0798390">
    <ele>828.8</ele>
   </trkpt>
   <trkpt lat="-26.2598290" lon="-51.0798390">
    <ele>828.8</ele>
   </trkpt>
   <trkpt lat="-26.2598290" lon="-51.0798390">
    <ele>828.8</ele>
   </trkpt>
   <trkpt lat="-26.2598290" lon="-51.0798390">
    <ele>828.8</ele>
   </trkpt>
   <trkpt lat="-26.2598290" lon="-51.0798390">
    <ele>828.8</ele>
   </trkpt>
   <trkpt lat="-26.2598290" lon="-51.0798390">
    <ele>828.8</ele>
   </trkpt>
   <trkpt lat="-26.2598450" lon="-51.0798450">
    <ele>828.6</ele>
   </trkpt>
   <trkpt lat="-26.2598580" lon="-51.0798420">
    <ele>828.6</ele>
   </trkpt>
   <trkpt lat="-26.2598660" lon="-51.0798380">
    <ele>828.6</ele>
   </trkpt>
   <trkpt lat="-26.2598770" lon="-51.0798330">
    <ele>828.8</ele>
   </trkpt>
   <trkpt lat="-26.2598900" lon="-51.0798290">
    <ele>829.0</ele>
   </trkpt>
   <trkpt lat="-26.2599010" lon="-51.0798280">
    <ele>829.2</ele>
   </trkpt>
   <trkpt lat="-26.2599110" lon="-51.0798260">
    <ele>829.6</ele>
   </trkpt>
   <trkpt lat="-26.2599220" lon="-51.0798240">
    <ele>829.6</ele>
   </trkpt>
   <trkpt lat="-26.2599650" lon="-51.0798010">
    <ele>830.0</ele>
   </trkpt>
   <trkpt lat="-26.2599700" lon="-51.0797900">
    <ele>830.2</ele>
   </trkpt>
   <trkpt lat="-26.2599760" lon="-51.0797770">
    <ele>830.4</ele>
   </trkpt>
   <trkpt lat="-26.2599840" lon="-51.0797640">
    <ele>830.6</ele>
   </trkpt>
   <trkpt lat="-26.2599940" lon="-51.0797540">
    <ele>830.8</ele>
   </trkpt>
   <trkpt lat="-26.2600040" lon="-51.0797490">
    <ele>831.0</ele>
   </trkpt>
   <trkpt lat="-26.2600140" lon="-51.0797460">
    <ele>831.2</ele>
   </trkpt>
   <trkpt lat="-26.2600260" lon="-51.0797430">
    <ele>831.2</ele>
   </trkpt>
   <trkpt lat="-26.2600360" lon="-51.0797400">
    <ele>831.4</ele>
   </trkpt>
   <trkpt lat="-26.2600480" lon="-51.0797330">
    <ele>831.6</ele>
   </trkpt>
   <trkpt lat="-26.2600590" lon="-51.0797280">
    <ele>831.8</ele>
   </trkpt>
   <trkpt lat="-26.2600710" lon="-51.0797260">
    <ele>831.8</ele>
   </trkpt>
   <trkpt lat="-26.2600810" lon="-51.0797250">
    <ele>832.0</ele>
   </trkpt>
   <trkpt lat="-26.2600910" lon="-51.0797240">
    <ele>832.0</ele>
   </trkpt>
   <trkpt lat="-26.2601030" lon="-51.0797250">
    <ele>832.2</ele>
   </trkpt>
   <trkpt lat="-26.2601150" lon="-51.0797250">
    <ele>832.4</ele>
   </trkpt>
   <trkpt lat="-26.2601250" lon="-51.0797240">
    <ele>832.6</ele>
   </trkpt>
   <trkpt lat="-26.2601350" lon="-51.0797210">
    <ele>832.6</ele>
   </trkpt>
   <trkpt lat="-26.2601440" lon="-51.0797150">
    <ele>832.8</ele>
   </trkpt>
   <trkpt lat="-26.2601520" lon="-51.0797070">
    <ele>832.8</ele>
   </trkpt>
   <trkpt lat="-26.2601560" lon="-51.0796960">
    <ele>833.0</ele>
   </trkpt>
   <trkpt lat="-26.2601610" lon="-51.0796850">
    <ele>833.0</ele>
   </trkpt>
   <trkpt lat="-26.2601710" lon="-51.0796760">
    <ele>833.4</ele>
   </trkpt>
   <trkpt lat="-26.2601820" lon="-51.0796700">
    <ele>833.6</ele>
   </trkpt>
   <trkpt lat="-26.2601900" lon="-51.0796660">
    <ele>833.8</ele>
   </trkpt>
   <trkpt lat="-26.2602010" lon="-51.0796650">
    <ele>833.8</ele>
   </trkpt>
   <trkpt lat="-26.2602110" lon="-51.0796660">
    <ele>834.0</ele>
   </trkpt>
   <trkpt lat="-26.2602210" lon="-51.0796700">
    <ele>834.2</ele>
   </trkpt>
   <trkpt lat="-26.2602330" lon="-51.0796680">
    <ele>834.4</ele>
   </trkpt>
   <trkpt lat="-26.2602480" lon="-51.0796650">
    <ele>834.6</ele>
   </trkpt>
   <trkpt lat="-26.2602600" lon="-51.0796630">
    <ele>834.8</ele>
   </trkpt>
   <trkpt lat="-26.2602730" lon="-51.0796580">
    <ele>835.0</ele>
   </trkpt>
   <trkpt lat="-26.2602880" lon="-51.0796530">
    <ele>835.2</ele>
   </trkpt>
   <trkpt lat="-26.2603010" lon="-51.0796490">
    <ele>835.6</ele>
   </trkpt>
   <trkpt lat="-26.2603120" lon="-51.0796450">
    <ele>835.8</ele>
   </trkpt>
   <trkpt lat="-26.2603240" lon="-51.0796390">
    <ele>836.0</ele>
   </trkpt>
   <trkpt lat="-26.2603330" lon="-51.0796350">
    <ele>836.2</ele>
   </trkpt>
   <trkpt lat="-26.2603410" lon="-51.0796270">
    <ele>836.4</ele>
   </trkpt>
   <trkpt lat="-26.2603470" lon="-51.0796160">
    <ele>836.6</ele>
   </trkpt>
   <trkpt lat="-26.2603570" lon="-51.0796070">
    <ele>836.8</ele>
   </trkpt>
   <trkpt lat="-26.2603650" lon="-51.0796000">
    <ele>837.0</ele>
   </trkpt>
   <trkpt lat="-26.2603770" lon="-51.0795940">
    <ele>837.2</ele>
   </trkpt>
   <trkpt lat="-26.2603890" lon="-51.0795890">
    <ele>837.4</ele>
   </trkpt>
   <trkpt lat="-26.2604000" lon="-51.0795930">
    <ele>837.4</ele>
   </trkpt>
   <trkpt lat="-26.2604070" lon="-51.0795990">
    <ele>837.8</ele>
   </trkpt>
   <trkpt lat="-26.2604140" lon="-51.0795970">
    <ele>838.0</ele>
   </trkpt>
   <trkpt lat="-26.2604230" lon="-51.0795920">
    <ele>838.2</ele>
   </trkpt>
   <trkpt lat="-26.2604350" lon="-51.0795870">
    <ele>838.4</ele>
   </trkpt>
   <trkpt lat="-26.2604430" lon="-51.0795800">
    <ele>838.4</ele>
   </trkpt>
   <trkpt lat="-26.2604530" lon="-51.0795770">
    <ele>838.6</ele>
   </trkpt>
   <trkpt lat="-26.2604590" lon="-51.0795760">
    <ele>838.8</ele>
   </trkpt>
   <trkpt lat="-26.2604690" lon="-51.0795740">
    <ele>839.0</ele>
   </trkpt>
   <trkpt lat="-26.2604760" lon="-51.0795700">
    <ele>839.4</ele>
   </trkpt>
   <trkpt lat="-26.2604860" lon="-51.0795660">
    <ele>839.4</ele>
   </trkpt>
   <trkpt lat="-26.2604980" lon="-51.0795650">
    <ele>839.6</ele>
   </trkpt>
   <trkpt lat="-26.2605080" lon="-51.0795630">
    <ele>840.0</ele>
   </trkpt>
   <trkpt lat="-26.2605160" lon="-51.0795600">
    <ele>840.2</ele>
   </trkpt>
   <trkpt lat="-26.2605260" lon="-51.0795570">
    <ele>840.6</ele>
   </trkpt>
   <trkpt lat="-26.2605350" lon="-51.0795550">
    <ele>840.6</ele>
   </trkpt>
   <trkpt lat="-26.2605400" lon="-51.0795490">
    <ele>840.8</ele>
   </trkpt>
   <trkpt lat="-26.2605490" lon="-51.0795420">
    <ele>841.0</ele>
   </trkpt>
   <trkpt lat="-26.2605600" lon="-51.0795400">
    <ele>841.2</ele>
   </trkpt>
   <trkpt lat="-26.2605690" lon="-51.0795370">
    <ele>841.4</ele>
   </trkpt>
   <trkpt lat="-26.2605730" lon="-51.0795350">
    <ele>841.8</ele>
   </trkpt>
   <trkpt lat="-26.2605730" lon="-51.0795350">
    <ele>842.0</ele>
   </trkpt>
   <trkpt lat="-26.2605730" lon="-51.0795350">
    <ele>841.8</ele>
   </trkpt>
   <trkpt lat="-26.2606120" lon="-51.0795150">
    <ele>842.2</ele>
   </trkpt>
   <trkpt lat="-26.2606350" lon="-51.0795100">
    <ele>842.8</ele>
   </trkpt>
   <trkpt lat="-26.2606450" lon="-51.0795030">
    <ele>843.0</ele>
   </trkpt>
   <trkpt lat="-26.2606840" lon="-51.0794720">
    <ele>843.8</ele>
   </trkpt>
   <trkpt lat="-26.2606910" lon="-51.0794700">
    <ele>844.0</ele>
   </trkpt>
   <trkpt lat="-26.2607120" lon="-51.0794520">
    <ele>845.0</ele>
   </trkpt>
   <trkpt lat="-26.2607190" lon="-51.0794490">
    <ele>845.2</ele>
   </trkpt>
   <trkpt lat="-26.2607280" lon="-51.0794510">
    <ele>845.6</ele>
   </trkpt>
   <trkpt lat="-26.2607280" lon="-51.0794510">
    <ele>845.8</ele>
   </trkpt>
   <trkpt lat="-26.2607500" lon="-51.0794690">
    <ele>845.8</ele>
   </trkpt>
   <trkpt lat="-26.2607620" lon="-51.0794750">
    <ele>846.0</ele>
   </trkpt>
   <trkpt lat="-26.2607680" lon="-51.0794770">
    <ele>846.2</ele>
   </trkpt>
   <trkpt lat="-26.2608050" lon="-51.0794740">
    <ele>847.2</ele>
   </trkpt>
   <trkpt lat="-26.2608180" lon="-51.0794790">
    <ele>847.6</ele>
   </trkpt>
   <trkpt lat="-26.2608240" lon="-51.0794810">
    <ele>847.6</ele>
   </trkpt>
   <trkpt lat="-26.2608320" lon="-51.0794830">
    <ele>847.8</ele>
   </trkpt>
   <trkpt lat="-26.2608540" lon="-51.0794830">
    <ele>848.2</ele>
   </trkpt>
   <trkpt lat="-26.2608630" lon="-51.0794830">
    <ele>848.2</ele>
   </trkpt>
   <trkpt lat="-26.2608860" lon="-51.0794910">
    <ele>849.0</ele>
   </trkpt>
   <trkpt lat="-26.2609010" lon="-51.0794930">
    <ele>849.2</ele>
   </trkpt>
   <trkpt lat="-26.2609430" lon="-51.0795120">
    <ele>850.2</ele>
   </trkpt>
   <trkpt lat="-26.2609490" lon="-51.0795130">
    <ele>850.2</ele>
   </trkpt>
   <trkpt lat="-26.2609590" lon="-51.0795160">
    <ele>850.4</ele>
   </trkpt>
   <trkpt lat="-26.2609940" lon="-51.0795450">
    <ele>851.2</ele>
   </trkpt>
   <trkpt lat="-26.2610010" lon="-51.0795480">
    <ele>851.6</ele>
   </trkpt>
   <trkpt lat="-26.2610370" lon="-51.0795750">
    <ele>852.4</ele>
   </trkpt>
   <trkpt lat="-26.2610530" lon="-51.0795920">
    <ele>852.8</ele>
   </trkpt>
   <trkpt lat="-26.2610540" lon="-51.0796080">
    <ele>853.6</ele>
   </trkpt>
   <trkpt lat="-26.2610540" lon="-51.0796080">
    <ele>853.6</ele>
   </trkpt>
   <trkpt lat="-26.2610540" lon="-51.0796080">
    <ele>853.4</ele>
   </trkpt>
   <trkpt lat="-26.2610810" lon="-51.0796410">
    <ele>853.8</ele>
   </trkpt>
   <trkpt lat="-26.2611040" lon="-51.0796560">
    <ele>854.4</ele>
   </trkpt>
   <trkpt lat="-26.2611120" lon="-51.0796610">
    <ele>854.6</ele>
   </trkpt>
   <trkpt lat="-26.2611180" lon="-51.0796650">
    <ele>854.6</ele>
   </trkpt>
   <trkpt lat="-26.2611300" lon="-51.0796730">
    <ele>855.0</ele>
   </trkpt>
   <trkpt lat="-26.2611360" lon="-51.0796770">
    <ele>855.0</ele>
   </trkpt>
   <trkpt lat="-26.2611500" lon="-51.0796870">
    <ele>855.4</ele>
   </trkpt>
   <trkpt lat="-26.2611570" lon="-51.0796890">
    <ele>855.6</ele>
   </trkpt>
   <trkpt lat="-26.2611720" lon="-51.0797000">
    <ele>856.0</ele>
   </trkpt>
   <trkpt lat="-26.2611850" lon="-51.0797080">
    <ele>856.4</ele>
   </trkpt>
   <trkpt lat="-26.2611960" lon="-51.0797180">
    <ele>856.8</ele>
   </trkpt>
   <trkpt lat="-26.2612250" lon="-51.0797510">
    <ele>857.8</ele>
   </trkpt>
   <trkpt lat="-26.2612280" lon="-51.0797600">
    <ele>858.0</ele>
   </trkpt>
   <trkpt lat="-26.2612530" lon="-51.0797690">
    <ele>858.2</ele>
   </trkpt>
   <trkpt lat="-26.2612740" lon="-51.0797740">
    <ele>858.8</ele>
   </trkpt>
   <trkpt lat="-26.2612960" lon="-51.0797890">
    <ele>859.0</ele>
   </trkpt>
   <trkpt lat="-26.2613110" lon="-51.0798080">
    <ele>859.4</ele>
   </trkpt>
   <trkpt lat="-26.2613290" lon="-51.0798200">
    <ele>860.0</ele>
   </trkpt>
   <trkpt lat="-26.2613310" lon="-51.0798230">
    <ele>860.8</ele>
   </trkpt>
   <trkpt lat="-26.2613310" lon="-51.0798230">
    <ele>860.6</ele>
   </trkpt>
   <trkpt lat="-26.2613380" lon="-51.0798480">
    <ele>861.0</ele>
   </trkpt>
   <trkpt lat="-26.2613470" lon="-51.0798530">
    <ele>861.2</ele>
   </trkpt>
   <trkpt lat="-26.2613790" lon="-51.0798710">
    <ele>861.8</ele>
   </trkpt>
   <trkpt lat="-26.2613870" lon="-51.0798800">
    <ele>861.8</ele>
   </trkpt>
   <trkpt lat="-26.2613950" lon="-51.0798950">
    <ele>862.2</ele>
   </trkpt>
   <trkpt lat="-26.2614030" lon="-51.0799180">
    <ele>862.6</ele>
   </trkpt>
   <trkpt lat="-26.2614090" lon="-51.0799260">
    <ele>862.8</ele>
   </trkpt>
   <trkpt lat="-26.2614410" lon="-51.0799550">
    <ele>863.4</ele>
   </trkpt>
   <trkpt lat="-26.2614560" lon="-51.0799730">
    <ele>863.8</ele>
   </trkpt>
   <trkpt lat="-26.2614820" lon="-51.0799960">
    <ele>864.6</ele>
   </trkpt>
   <trkpt lat="-26.2615050" lon="-51.0800230">
    <ele>865.0</ele>
   </trkpt>
   <trkpt lat="-26.2615290" lon="-51.0800540">
    <ele>865.6</ele>
   </trkpt>
   <trkpt lat="-26.2615370" lon="-51.0800940">
    <ele>866.2</ele>
   </trkpt>
   <trkpt lat="-26.2615660" lon="-51.0801430">
    <ele>866.8</ele>
   </trkpt>
   <trkpt lat="-26.2615740" lon="-51.0801590">
    <ele>867.0</ele>
   </trkpt>
   <trkpt lat="-26.2615970" lon="-51.0801860">
    <ele>867.8</ele>
   </trkpt>
   <trkpt lat="-26.2616190" lon="-51.0802140">
    <ele>868.2</ele>
   </trkpt>
   <trkpt lat="-26.2616490" lon="-51.0802540">
    <ele>868.8</ele>
   </trkpt>
   <trkpt lat="-26.2616790" lon="-51.0802880">
    <ele>869.4</ele>
   </trkpt>
   <trkpt lat="-26.2617070" lon="-51.0803240">
    <ele>870.0</ele>
   </trkpt>
   <trkpt lat="-26.2617130" lon="-51.0803330">
    <ele>870.4</ele>
   </trkpt>
   <trkpt lat="-26.2617140" lon="-51.0803350">
    <ele>870.6</ele>
   </trkpt>
   <trkpt lat="-26.2617390" lon="-51.0803630">
    <ele>871.2</ele>
   </trkpt>
   <trkpt lat="-26.2617450" lon="-51.0803710">
    <ele>871.4</ele>
   </trkpt>
   <trkpt lat="-26.2617710" lon="-51.0803980">
    <ele>872.2</ele>
   </trkpt>
   <trkpt lat="-26.2617860" lon="-51.0804260">
    <ele>872.8</ele>
   </trkpt>
   <trkpt lat="-26.2617930" lon="-51.0804360">
    <ele>873.2</ele>
   </trkpt>
   <trkpt lat="-26.2617960" lon="-51.0804410">
    <ele>873.2</ele>
   </trkpt>
   <trkpt lat="-26.2618060" lon="-51.0804490">
    <ele>873.8</ele>
   </trkpt>
   <trkpt lat="-26.2618180" lon="-51.0804650">
    <ele>874.4</ele>
   </trkpt>
   <trkpt lat="-26.2618390" lon="-51.0804960">
    <ele>875.0</ele>
   </trkpt>
   <trkpt lat="-26.2618450" lon="-51.0805050">
    <ele>875.2</ele>
   </trkpt>
   <trkpt lat="-26.2618630" lon="-51.0805160">
    <ele>875.4</ele>
   </trkpt>
   <trkpt lat="-26.2618780" lon="-51.0805330">
    <ele>875.6</ele>
   </trkpt>
   <trkpt lat="-26.2619050" lon="-51.0805680">
    <ele>876.6</ele>
   </trkpt>
   <trkpt lat="-26.2619110" lon="-51.0805730">
    <ele>876.8</ele>
   </trkpt>
   <trkpt lat="-26.2619300" lon="-51.0805960">
    <ele>877.4</ele>
   </trkpt>
   <trkpt lat="-26.2619350" lon="-51.0806080">
    <ele>877.6</ele>
   </trkpt>
   <trkpt lat="-26.2619440" lon="-51.0806220">
    <ele>878.0</ele>
   </trkpt>
   <trkpt lat="-26.2619700" lon="-51.0806430">
    <ele>878.8</ele>
   </trkpt>
   <trkpt lat="-26.2619890" lon="-51.0806640">
    <ele>879.2</ele>
   </trkpt>
   <trkpt lat="-26.2620010" lon="-51.0806800">
    <ele>879.8</ele>
   </trkpt>
   <trkpt lat="-26.2620330" lon="-51.0806860">
    <ele>880.2</ele>
   </trkpt>
   <trkpt lat="-26.2620510" lon="-51.0807040">
    <ele>880.6</ele>
   </trkpt>
   <trkpt lat="-26.2620520" lon="-51.0807090">
    <ele>880.8</ele>
   </trkpt>
   <trkpt lat="-26.2620520" lon="-51.0807090">
    <ele>881.4</ele>
   </trkpt>
   <trkpt lat="-26.2620610" lon="-51.0807300">
    <ele>881.4</ele>
   </trkpt>
   <trkpt lat="-26.2620690" lon="-51.0807440">
    <ele>882.0</ele>
   </trkpt>
   <trkpt lat="-26.2620760" lon="-51.0807470">
    <ele>882.2</ele>
   </trkpt>
   <trkpt lat="-26.2621070" lon="-51.0807770">
    <ele>883.2</ele>
   </trkpt>
   <trkpt lat="-26.2621080" lon="-51.0807860">
    <ele>883.6</ele>
   </trkpt>
   <trkpt lat="-26.2621240" lon="-51.0808120">
    <ele>884.0</ele>
   </trkpt>
   <trkpt lat="-26.2621360" lon="-51.0808240">
    <ele>884.2</ele>
   </trkpt>
   <trkpt lat="-26.2621410" lon="-51.0808310">
    <ele>884.4</ele>
   </trkpt>
   <trkpt lat="-26.2621740" lon="-51.0808760">
    <ele>885.4</ele>
   </trkpt>
   <trkpt lat="-26.2622000" lon="-51.0809190">
    <ele>886.2</ele>
   </trkpt>
   <trkpt lat="-26.2622080" lon="-51.0809330">
    <ele>886.6</ele>
   </trkpt>
   <trkpt lat="-26.2622130" lon="-51.0809400">
    <ele>886.6</ele>
   </trkpt>
   <trkpt lat="-26.2622200" lon="-51.0809480">
    <ele>886.8</ele>
   </trkpt>
   <trkpt lat="-26.2622320" lon="-51.0809700">
    <ele>887.4</ele>
   </trkpt>
   <trkpt lat="-26.2622380" lon="-51.0809790">
    <ele>887.6</ele>
   </trkpt>
   <trkpt lat="-26.2622560" lon="-51.0810020">
    <ele>888.0</ele>
   </trkpt>
   <trkpt lat="-26.2622780" lon="-51.0810270">
    <ele>888.6</ele>
   </trkpt>
   <trkpt lat="-26.2623210" lon="-51.0810920">
    <ele>889.6</ele>
   </trkpt>
   <trkpt lat="-26.2623290" lon="-51.0811080">
    <ele>889.6</ele>
   </trkpt>
   <trkpt lat="-26.2623480" lon="-51.0811300">
    <ele>890.0</ele>
   </trkpt>
   <trkpt lat="-26.2624160" lon="-51.0811930">
    <ele>890.6</ele>
   </trkpt>
   <trkpt lat="-26.2624210" lon="-51.0811990">
    <ele>890.8</ele>
   </trkpt>
   <trkpt lat="-26.2624570" lon="-51.0812230">
    <ele>891.0</ele>
   </trkpt>
   <trkpt lat="-26.2624930" lon="-51.0812360">
    <ele>891.2</ele>
   </trkpt>
   <trkpt lat="-26.2625000" lon="-51.0812450">
    <ele>891.4</ele>
   </trkpt>
   <trkpt lat="-26.2625340" lon="-51.0812910">
    <ele>891.8</ele>
   </trkpt>
   <trkpt lat="-26.2625580" lon="-51.0813120">
    <ele>892.0</ele>
   </trkpt>
   <trkpt lat="-26.2626070" lon="-51.0813540">
    <ele>892.4</ele>
   </trkpt>
   <trkpt lat="-26.2626360" lon="-51.0814060">
    <ele>892.6</ele>
   </trkpt>
   <trkpt lat="-26.2626460" lon="-51.0814230">
    <ele>892.6</ele>
   </trkpt>
   <trkpt lat="-26.2626680" lon="-51.0814750">
    <ele>892.8</ele>
   </trkpt>
   <trkpt lat="-26.2626740" lon="-51.0814860">
    <ele>892.8</ele>
   </trkpt>
   <trkpt lat="-26.2626810" lon="-51.0814960">
    <ele>893.0</ele>
   </trkpt>
   <trkpt lat="-26.2626890" lon="-51.0815040">
    <ele>893.0</ele>
   </trkpt>
   <trkpt lat="-26.2626960" lon="-51.0815070">
    <ele>893.0</ele>
   </trkpt>
   <trkpt lat="-26.2627260" lon="-51.0814980">
    <ele>893.6</ele>
   </trkpt>
   <trkpt lat="-26.2627420" lon="-51.0814890">
    <ele>894.0</ele>
   </trkpt>
   <trkpt lat="-26.2627650" lon="-51.0814990">
    <ele>894.8</ele>
   </trkpt>
   <trkpt lat="-26.2627670" lon="-51.0815000">
    <ele>895.0</ele>
   </trkpt>
   <trkpt lat="-26.2627910" lon="-51.0815210">
    <ele>895.8</ele>
   </trkpt>
   <trkpt lat="-26.2628010" lon="-51.0815290">
    <ele>896.0</ele>
   </trkpt>
   <trkpt lat="-26.2628030" lon="-51.0815310">
    <ele>896.4</ele>
   </trkpt>
   <trkpt lat="-26.2628180" lon="-51.0815390">
    <ele>897.2</ele>
   </trkpt>
   <trkpt lat="-26.2628210" lon="-51.0815480">
    <ele>897.2</ele>
   </trkpt>
   <trkpt lat="-26.2628230" lon="-51.0815550">
    <ele>897.4</ele>
   </trkpt>
   <trkpt lat="-26.2628280" lon="-51.0815650">
    <ele>897.8</ele>
   </trkpt>
   <trkpt lat="-26.2628400" lon="-51.0815890">
    <ele>898.2</ele>
   </trkpt>
   <trkpt lat="-26.2628400" lon="-51.0815990">
    <ele>899.0</ele>
   </trkpt>
   <trkpt lat="-26.2628370" lon="-51.0816010">
    <ele>899.2</ele>
   </trkpt>
   <trkpt lat="-26.2628330" lon="-51.0816180">
    <ele>899.2</ele>
   </trkpt>
   <trkpt lat="-26.2628200" lon="-51.0816370">
    <ele>899.2</ele>
   </trkpt>
   <trkpt lat="-26.2628090" lon="-51.0816760">
    <ele>900.4</ele>
   </trkpt>
   <trkpt lat="-26.2628000" lon="-51.0816900">
    <ele>900.8</ele>
   </trkpt>
   <trkpt lat="-26.2627900" lon="-51.0817030">
    <ele>901.0</ele>
   </trkpt>
   <trkpt lat="-26.2627830" lon="-51.0817270">
    <ele>901.4</ele>
   </trkpt>
   <trkpt lat="-26.2627900" lon="-51.0817570">
    <ele>901.8</ele>
   </trkpt>
   <trkpt lat="-26.2627970" lon="-51.0818030">
    <ele>902.2</ele>
   </trkpt>
   <trkpt lat="-26.2628030" lon="-51.0818150">
    <ele>902.4</ele>
   </trkpt>
   <trkpt lat="-26.2628060" lon="-51.0818170">
    <ele>902.6</ele>
   </trkpt>
   <trkpt lat="-26.2628440" lon="-51.0818520">
    <ele>903.0</ele>
   </trkpt>
   <trkpt lat="-26.2628920" lon="-51.0819000">
    <ele>903.4</ele>
   </trkpt>
   <trkpt lat="-26.2628920" lon="-51.0819030">
    <ele>903.6</ele>
   </trkpt>
   <trkpt lat="-26.2628920" lon="-51.0819030">
    <ele>903.6</ele>
   </trkpt>
   <trkpt lat="-26.2628920" lon="-51.0819030">
    <ele>903.6</ele>
   </trkpt>
   <trkpt lat="-26.2629010" lon="-51.0819030">
    <ele>903.6</ele>
   </trkpt>
   <trkpt lat="-26.2629010" lon="-51.0819030">
    <ele>903.4</ele>
   </trkpt>
   <trkpt lat="-26.2629020" lon="-51.0818980">
    <ele>903.0</ele>
   </trkpt>
   <trkpt lat="-26.2629020" lon="-51.0818980">
    <ele>902.6</ele>
   </trkpt>
   <trkpt lat="-26.2629020" lon="-51.0818980">
    <ele>902.6</ele>
   </trkpt>
   <trkpt lat="-26.2629020" lon="-51.0818980">
    <ele>902.8</ele>
   </trkpt>
   <trkpt lat="-26.2629020" lon="-51.0818980">
    <ele>902.8</ele>
   </trkpt>
   <trkpt lat="-26.2629020" lon="-51.0818980">
    <ele>902.8</ele>
   </trkpt>
   <trkpt lat="-26.2629020" lon="-51.0818980">
    <ele>903.0</ele>
   </trkpt>
   <trkpt lat="-26.2629020" lon="-51.0818980">
    <ele>902.8</ele>
   </trkpt>
   <trkpt lat="-26.2629020" lon="-51.0818980">
    <ele>902.6</ele>
   </trkpt>
   <trkpt lat="-26.2629020" lon="-51.0818980">
    <ele>902.6</ele>
   </trkpt>
   <trkpt lat="-26.2629020" lon="-51.0818980">
    <ele>902.4</ele>
   </trkpt>
   <trkpt lat="-26.2629020" lon="-51.0818980">
    <ele>902.4</ele>
   </trkpt>
   <trkpt lat="-26.2629020" lon="-51.0818980">
    <ele>902.4</ele>
   </trkpt>
   <trkpt lat="-26.2629020" lon="-51.0818980">
    <ele>902.4</ele>
   </trkpt>
   <trkpt lat="-26.2629020" lon="-51.0818980">
    <ele>902.2</ele>
   </trkpt>
   <trkpt lat="-26.2629020" lon="-51.0818980">
    <ele>902.2</ele>
   </trkpt>
   <trkpt lat="-26.2629050" lon="-51.0819040">
    <ele>902.6</ele>
   </trkpt>
   <trkpt lat="-26.2629030" lon="-51.0819010">
    <ele>902.4</ele>
   </trkpt>
   <trkpt lat="-26.2628990" lon="-51.0818940">
    <ele>902.4</ele>
   </trkpt>
   <trkpt lat="-26.2628990" lon="-51.0818940">
    <ele>902.2</ele>
   </trkpt>
   <trkpt lat="-26.2629030" lon="-51.0818930">
    <ele>902.2</ele>
   </trkpt>
   <trkpt lat="-26.2628950" lon="-51.0818980">
    <ele>902.0</ele>
   </trkpt>
   <trkpt lat="-26.2628790" lon="-51.0818960">
    <ele>902.0</ele>
   </trkpt>
   <trkpt lat="-26.2628250" lon="-51.0818630">
    <ele>901.6</ele>
   </trkpt>
   <trkpt lat="-26.2628010" lon="-51.0818230">
    <ele>901.0</ele>
   </trkpt>
   <trkpt lat="-26.2627890" lon="-51.0817740">
    <ele>900.6</ele>
   </trkpt>
   <trkpt lat="-26.2627880" lon="-51.0817190">
    <ele>900.4</ele>
   </trkpt>
   <trkpt lat="-26.2628330" lon="-51.0816060">
    <ele>900.0</ele>
   </trkpt>
   <trkpt lat="-26.2628430" lon="-51.0815540">
    <ele>899.4</ele>
   </trkpt>
   <trkpt lat="-26.2628330" lon="-51.0814890">
    <ele>898.6</ele>
   </trkpt>
   <trkpt lat="-26.2628020" lon="-51.0814200">
    <ele>896.2</ele>
   </trkpt>
   <trkpt lat="-26.2627520" lon="-51.0813540">
    <ele>895.2</ele>
   </trkpt>
   <trkpt lat="-26.2626910" lon="-51.0812900">
    <ele>893.6</ele>
   </trkpt>
   <trkpt lat="-26.2626220" lon="-51.0812300">
    <ele>892.2</ele>
   </trkpt>
   <trkpt lat="-26.2625550" lon="-51.0811720">
    <ele>891.4</ele>
   </trkpt>
   <trkpt lat="-26.2624760" lon="-51.0811110">
    <ele>890.0</ele>
   </trkpt>
   <trkpt lat="-26.2624220" lon="-51.0810580">
    <ele>888.8</ele>
   </trkpt>
   <trkpt lat="-26.2623800" lon="-51.0809970">
    <ele>888.2</ele>
   </trkpt>
   <trkpt lat="-26.2623370" lon="-51.0809250">
    <ele>888.2</ele>
   </trkpt>
   <trkpt lat="-26.2622950" lon="-51.0808520">
    <ele>888.0</ele>
   </trkpt>
   <trkpt lat="-26.2622730" lon="-51.0807960">
    <ele>888.4</ele>
   </trkpt>
   <trkpt lat="-26.2622320" lon="-51.0807220">
    <ele>888.2</ele>
   </trkpt>
   <trkpt lat="-26.2621940" lon="-51.0806630">
    <ele>888.0</ele>
   </trkpt>
   <trkpt lat="-26.2621510" lon="-51.0805990">
    <ele>887.6</ele>
   </trkpt>
   <trkpt lat="-26.2621220" lon="-51.0805440">
    <ele>887.6</ele>
   </trkpt>
   <trkpt lat="-26.2620940" lon="-51.0804800">
    <ele>887.6</ele>
   </trkpt>
   <trkpt lat="-26.2620720" lon="-51.0804170">
    <ele>888.0</ele>
   </trkpt>
   <trkpt lat="-26.2620630" lon="-51.0803640">
    <ele>888.0</ele>
   </trkpt>
   <trkpt lat="-26.2620610" lon="-51.0803150">
    <ele>888.0</ele>
   </trkpt>
   <trkpt lat="-26.2620520" lon="-51.0802630">
    <ele>888.4</ele>
   </trkpt>
   <trkpt lat="-26.2620360" lon="-51.0802120">
    <ele>888.8</ele>
   </trkpt>
   <trkpt lat="-26.2620170" lon="-51.0801740">
    <ele>889.0</ele>
   </trkpt>
   <trkpt lat="-26.2619970" lon="-51.0801470">
    <ele>889.0</ele>
   </trkpt>
   <trkpt lat="-26.2619780" lon="-51.0801280">
    <ele>889.0</ele>
   </trkpt>
   <trkpt lat="-26.2619600" lon="-51.0801120">
    <ele>888.6</ele>
   </trkpt>
   <trkpt lat="-26.2619420" lon="-51.0800990">
    <ele>888.4</ele>
   </trkpt>
   <trkpt lat="-26.2619180" lon="-51.0800840">
    <ele>887.8</ele>
   </trkpt>
   <trkpt lat="-26.2618860" lon="-51.0800610">
    <ele>886.0</ele>
   </trkpt>
   <trkpt lat="-26.2618530" lon="-51.0800380">
    <ele>884.8</ele>
   </trkpt>
   <trkpt lat="-26.2618270" lon="-51.0800180">
    <ele>883.8</ele>
   </trkpt>
   <trkpt lat="-26.2617980" lon="-51.0800030">
    <ele>882.2</ele>
   </trkpt>
   <trkpt lat="-26.2617610" lon="-51.0799950">
    <ele>881.0</ele>
   </trkpt>
   <trkpt lat="-26.2617170" lon="-51.0799820">
    <ele>878.6</ele>
   </trkpt>
   <trkpt lat="-26.2616640" lon="-51.0799590">
    <ele>878.4</ele>
   </trkpt>
   <trkpt lat="-26.2616260" lon="-51.0799270">
    <ele>876.0</ele>
   </trkpt>
   <trkpt lat="-26.2616030" lon="-51.0798820">
    <ele>873.2</ele>
   </trkpt>
   <trkpt lat="-26.2615960" lon="-51.0798340">
    <ele>871.4</ele>
   </trkpt>
   <trkpt lat="-26.2615940" lon="-51.0797940">
    <ele>871.2</ele>
   </trkpt>
   <trkpt lat="-26.2615780" lon="-51.0797640">
    <ele>870.8</ele>
   </trkpt>
   <trkpt lat="-26.2615480" lon="-51.0797500">
    <ele>870.6</ele>
   </trkpt>
   <trkpt lat="-26.2614920" lon="-51.0797410">
    <ele>870.2</ele>
   </trkpt>
   <trkpt lat="-26.2614460" lon="-51.0797330">
    <ele>869.6</ele>
   </trkpt>
   <trkpt lat="-26.2614100" lon="-51.0797200">
    <ele>868.8</ele>
   </trkpt>
   <trkpt lat="-26.2613700" lon="-51.0797090">
    <ele>866.8</ele>
   </trkpt>
   <trkpt lat="-26.2612810" lon="-51.0796710">
    <ele>864.4</ele>
   </trkpt>
   <trkpt lat="-26.2612600" lon="-51.0796360">
    <ele>863.2</ele>
   </trkpt>
   <trkpt lat="-26.2612400" lon="-51.0795770">
    <ele>861.8</ele>
   </trkpt>
   <trkpt lat="-26.2612240" lon="-51.0795370">
    <ele>860.4</ele>
   </trkpt>
   <trkpt lat="-26.2611910" lon="-51.0794960">
    <ele>859.8</ele>
   </trkpt>
   <trkpt lat="-26.2611480" lon="-51.0794660">
    <ele>859.4</ele>
   </trkpt>
   <trkpt lat="-26.2610990" lon="-51.0794460">
    <ele>859.0</ele>
   </trkpt>
   <trkpt lat="-26.2610470" lon="-51.0794350">
    <ele>858.0</ele>
   </trkpt>
   <trkpt lat="-26.2609890" lon="-51.0794280">
    <ele>856.2</ele>
   </trkpt>
   <trkpt lat="-26.2609420" lon="-51.0794250">
    <ele>853.8</ele>
   </trkpt>
   <trkpt lat="-26.2608990" lon="-51.0794190">
    <ele>852.8</ele>
   </trkpt>
   <trkpt lat="-26.2608310" lon="-51.0794110">
    <ele>851.6</ele>
   </trkpt>
   <trkpt lat="-26.2607520" lon="-51.0794040">
    <ele>849.6</ele>
   </trkpt>
   <trkpt lat="-26.2606780" lon="-51.0793960">
    <ele>847.2</ele>
   </trkpt>
   <trkpt lat="-26.2606070" lon="-51.0793820">
    <ele>845.6</ele>
   </trkpt>
   <trkpt lat="-26.2605600" lon="-51.0793800">
    <ele>844.0</ele>
   </trkpt>
   <trkpt lat="-26.2604910" lon="-51.0793860">
    <ele>843.2</ele>
   </trkpt>
   <trkpt lat="-26.2604380" lon="-51.0794170">
    <ele>841.4</ele>
   </trkpt>
   <trkpt lat="-26.2603850" lon="-51.0794600">
    <ele>840.4</ele>
   </trkpt>
   <trkpt lat="-26.2603430" lon="-51.0794950">
    <ele>839.6</ele>
   </trkpt>
   <trkpt lat="-26.2602860" lon="-51.0795300">
    <ele>838.6</ele>
   </trkpt>
   <trkpt lat="-26.2602400" lon="-51.0795310">
    <ele>837.4</ele>
   </trkpt>
   <trkpt lat="-26.2601870" lon="-51.0795210">
    <ele>836.6</ele>
   </trkpt>
   <trkpt lat="-26.2601410" lon="-51.0795140">
    <ele>836.2</ele>
   </trkpt>
   <trkpt lat="-26.2600800" lon="-51.0794960">
    <ele>835.6</ele>
   </trkpt>
   <trkpt lat="-26.2600400" lon="-51.0794630">
    <ele>834.0</ele>
   </trkpt>
   <trkpt lat="-26.2600070" lon="-51.0794120">
    <ele>833.0</ele>
   </trkpt>
   <trkpt lat="-26.2599850" lon="-51.0793530">
    <ele>832.6</ele>
   </trkpt>
   <trkpt lat="-26.2599720" lon="-51.0793170">
    <ele>831.8</ele>
   </trkpt>
   <trkpt lat="-26.2599510" lon="-51.0792810">
    <ele>831.2</ele>
   </trkpt>
   <trkpt lat="-26.2599220" lon="-51.0792600">
    <ele>831.0</ele>
   </trkpt>
   <trkpt lat="-26.2598870" lon="-51.0792400">
    <ele>830.4</ele>
   </trkpt>
   <trkpt lat="-26.2598540" lon="-51.0792210">
    <ele>829.4</ele>
   </trkpt>
   <trkpt lat="-26.2598090" lon="-51.0791910">
    <ele>828.6</ele>
   </trkpt>
   <trkpt lat="-26.2597650" lon="-51.0791610">
    <ele>827.8</ele>
   </trkpt>
   <trkpt lat="-26.2597220" lon="-51.0791210">
    <ele>825.8</ele>
   </trkpt>
   <trkpt lat="-26.2596720" lon="-51.0790760">
    <ele>824.6</ele>
   </trkpt>
   <trkpt lat="-26.2596170" lon="-51.0790440">
    <ele>823.4</ele>
   </trkpt>
   <trkpt lat="-26.2595700" lon="-51.0790250">
    <ele>822.4</ele>
   </trkpt>
   <trkpt lat="-26.2595010" lon="-51.0789970">
    <ele>821.0</ele>
   </trkpt>
   <trkpt lat="-26.2594620" lon="-51.0789610">
    <ele>820.0</ele>
   </trkpt>
   <trkpt lat="-26.2594350" lon="-51.0789200">
    <ele>819.6</ele>
   </trkpt>
   <trkpt lat="-26.2594090" lon="-51.0788710">
    <ele>819.6</ele>
   </trkpt>
   <trkpt lat="-26.2593830" lon="-51.0788140">
    <ele>819.2</ele>
   </trkpt>
   <trkpt lat="-26.2593590" lon="-51.0787690">
    <ele>818.8</ele>
   </trkpt>
   <trkpt lat="-26.2593190" lon="-51.0787100">
    <ele>818.6</ele>
   </trkpt>
   <trkpt lat="-26.2592870" lon="-51.0786680">
    <ele>818.4</ele>
   </trkpt>
   <trkpt lat="-26.2592530" lon="-51.0786340">
    <ele>817.6</ele>
   </trkpt>
   <trkpt lat="-26.2592160" lon="-51.0785960">
    <ele>817.4</ele>
   </trkpt>
   <trkpt lat="-26.2591240" lon="-51.0785030">
    <ele>816.0</ele>
   </trkpt>
   <trkpt lat="-26.2590920" lon="-51.0784520">
    <ele>812.8</ele>
   </trkpt>
   <trkpt lat="-26.2590670" lon="-51.0784050">
    <ele>810.8</ele>
   </trkpt>
   <trkpt lat="-26.2590470" lon="-51.0783630">
    <ele>810.4</ele>
   </trkpt>
   <trkpt lat="-26.2590260" lon="-51.0783220">
    <ele>810.2</ele>
   </trkpt>
   <trkpt lat="-26.2590060" lon="-51.0782830">
    <ele>808.8</ele>
   </trkpt>
   <trkpt lat="-26.2589860" lon="-51.0782480">
    <ele>807.6</ele>
   </trkpt>
   <trkpt lat="-26.2589620" lon="-51.0782200">
    <ele>806.4</ele>
   </trkpt>
   <trkpt lat="-26.2589360" lon="-51.0781890">
    <ele>806.0</ele>
   </trkpt>
   <trkpt lat="-26.2589240" lon="-51.0781560">
    <ele>804.8</ele>
   </trkpt>
   <trkpt lat="-26.2589230" lon="-51.0781260">
    <ele>803.8</ele>
   </trkpt>
   <trkpt lat="-26.2589250" lon="-51.0780970">
    <ele>803.2</ele>
   </trkpt>
   <trkpt lat="-26.2589250" lon="-51.0780560">
    <ele>802.4</ele>
   </trkpt>
   <trkpt lat="-26.2589200" lon="-51.0780150">
    <ele>801.6</ele>
   </trkpt>
   <trkpt lat="-26.2589130" lon="-51.0779940">
    <ele>800.4</ele>
   </trkpt>
   <trkpt lat="-26.2588990" lon="-51.0779790">
    <ele>799.4</ele>
   </trkpt>
   <trkpt lat="-26.2588770" lon="-51.0779680">
    <ele>798.4</ele>
   </trkpt>
   <trkpt lat="-26.2588520" lon="-51.0779550">
    <ele>797.8</ele>
   </trkpt>
   <trkpt lat="-26.2588300" lon="-51.0779440">
    <ele>796.4</ele>
   </trkpt>
   <trkpt lat="-26.2588080" lon="-51.0779340">
    <ele>794.4</ele>
   </trkpt>
   <trkpt lat="-26.2587850" lon="-51.0779240">
    <ele>792.8</ele>
   </trkpt>
   <trkpt lat="-26.2587640" lon="-51.0779170">
    <ele>792.4</ele>
   </trkpt>
   <trkpt lat="-26.2587420" lon="-51.0779110">
    <ele>791.8</ele>
   </trkpt>
   <trkpt lat="-26.2587180" lon="-51.0779090">
    <ele>790.6</ele>
   </trkpt>
   <trkpt lat="-26.2586930" lon="-51.0779090">
    <ele>790.2</ele>
   </trkpt>
   <trkpt lat="-26.2586650" lon="-51.0779160">
    <ele>789.2</ele>
   </trkpt>
   <trkpt lat="-26.2586360" lon="-51.0779260">
    <ele>787.8</ele>
   </trkpt>
   <trkpt lat="-26.2586070" lon="-51.0779360">
    <ele>786.0</ele>
   </trkpt>
   <trkpt lat="-26.2585480" lon="-51.0779500">
    <ele>784.2</ele>
   </trkpt>
   <trkpt lat="-26.2584950" lon="-51.0779660">
    <ele>782.6</ele>
   </trkpt>
   <trkpt lat="-26.2584750" lon="-51.0779670">
    <ele>782.0</ele>
   </trkpt>
   <trkpt lat="-26.2584610" lon="-51.0779660">
    <ele>781.0</ele>
   </trkpt>
   <trkpt lat="-26.2584480" lon="-51.0779620">
    <ele>780.0</ele>
   </trkpt>
   <trkpt lat="-26.2584450" lon="-51.0779610">
    <ele>779.2</ele>
   </trkpt>
   <trkpt lat="-26.2584380" lon="-51.0779600">
    <ele>778.8</ele>
   </trkpt>
   <trkpt lat="-26.2584250" lon="-51.0779610">
    <ele>778.0</ele>
   </trkpt>
   <trkpt lat="-26.2584110" lon="-51.0779700">
    <ele>777.2</ele>
   </trkpt>
   <trkpt lat="-26.2583930" lon="-51.0779820">
    <ele>776.6</ele>
   </trkpt>
   <trkpt lat="-26.2583720" lon="-51.0779900">
    <ele>776.0</ele>
   </trkpt>
   <trkpt lat="-26.2583360" lon="-51.0779890">
    <ele>775.0</ele>
   </trkpt>
   <trkpt lat="-26.2582860" lon="-51.0779630">
    <ele>773.8</ele>
   </trkpt>
   <trkpt lat="-26.2582650" lon="-51.0779540">
    <ele>772.8</ele>
   </trkpt>
   <trkpt lat="-26.2582400" lon="-51.0779580">
    <ele>771.0</ele>
   </trkpt>
   <trkpt lat="-26.2582200" lon="-51.0779700">
    <ele>770.4</ele>
   </trkpt>
   <trkpt lat="-26.2582060" lon="-51.0779840">
    <ele>770.0</ele>
   </trkpt>
   <trkpt lat="-26.2581940" lon="-51.0780060">
    <ele>769.2</ele>
   </trkpt>
   <trkpt lat="-26.2581660" lon="-51.0780330">
    <ele>768.2</ele>
   </trkpt>
   <trkpt lat="-26.2581300" lon="-51.0780460">
    <ele>767.8</ele>
   </trkpt>
   <trkpt lat="-26.2580950" lon="-51.0780530">
    <ele>767.4</ele>
   </trkpt>
   <trkpt lat="-26.2580600" lon="-51.0780650">
    <ele>767.2</ele>
   </trkpt>
   <trkpt lat="-26.2580290" lon="-51.0780790">
    <ele>767.2</ele>
   </trkpt>
   <trkpt lat="-26.2579370" lon="-51.0781050">
    <ele>766.8</ele>
   </trkpt>
   <trkpt lat="-26.2578930" lon="-51.0781090">
    <ele>766.4</ele>
   </trkpt>
   <trkpt lat="-26.2578450" lon="-51.0781010">
    <ele>765.8</ele>
   </trkpt>
   <trkpt lat="-26.2577950" lon="-51.0780820">
    <ele>765.0</ele>
   </trkpt>
   <trkpt lat="-26.2577350" lon="-51.0780630">
    <ele>763.4</ele>
   </trkpt>
   <trkpt lat="-26.2575950" lon="-51.0780070">
    <ele>761.2</ele>
   </trkpt>
   <trkpt lat="-26.2575110" lon="-51.0779720">
    <ele>760.6</ele>
   </trkpt>
   <trkpt lat="-26.2574100" lon="-51.0779400">
    <ele>759.4</ele>
   </trkpt>
   <trkpt lat="-26.2572550" lon="-51.0778830">
    <ele>758.6</ele>
   </trkpt>
   <trkpt lat="-26.2571830" lon="-51.0778270">
    <ele>756.4</ele>
   </trkpt>
   <trkpt lat="-26.2571290" lon="-51.0777710">
    <ele>755.6</ele>
   </trkpt>
   <trkpt lat="-26.2570800" lon="-51.0777150">
    <ele>754.4</ele>
   </trkpt>
   <trkpt lat="-26.2570370" lon="-51.0776490">
    <ele>752.6</ele>
   </trkpt>
   <trkpt lat="-26.2570010" lon="-51.0775680">
    <ele>751.2</ele>
   </trkpt>
   <trkpt lat="-26.2569520" lon="-51.0774850">
    <ele>749.8</ele>
   </trkpt>
   <trkpt lat="-26.2569190" lon="-51.0774070">
    <ele>749.6</ele>
   </trkpt>
   <trkpt lat="-26.2569120" lon="-51.0773490">
    <ele>749.4</ele>
   </trkpt>
   <trkpt lat="-26.2569030" lon="-51.0772580">
    <ele>749.2</ele>
   </trkpt>
   <trkpt lat="-26.2568790" lon="-51.0771930">
    <ele>749.0</ele>
   </trkpt>
   <trkpt lat="-26.2568500" lon="-51.0771460">
    <ele>748.8</ele>
   </trkpt>
   <trkpt lat="-26.2568110" lon="-51.0771230">
    <ele>748.2</ele>
   </trkpt>
   <trkpt lat="-26.2567690" lon="-51.0771200">
    <ele>748.2</ele>
   </trkpt>
   <trkpt lat="-26.2567270" lon="-51.0771320">
    <ele>747.8</ele>
   </trkpt>
   <trkpt lat="-26.2566920" lon="-51.0771620">
    <ele>747.4</ele>
   </trkpt>
   <trkpt lat="-26.2566610" lon="-51.0771930">
    <ele>747.4</ele>
   </trkpt>
   <trkpt lat="-26.2565950" lon="-51.0772290">
    <ele>747.2</ele>
   </trkpt>
   <trkpt lat="-26.2565610" lon="-51.0772430">
    <ele>747.2</ele>
   </trkpt>
   <trkpt lat="-26.2565320" lon="-51.0772720">
    <ele>747.2</ele>
   </trkpt>
   <trkpt lat="-26.2565080" lon="-51.0772950">
    <ele>747.4</ele>
   </trkpt>
   <trkpt lat="-26.2564640" lon="-51.0773380">
    <ele>747.4</ele>
   </trkpt>
   <trkpt lat="-26.2564270" lon="-51.0773640">
    <ele>747.6</ele>
   </trkpt>
   <trkpt lat="-26.2563980" lon="-51.0773890">
    <ele>747.6</ele>
   </trkpt>
   <trkpt lat="-26.2563230" lon="-51.0774620">
    <ele>747.8</ele>
   </trkpt>
   <trkpt lat="-26.2562200" lon="-51.0775170">
    <ele>748.0</ele>
   </trkpt>
   <trkpt lat="-26.2561870" lon="-51.0775390">
    <ele>748.0</ele>
   </trkpt>
   <trkpt lat="-26.2561220" lon="-51.0775840">
    <ele>747.8</ele>
   </trkpt>
   <trkpt lat="-26.2559830" lon="-51.0777080">
    <ele>746.0</ele>
   </trkpt>
   <trkpt lat="-26.2559120" lon="-51.0777790">
    <ele>745.8</ele>
   </trkpt>
   <trkpt lat="-26.2558940" lon="-51.0778000">
    <ele>746.2</ele>
   </trkpt>
   <trkpt lat="-26.2558730" lon="-51.0778210">
    <ele>746.4</ele>
   </trkpt>
   <trkpt lat="-26.2558520" lon="-51.0778460">
    <ele>746.6</ele>
   </trkpt>
   <trkpt lat="-26.2558350" lon="-51.0778710">
    <ele>746.6</ele>
   </trkpt>
   <trkpt lat="-26.2557890" lon="-51.0779520">
    <ele>746.6</ele>
   </trkpt>
   <trkpt lat="-26.2557770" lon="-51.0779800">
    <ele>746.6</ele>
   </trkpt>
   <trkpt lat="-26.2557620" lon="-51.0779960">
    <ele>747.0</ele>
   </trkpt>
   <trkpt lat="-26.2557430" lon="-51.0780090">
    <ele>747.0</ele>
   </trkpt>
   <trkpt lat="-26.2557120" lon="-51.0780280">
    <ele>747.2</ele>
   </trkpt>
   <trkpt lat="-26.2556790" lon="-51.0780550">
    <ele>747.2</ele>
   </trkpt>
   <trkpt lat="-26.2556350" lon="-51.0781210">
    <ele>746.8</ele>
   </trkpt>
   <trkpt lat="-26.2556240" lon="-51.0781530">
    <ele>746.8</ele>
   </trkpt>
   <trkpt lat="-26.2556160" lon="-51.0781780">
    <ele>746.6</ele>
   </trkpt>
   <trkpt lat="-26.2556060" lon="-51.0782030">
    <ele>746.8</ele>
   </trkpt>
   <trkpt lat="-26.2555920" lon="-51.0782280">
    <ele>746.8</ele>
   </trkpt>
   <trkpt lat="-26.2555770" lon="-51.0782510">
    <ele>747.0</ele>
   </trkpt>
   <trkpt lat="-26.2555650" lon="-51.0782720">
    <ele>747.6</ele>
   </trkpt>
   <trkpt lat="-26.2555520" lon="-51.0782960">
    <ele>747.8</ele>
   </trkpt>
   <trkpt lat="-26.2555390" lon="-51.0783230">
    <ele>748.0</ele>
   </trkpt>
   <trkpt lat="-26.2555270" lon="-51.0783480">
    <ele>748.0</ele>
   </trkpt>
   <trkpt lat="-26.2555000" lon="-51.0784050">
    <ele>748.4</ele>
   </trkpt>
   <trkpt lat="-26.2554900" lon="-51.0784270">
    <ele>748.6</ele>
   </trkpt>
   <trkpt lat="-26.2554680" lon="-51.0784720">
    <ele>748.8</ele>
   </trkpt>
   <trkpt lat="-26.2554550" lon="-51.0784950">
    <ele>749.0</ele>
   </trkpt>
   <trkpt lat="-26.2554440" lon="-51.0785170">
    <ele>749.0</ele>
   </trkpt>
   <trkpt lat="-26.2554330" lon="-51.0785370">
    <ele>749.0</ele>
   </trkpt>
   <trkpt lat="-26.2554230" lon="-51.0785600">
    <ele>749.0</ele>
   </trkpt>
   <trkpt lat="-26.2554130" lon="-51.0785840">
    <ele>749.2</ele>
   </trkpt>
   <trkpt lat="-26.2554020" lon="-51.0786100">
    <ele>749.2</ele>
   </trkpt>
   <trkpt lat="-26.2553910" lon="-51.0786340">
    <ele>749.2</ele>
   </trkpt>
   <trkpt lat="-26.2553510" lon="-51.0787000">
    <ele>749.2</ele>
   </trkpt>
   <trkpt lat="-26.2553090" lon="-51.0787960">
    <ele>749.2</ele>
   </trkpt>
   <trkpt lat="-26.2552990" lon="-51.0788210">
    <ele>749.2</ele>
   </trkpt>
   <trkpt lat="-26.2552430" lon="-51.0789350">
    <ele>750.2</ele>
   </trkpt>
   <trkpt lat="-26.2551920" lon="-51.0790350">
    <ele>750.2</ele>
   </trkpt>
   <trkpt lat="-26.2550870" lon="-51.0792640">
    <ele>749.8</ele>
   </trkpt>
   <trkpt lat="-26.2550320" lon="-51.0793730">
    <ele>749.8</ele>
   </trkpt>
   <trkpt lat="-26.2550190" lon="-51.0793980">
    <ele>749.8</ele>
   </trkpt>
   <trkpt lat="-26.2550050" lon="-51.0794230">
    <ele>749.8</ele>
   </trkpt>
   <trkpt lat="-26.2549930" lon="-51.0794500">
    <ele>749.8</ele>
   </trkpt>
   <trkpt lat="-26.2549490" lon="-51.0795600">
    <ele>750.0</ele>
   </trkpt>
   <trkpt lat="-26.2549390" lon="-51.0795860">
    <ele>750.2</ele>
   </trkpt>
   <trkpt lat="-26.2549300" lon="-51.0796130">
    <ele>750.2</ele>
   </trkpt>
   <trkpt lat="-26.2549210" lon="-51.0796410">
    <ele>750.4</ele>
   </trkpt>
   <trkpt lat="-26.2549130" lon="-51.0796670">
    <ele>750.4</ele>
   </trkpt>
   <trkpt lat="-26.2548870" lon="-51.0797490">
    <ele>750.4</ele>
   </trkpt>
   <trkpt lat="-26.2548790" lon="-51.0797790">
    <ele>750.4</ele>
   </trkpt>
   <trkpt lat="-26.2548580" lon="-51.0798670">
    <ele>750.6</ele>
   </trkpt>
   <trkpt lat="-26.2548520" lon="-51.0798960">
    <ele>750.6</ele>
   </trkpt>
   <trkpt lat="-26.2548060" lon="-51.0800930">
    <ele>751.2</ele>
   </trkpt>
   <trkpt lat="-26.2548010" lon="-51.0801220">
    <ele>751.4</ele>
   </trkpt>
   <trkpt lat="-26.2547950" lon="-51.0801500">
    <ele>751.4</ele>
   </trkpt>
   <trkpt lat="-26.2547840" lon="-51.0802040">
    <ele>751.6</ele>
   </trkpt>
   <trkpt lat="-26.2547790" lon="-51.0802320">
    <ele>752.0</ele>
   </trkpt>
   <trkpt lat="-26.2547720" lon="-51.0802850">
    <ele>752.2</ele>
   </trkpt>
   <trkpt lat="-26.2547480" lon="-51.0803610">
    <ele>752.6</ele>
   </trkpt>
   <trkpt lat="-26.2547250" lon="-51.0804120">
    <ele>753.0</ele>
   </trkpt>
   <trkpt lat="-26.2547160" lon="-51.0804390">
    <ele>753.0</ele>
   </trkpt>
   <trkpt lat="-26.2547080" lon="-51.0804670">
    <ele>753.2</ele>
   </trkpt>
   <trkpt lat="-26.2547030" lon="-51.0804920">
    <ele>753.4</ele>
   </trkpt>
   <trkpt lat="-26.2546960" lon="-51.0805180">
    <ele>753.6</ele>
   </trkpt>
   <trkpt lat="-26.2546900" lon="-51.0805450">
    <ele>753.8</ele>
   </trkpt>
   <trkpt lat="-26.2546830" lon="-51.0805720">
    <ele>753.8</ele>
   </trkpt>
   <trkpt lat="-26.2546770" lon="-51.0805970">
    <ele>753.8</ele>
   </trkpt>
   <trkpt lat="-26.2546710" lon="-51.0806260">
    <ele>754.0</ele>
   </trkpt>
   <trkpt lat="-26.2546670" lon="-51.0806540">
    <ele>754.0</ele>
   </trkpt>
   <trkpt lat="-26.2546620" lon="-51.0806830">
    <ele>754.0</ele>
   </trkpt>
   <trkpt lat="-26.2546560" lon="-51.0807120">
    <ele>754.0</ele>
   </trkpt>
   <trkpt lat="-26.2546480" lon="-51.0807420">
    <ele>754.0</ele>
   </trkpt>
   <trkpt lat="-26.2546380" lon="-51.0807820">
    <ele>754.0</ele>
   </trkpt>
   <trkpt lat="-26.2546300" lon="-51.0808250">
    <ele>754.0</ele>
   </trkpt>
   <trkpt lat="-26.2546210" lon="-51.0808730">
    <ele>753.8</ele>
   </trkpt>
   <trkpt lat="-26.2546080" lon="-51.0809220">
    <ele>753.0</ele>
   </trkpt>
   <trkpt lat="-26.2545940" lon="-51.0809770">
    <ele>752.6</ele>
   </trkpt>
   <trkpt lat="-26.2545830" lon="-51.0810340">
    <ele>752.0</ele>
   </trkpt>
   <trkpt lat="-26.2545610" lon="-51.0811580">
    <ele>751.2</ele>
   </trkpt>
   <trkpt lat="-26.2545500" lon="-51.0812220">
    <ele>750.4</ele>
   </trkpt>
   <trkpt lat="-26.2545120" lon="-51.0814310">
    <ele>748.6</ele>
   </trkpt>
   <trkpt lat="-26.2544890" lon="-51.0815930">
    <ele>747.4</ele>
   </trkpt>
   <trkpt lat="-26.2544860" lon="-51.0816790">
    <ele>746.4</ele>
   </trkpt>
   <trkpt lat="-26.2544840" lon="-51.0817650">
    <ele>746.2</ele>
   </trkpt>
   <trkpt lat="-26.2544870" lon="-51.0818440">
    <ele>746.2</ele>
   </trkpt>
   <trkpt lat="-26.2544810" lon="-51.0819190">
    <ele>745.8</ele>
   </trkpt>
   <trkpt lat="-26.2544650" lon="-51.0819950">
    <ele>745.2</ele>
   </trkpt>
   <trkpt lat="-26.2544200" lon="-51.0821590">
    <ele>744.2</ele>
   </trkpt>
   <trkpt lat="-26.2543870" lon="-51.0822390">
    <ele>743.4</ele>
   </trkpt>
   <trkpt lat="-26.2543490" lon="-51.0823140">
    <ele>742.6</ele>
   </trkpt>
   <trkpt lat="-26.2543130" lon="-51.0823970">
    <ele>741.4</ele>
   </trkpt>
   <trkpt lat="-26.2542720" lon="-51.0825780">
    <ele>739.8</ele>
   </trkpt>
   <trkpt lat="-26.2542650" lon="-51.0826700">
    <ele>739.4</ele>
   </trkpt>
   <trkpt lat="-26.2542770" lon="-51.0827590">
    <ele>739.4</ele>
   </trkpt>
   <trkpt lat="-26.2543140" lon="-51.0828320">
    <ele>739.4</ele>
   </trkpt>
   <trkpt lat="-26.2544260" lon="-51.0829380">
    <ele>739.8</ele>
   </trkpt>
   <trkpt lat="-26.2544820" lon="-51.0829860">
    <ele>740.0</ele>
   </trkpt>
   <trkpt lat="-26.2545370" lon="-51.0830310">
    <ele>740.2</ele>
   </trkpt>
   <trkpt lat="-26.2545910" lon="-51.0830770">
    <ele>741.2</ele>
   </trkpt>
   <trkpt lat="-26.2546430" lon="-51.0831210">
    <ele>742.6</ele>
   </trkpt>
   <trkpt lat="-26.2546920" lon="-51.0831630">
    <ele>743.2</ele>
   </trkpt>
   <trkpt lat="-26.2547360" lon="-51.0832040">
    <ele>744.0</ele>
   </trkpt>
   <trkpt lat="-26.2547840" lon="-51.0832430">
    <ele>744.0</ele>
   </trkpt>
   <trkpt lat="-26.2548310" lon="-51.0832810">
    <ele>744.0</ele>
   </trkpt>
   <trkpt lat="-26.2548720" lon="-51.0833180">
    <ele>744.0</ele>
   </trkpt>
   <trkpt lat="-26.2549110" lon="-51.0833520">
    <ele>743.4</ele>
   </trkpt>
   <trkpt lat="-26.2549500" lon="-51.0833840">
    <ele>743.4</ele>
   </trkpt>
   <trkpt lat="-26.2549900" lon="-51.0834130">
    <ele>743.4</ele>
   </trkpt>
   <trkpt lat="-26.2550280" lon="-51.0834420">
    <ele>743.4</ele>
   </trkpt>
   <trkpt lat="-26.2550620" lon="-51.0834720">
    <ele>743.4</ele>
   </trkpt>
   <trkpt lat="-26.2550940" lon="-51.0835010">
    <ele>743.4</ele>
   </trkpt>
   <trkpt lat="-26.2551270" lon="-51.0835280">
    <ele>743.6</ele>
   </trkpt>
   <trkpt lat="-26.2551900" lon="-51.0835840">
    <ele>744.0</ele>
   </trkpt>
   <trkpt lat="-26.2552180" lon="-51.0836080">
    <ele>744.4</ele>
   </trkpt>
   <trkpt lat="-26.2552440" lon="-51.0836300">
    <ele>744.6</ele>
   </trkpt>
   <trkpt lat="-26.2552740" lon="-51.0836480">
    <ele>745.0</ele>
   </trkpt>
   <trkpt lat="-26.2553030" lon="-51.0836630">
    <ele>745.2</ele>
   </trkpt>
   <trkpt lat="-26.2553300" lon="-51.0836770">
    <ele>745.4</ele>
   </trkpt>
   <trkpt lat="-26.2554030" lon="-51.0837290">
    <ele>745.8</ele>
   </trkpt>
   <trkpt lat="-26.2554260" lon="-51.0837450">
    <ele>746.0</ele>
   </trkpt>
   <trkpt lat="-26.2554480" lon="-51.0837630">
    <ele>746.2</ele>
   </trkpt>
   <trkpt lat="-26.2554700" lon="-51.0837820">
    <ele>746.6</ele>
   </trkpt>
   <trkpt lat="-26.2554950" lon="-51.0838030">
    <ele>746.8</ele>
   </trkpt>
   <trkpt lat="-26.2555200" lon="-51.0838240">
    <ele>747.0</ele>
   </trkpt>
   <trkpt lat="-26.2555430" lon="-51.0838450">
    <ele>747.4</ele>
   </trkpt>
   <trkpt lat="-26.2555660" lon="-51.0838670">
    <ele>747.6</ele>
   </trkpt>
   <trkpt lat="-26.2555920" lon="-51.0838900">
    <ele>747.6</ele>
   </trkpt>
   <trkpt lat="-26.2556170" lon="-51.0839120">
    <ele>748.0</ele>
   </trkpt>
   <trkpt lat="-26.2556420" lon="-51.0839340">
    <ele>748.2</ele>
   </trkpt>
   <trkpt lat="-26.2556640" lon="-51.0839550">
    <ele>748.6</ele>
   </trkpt>
   <trkpt lat="-26.2556860" lon="-51.0839730">
    <ele>748.8</ele>
   </trkpt>
   <trkpt lat="-26.2557080" lon="-51.0839870">
    <ele>748.8</ele>
   </trkpt>
   <trkpt lat="-26.2557270" lon="-51.0839940">
    <ele>749.0</ele>
   </trkpt>
   <trkpt lat="-26.2557430" lon="-51.0839980">
    <ele>749.6</ele>
   </trkpt>
   <trkpt lat="-26.2557570" lon="-51.0839960">
    <ele>749.8</ele>
   </trkpt>
   <trkpt lat="-26.2557710" lon="-51.0839920">
    <ele>749.8</ele>
   </trkpt>
   <trkpt lat="-26.2557830" lon="-51.0839850">
    <ele>749.8</ele>
   </trkpt>
   <trkpt lat="-26.2557940" lon="-51.0839780">
    <ele>749.8</ele>
   </trkpt>
   <trkpt lat="-26.2558000" lon="-51.0839700">
    <ele>750.0</ele>
   </trkpt>
   <trkpt lat="-26.2558030" lon="-51.0839670">
    <ele>750.0</ele>
   </trkpt>
   <trkpt lat="-26.2558030" lon="-51.0839670">
    <ele>749.8</ele>
   </trkpt>
  </trkseg>
 </trk>
</gpx>
