<?xml version="1.0" encoding="UTF-8"?>
<gpx xmlns:xsi="http://www.w3.org/2001/XMLSchema-instance" xsi:schemaLocation="http://www.topografix.com/GPX/1/1 http://www.topografix.com/GPX/1/1/gpx.xsd" creator="StravaGPX" version="1.1" xmlns="http://www.topografix.com/GPX/1/1">
 <trk>
  <name>Pedalada matinal</name>
  <type>cycling</type>
  <trkseg>
   <trkpt lat="-26.2381930" lon="-51.0793030">
    <ele>783.0</ele>
   </trkpt>
   <trkpt lat="-26.2382690" lon="-51.0793420">
    <ele>781.8</ele>
   </trkpt>
   <trkpt lat="-26.2383430" lon="-51.0793770">
    <ele>780.2</ele>
   </trkpt>
   <trkpt lat="-26.2384140" lon="-51.0794110">
    <ele>778.8</ele>
   </trkpt>
   <trkpt lat="-26.2384790" lon="-51.0794450">
    <ele>777.6</ele>
   </trkpt>
   <trkpt lat="-26.2385380" lon="-51.0794770">
    <ele>776.6</ele>
   </trkpt>
   <trkpt lat="-26.2386390" lon="-51.0795410">
    <ele>775.2</ele>
   </trkpt>
   <trkpt lat="-26.2386780" lon="-51.0795750">
    <ele>774.8</ele>
   </trkpt>
   <trkpt lat="-26.2387550" lon="-51.0796010">
    <ele>774.2</ele>
   </trkpt>
   <trkpt lat="-26.2388340" lon="-51.0795700">
    <ele>773.8</ele>
   </trkpt>
   <trkpt lat="-26.2390250" lon="-51.0794170">
    <ele>773.0</ele>
   </trkpt>
   <trkpt lat="-26.2392610" lon="-51.0792480">
    <ele>771.8</ele>
   </trkpt>
   <trkpt lat="-26.2395100" lon="-51.0790720">
    <ele>771.4</ele>
   </trkpt>
   <trkpt lat="-26.2399760" lon="-51.0787120">
    <ele>771.8</ele>
   </trkpt>
   <trkpt lat="-26.2400290" lon="-51.0786640">
    <ele>772.0</ele>
   </trkpt>
   <trkpt lat="-26.2401030" lon="-51.0785420">
    <ele>772.0</ele>
   </trkpt>
   <trkpt lat="-26.2401910" lon="-51.0780430">
    <ele>770.6</ele>
   </trkpt>
   <trkpt lat="-26.2402220" lon="-51.0778380">
    <ele>768.6</ele>
   </trkpt>
   <trkpt lat="-26.2402370" lon="-51.0777270">
    <ele>767.4</ele>
   </trkpt>
   <trkpt lat="-26.2402540" lon="-51.0776100">
    <ele>766.4</ele>
   </trkpt>
   <trkpt lat="-26.2402880" lon="-51.0773800">
    <ele>764.8</ele>
   </trkpt>
   <trkpt lat="-26.2403070" lon="-51.0772600">
    <ele>763.8</ele>
   </trkpt>
   <trkpt lat="-26.2403250" lon="-51.0771390">
    <ele>762.4</ele>
   </trkpt>
   <trkpt lat="-26.2403430" lon="-51.0770150">
    <ele>761.0</ele>
   </trkpt>
   <trkpt lat="-26.2403620" lon="-51.0768870">
    <ele>759.6</ele>
   </trkpt>
   <trkpt lat="-26.2403910" lon="-51.0767570">
    <ele>758.4</ele>
   </trkpt>
   <trkpt lat="-26.2404340" lon="-51.0766340">
    <ele>756.6</ele>
   </trkpt>
   <trkpt lat="-26.2404880" lon="-51.0765230">
    <ele>755.0</ele>
   </trkpt>
   <trkpt lat="-26.2405570" lon="-51.0764330">
    <ele>753.6</ele>
   </trkpt>
   <trkpt lat="-26.2406360" lon="-51.0763550">
    <ele>752.6</ele>
   </trkpt>
   <trkpt lat="-26.2407920" lon="-51.0762060">
    <ele>751.2</ele>
   </trkpt>
   <trkpt lat="-26.2412140" lon="-51.0757860">
    <ele>751.0</ele>
   </trkpt>
   <trkpt lat="-26.2414900" lon="-51.0755000">
    <ele>751.6</ele>
   </trkpt>
   <trkpt lat="-26.2416330" lon="-51.0753740">
    <ele>751.6</ele>
   </trkpt>
   <trkpt lat="-26.2417760" lon="-51.0752470">
    <ele>752.0</ele>
   </trkpt>
   <trkpt lat="-26.2418480" lon="-51.0751850">
    <ele>752.2</ele>
   </trkpt>
   <trkpt lat="-26.2419840" lon="-51.0750680">
    <ele>753.0</ele>
   </trkpt>
   <trkpt lat="-26.2420520" lon="-51.0750120">
    <ele>753.4</ele>
   </trkpt>
   <trkpt lat="-26.2422360" lon="-51.0748560">
    <ele>754.0</ele>
   </trkpt>
   <trkpt lat="-26.2422920" lon="-51.0748060">
    <ele>754.4</ele>
   </trkpt>
   <trkpt lat="-26.2425090" lon="-51.0745990">
    <ele>755.6</ele>
   </trkpt>
   <trkpt lat="-26.2426980" lon="-51.0744470">
    <ele>756.8</ele>
   </trkpt>
   <trkpt lat="-26.2428130" lon="-51.0743410">
    <ele>757.2</ele>
   </trkpt>
   <trkpt lat="-26.2430900" lon="-51.0741660">
    <ele>756.4</ele>
   </trkpt>
   <trkpt lat="-26.2433230" lon="-51.0740640">
    <ele>755.4</ele>
   </trkpt>
   <trkpt lat="-26.2435580" lon="-51.0739470">
    <ele>754.4</ele>
   </trkpt>
   <trkpt lat="-26.2437850" lon="-51.0738300">
    <ele>753.2</ele>
   </trkpt>
   <trkpt lat="-26.2442990" lon="-51.0736230">
    <ele>753.0</ele>
   </trkpt>
   <trkpt lat="-26.2447140" lon="-51.0734490">
    <ele>753.4</ele>
   </trkpt>
   <trkpt lat="-26.2452500" lon="-51.0732290">
    <ele>754.0</ele>
   </trkpt>
   <trkpt lat="-26.2453150" lon="-51.0732020">
    <ele>754.2</ele>
   </trkpt>
   <trkpt lat="-26.2458240" lon="-51.0729650">
    <ele>754.8</ele>
   </trkpt>
   <trkpt lat="-26.2460320" lon="-51.0728830">
    <ele>755.4</ele>
   </trkpt>
   <trkpt lat="-26.2463980" lon="-51.0727560">
    <ele>756.0</ele>
   </trkpt>
   <trkpt lat="-26.2469620" lon="-51.0725310">
    <ele>755.0</ele>
   </trkpt>
   <trkpt lat="-26.2475250" lon="-51.0723600">
    <ele>755.2</ele>
   </trkpt>
   <trkpt lat="-26.2477340" lon="-51.0723900">
    <ele>755.0</ele>
   </trkpt>
   <trkpt lat="-26.2483000" lon="-51.0723290">
    <ele>756.2</ele>
   </trkpt>
   <trkpt lat="-26.2483670" lon="-51.0723220">
    <ele>756.4</ele>
   </trkpt>
   <trkpt lat="-26.2486350" lon="-51.0722970">
    <ele>757.6</ele>
   </trkpt>
   <trkpt lat="-26.2490270" lon="-51.0722550">
    <ele>758.0</ele>
   </trkpt>
   <trkpt lat="-26.2492220" lon="-51.0722680">
    <ele>758.2</ele>
   </trkpt>
   <trkpt lat="-26.2496560" lon="-51.0722400">
    <ele>756.8</ele>
   </trkpt>
   <trkpt lat="-26.2498040" lon="-51.0722200">
    <ele>756.4</ele>
   </trkpt>
   <trkpt lat="-26.2501670" lon="-51.0721290">
    <ele>755.2</ele>
   </trkpt>
   <trkpt lat="-26.2502360" lon="-51.0720980">
    <ele>755.0</ele>
   </trkpt>
   <trkpt lat="-26.2504380" lon="-51.0719720">
    <ele>754.0</ele>
   </trkpt>
   <trkpt lat="-26.2509580" lon="-51.0716220">
    <ele>754.0</ele>
   </trkpt>
   <trkpt lat="-26.2512660" lon="-51.0714010">
    <ele>754.0</ele>
   </trkpt>
   <trkpt lat="-26.2517410" lon="-51.0710810">
    <ele>754.0</ele>
   </trkpt>
   <trkpt lat="-26.2522190" lon="-51.0707480">
    <ele>754.0</ele>
   </trkpt>
   <trkpt lat="-26.2527070" lon="-51.0704200">
    <ele>754.0</ele>
   </trkpt>
   <trkpt lat="-26.2531830" lon="-51.0700870">
    <ele>753.8</ele>
   </trkpt>
   <trkpt lat="-26.2536920" lon="-51.0697580">
    <ele>754.0</ele>
   </trkpt>
   <trkpt lat="-26.2541240" lon="-51.0694650">
    <ele>754.6</ele>
   </trkpt>
   <trkpt lat="-26.2546380" lon="-51.0691190">
    <ele>754.8</ele>
   </trkpt>
   <trkpt lat="-26.2551270" lon="-51.0687740">
    <ele>754.6</ele>
   </trkpt>
   <trkpt lat="-26.2556030" lon="-51.0684530">
    <ele>755.0</ele>
   </trkpt>
   <trkpt lat="-26.2560880" lon="-51.0681250">
    <ele>754.6</ele>
   </trkpt>
   <trkpt lat="-26.2563260" lon="-51.0679650">
    <ele>754.4</ele>
   </trkpt>
   <trkpt lat="-26.2565790" lon="-51.0677900">
    <ele>755.2</ele>
   </trkpt>
   <trkpt lat="-26.2567020" lon="-51.0677090">
    <ele>755.0</ele>
   </trkpt>
   <trkpt lat="-26.2571660" lon="-51.0673960">
    <ele>755.2</ele>
   </trkpt>
   <trkpt lat="-26.2574000" lon="-51.0672350">
    <ele>756.2</ele>
   </trkpt>
   <trkpt lat="-26.2579230" lon="-51.0668930">
    <ele>755.6</ele>
   </trkpt>
   <trkpt lat="-26.2580420" lon="-51.0668160">
    <ele>755.8</ele>
   </trkpt>
   <trkpt lat="-26.2585030" lon="-51.0665000">
    <ele>755.4</ele>
   </trkpt>
   <trkpt lat="-26.2588580" lon="-51.0662540">
    <ele>755.0</ele>
   </trkpt>
   <trkpt lat="-26.2590450" lon="-51.0661320">
    <ele>754.0</ele>
   </trkpt>
   <trkpt lat="-26.2595150" lon="-51.0657970">
    <ele>754.2</ele>
   </trkpt>
   <trkpt lat="-26.2596830" lon="-51.0656590">
    <ele>754.6</ele>
   </trkpt>
   <trkpt lat="-26.2601340" lon="-51.0652990">
    <ele>755.0</ele>
   </trkpt>
   <trkpt lat="-26.2606080" lon="-51.0649760">
    <ele>755.8</ele>
   </trkpt>
   <trkpt lat="-26.2611230" lon="-51.0646290">
    <ele>756.0</ele>
   </trkpt>
   <trkpt lat="-26.2615780" lon="-51.0643190">
    <ele>755.8</ele>
   </trkpt>
   <trkpt lat="-26.2620810" lon="-51.0639750">
    <ele>755.6</ele>
   </trkpt>
   <trkpt lat="-26.2625870" lon="-51.0636230">
    <ele>756.0</ele>
   </trkpt>
   <trkpt lat="-26.2629580" lon="-51.0633030">
    <ele>755.0</ele>
   </trkpt>
   <trkpt lat="-26.2633490" lon="-51.0628800">
    <ele>755.0</ele>
   </trkpt>
   <trkpt lat="-26.2636610" lon="-51.0624840">
    <ele>755.0</ele>
   </trkpt>
   <trkpt lat="-26.2640700" lon="-51.0620920">
    <ele>753.8</ele>
   </trkpt>
   <trkpt lat="-26.2645070" lon="-51.0616240">
    <ele>754.4</ele>
   </trkpt>
   <trkpt lat="-26.2646460" lon="-51.0614660">
    <ele>754.6</ele>
   </trkpt>
   <trkpt lat="-26.2648330" lon="-51.0612600">
    <ele>754.8</ele>
   </trkpt>
   <trkpt lat="-26.2652610" lon="-51.0607980">
    <ele>754.0</ele>
   </trkpt>
   <trkpt lat="-26.2656930" lon="-51.0603460">
    <ele>755.0</ele>
   </trkpt>
   <trkpt lat="-26.2661240" lon="-51.0599160">
    <ele>754.6</ele>
   </trkpt>
   <trkpt lat="-26.2665370" lon="-51.0595100">
    <ele>755.0</ele>
   </trkpt>
   <trkpt lat="-26.2666220" lon="-51.0594190">
    <ele>755.2</ele>
   </trkpt>
   <trkpt lat="-26.2670350" lon="-51.0589630">
    <ele>755.6</ele>
   </trkpt>
   <trkpt lat="-26.2670660" lon="-51.0589080">
    <ele>755.6</ele>
   </trkpt>
   <trkpt lat="-26.2671670" lon="-51.0585850">
    <ele>755.2</ele>
   </trkpt>
   <trkpt lat="-26.2672590" lon="-51.0584910">
    <ele>755.2</ele>
   </trkpt>
   <trkpt lat="-26.2673890" lon="-51.0584480">
    <ele>755.0</ele>
   </trkpt>
   <trkpt lat="-26.2675370" lon="-51.0584080">
    <ele>754.8</ele>
   </trkpt>
   <trkpt lat="-26.2676710" lon="-51.0583100">
    <ele>754.4</ele>
   </trkpt>
   <trkpt lat="-26.2680040" lon="-51.0579740">
    <ele>755.2</ele>
   </trkpt>
   <trkpt lat="-26.2684100" lon="-51.0575530">
    <ele>755.8</ele>
   </trkpt>
   <trkpt lat="-26.2685900" lon="-51.0573630">
    <ele>755.8</ele>
   </trkpt>
   <trkpt lat="-26.2687720" lon="-51.0571740">
    <ele>757.0</ele>
   </trkpt>
   <trkpt lat="-26.2689910" lon="-51.0569410">
    <ele>758.0</ele>
   </trkpt>
   <trkpt lat="-26.2691550" lon="-51.0567650">
    <ele>759.0</ele>
   </trkpt>
   <trkpt lat="-26.2694300" lon="-51.0565250">
    <ele>759.6</ele>
   </trkpt>
   <trkpt lat="-26.2697340" lon="-51.0562340">
    <ele>760.0</ele>
   </trkpt>
   <trkpt lat="-26.2702030" lon="-51.0558480">
    <ele>760.4</ele>
   </trkpt>
   <trkpt lat="-26.2707130" lon="-51.0555290">
    <ele>761.2</ele>
   </trkpt>
   <trkpt lat="-26.2709530" lon="-51.0554090">
    <ele>761.2</ele>
   </trkpt>
   <trkpt lat="-26.2710800" lon="-51.0553470">
    <ele>760.2</ele>
   </trkpt>
   <trkpt lat="-26.2712920" lon="-51.0552580">
    <ele>758.8</ele>
   </trkpt>
   <trkpt lat="-26.2714480" lon="-51.0552010">
    <ele>757.8</ele>
   </trkpt>
   <trkpt lat="-26.2716860" lon="-51.0551170">
    <ele>756.4</ele>
   </trkpt>
   <trkpt lat="-26.2719140" lon="-51.0550430">
    <ele>755.4</ele>
   </trkpt>
   <trkpt lat="-26.2724490" lon="-51.0548740">
    <ele>755.0</ele>
   </trkpt>
   <trkpt lat="-26.2727260" lon="-51.0547870">
    <ele>756.6</ele>
   </trkpt>
   <trkpt lat="-26.2729500" lon="-51.0547180">
    <ele>757.6</ele>
   </trkpt>
   <trkpt lat="-26.2730070" lon="-51.0547010">
    <ele>758.0</ele>
   </trkpt>
   <trkpt lat="-26.2732910" lon="-51.0546170">
    <ele>758.8</ele>
   </trkpt>
   <trkpt lat="-26.2738200" lon="-51.0544530">
    <ele>758.4</ele>
   </trkpt>
   <trkpt lat="-26.2741100" lon="-51.0543670">
    <ele>758.4</ele>
   </trkpt>
   <trkpt lat="-26.2743440" lon="-51.0543370">
    <ele>758.6</ele>
   </trkpt>
   <trkpt lat="-26.2749050" lon="-51.0542000">
    <ele>758.4</ele>
   </trkpt>
   <trkpt lat="-26.2752060" lon="-51.0541060">
    <ele>757.6</ele>
   </trkpt>
   <trkpt lat="-26.2755220" lon="-51.0540070">
    <ele>756.6</ele>
   </trkpt>
   <trkpt lat="-26.2757670" lon="-51.0539330">
    <ele>755.0</ele>
   </trkpt>
   <trkpt lat="-26.2761750" lon="-51.0538110">
    <ele>754.0</ele>
   </trkpt>
   <trkpt lat="-26.2767130" lon="-51.0536570">
    <ele>753.6</ele>
   </trkpt>
   <trkpt lat="-26.2772360" lon="-51.0534740">
    <ele>754.0</ele>
   </trkpt>
   <trkpt lat="-26.2777220" lon="-51.0532450">
    <ele>755.2</ele>
   </trkpt>
   <trkpt lat="-26.2779780" lon="-51.0530950">
    <ele>755.8</ele>
   </trkpt>
   <trkpt lat="-26.2782700" lon="-51.0528970">
    <ele>756.0</ele>
   </trkpt>
   <trkpt lat="-26.2783580" lon="-51.0528370">
    <ele>756.0</ele>
   </trkpt>
   <trkpt lat="-26.2784380" lon="-51.0527680">
    <ele>756.0</ele>
   </trkpt>
   <trkpt lat="-26.2785350" lon="-51.0527180">
    <ele>756.2</ele>
   </trkpt>
   <trkpt lat="-26.2786470" lon="-51.0527400">
    <ele>756.4</ele>
   </trkpt>
   <trkpt lat="-26.2787340" lon="-51.0528250">
    <ele>756.2</ele>
   </trkpt>
   <trkpt lat="-26.2790280" lon="-51.0533530">
    <ele>756.0</ele>
   </trkpt>
   <trkpt lat="-26.2793480" lon="-51.0538640">
    <ele>756.4</ele>
   </trkpt>
   <trkpt lat="-26.2794890" lon="-51.0540980">
    <ele>757.0</ele>
   </trkpt>
   <trkpt lat="-26.2795540" lon="-51.0547060">
    <ele>756.6</ele>
   </trkpt>
   <trkpt lat="-26.2796090" lon="-51.0553230">
    <ele>757.0</ele>
   </trkpt>
   <trkpt lat="-26.2796970" lon="-51.0558140">
    <ele>756.8</ele>
   </trkpt>
   <trkpt lat="-26.2799130" lon="-51.0563990">
    <ele>756.6</ele>
   </trkpt>
   <trkpt lat="-26.2802310" lon="-51.0569140">
    <ele>757.4</ele>
   </trkpt>
   <trkpt lat="-26.2805200" lon="-51.0573590">
    <ele>758.4</ele>
   </trkpt>
   <trkpt lat="-26.2805510" lon="-51.0574220">
    <ele>758.8</ele>
   </trkpt>
   <trkpt lat="-26.2805900" lon="-51.0575630">
    <ele>759.0</ele>
   </trkpt>
   <trkpt lat="-26.2805820" lon="-51.0577110">
    <ele>758.8</ele>
   </trkpt>
   <trkpt lat="-26.2805120" lon="-51.0579260">
    <ele>758.0</ele>
   </trkpt>
   <trkpt lat="-26.2803960" lon="-51.0581070">
    <ele>757.4</ele>
   </trkpt>
   <trkpt lat="-26.2801660" lon="-51.0583770">
    <ele>757.2</ele>
   </trkpt>
   <trkpt lat="-26.2801260" lon="-51.0585110">
    <ele>757.2</ele>
   </trkpt>
   <trkpt lat="-26.2801280" lon="-51.0586520">
    <ele>757.4</ele>
   </trkpt>
   <trkpt lat="-26.2801530" lon="-51.0587800">
    <ele>757.8</ele>
   </trkpt>
   <trkpt lat="-26.2801990" lon="-51.0588930">
    <ele>758.0</ele>
   </trkpt>
   <trkpt lat="-26.2803710" lon="-51.0590870">
    <ele>757.8</ele>
   </trkpt>
   <trkpt lat="-26.2806530" lon="-51.0592780">
    <ele>758.6</ele>
   </trkpt>
   <trkpt lat="-26.2810460" lon="-51.0595490">
    <ele>759.6</ele>
   </trkpt>
   <trkpt lat="-26.2814410" lon="-51.0598000">
    <ele>760.6</ele>
   </trkpt>
   <trkpt lat="-26.2817230" lon="-51.0600410">
    <ele>761.6</ele>
   </trkpt>
   <trkpt lat="-26.2817930" lon="-51.0601260">
    <ele>762.0</ele>
   </trkpt>
   <trkpt lat="-26.2818470" lon="-51.0602290">
    <ele>762.2</ele>
   </trkpt>
   <trkpt lat="-26.2818660" lon="-51.0603450">
    <ele>762.2</ele>
   </trkpt>
   <trkpt lat="-26.2818360" lon="-51.0604650">
    <ele>762.6</ele>
   </trkpt>
   <trkpt lat="-26.2817680" lon="-51.0605630">
    <ele>762.8</ele>
   </trkpt>
   <trkpt lat="-26.2816140" lon="-51.0607400">
    <ele>762.8</ele>
   </trkpt>
   <trkpt lat="-26.2815680" lon="-51.0608510">
    <ele>763.2</ele>
   </trkpt>
   <trkpt lat="-26.2815420" lon="-51.0609750">
    <ele>763.6</ele>
   </trkpt>
   <trkpt lat="-26.2815610" lon="-51.0610980">
    <ele>763.8</ele>
   </trkpt>
   <trkpt lat="-26.2816160" lon="-51.0612050">
    <ele>764.0</ele>
   </trkpt>
   <trkpt lat="-26.2818190" lon="-51.0614600">
    <ele>765.2</ele>
   </trkpt>
   <trkpt lat="-26.2820410" lon="-51.0617480">
    <ele>766.2</ele>
   </trkpt>
   <trkpt lat="-26.2824250" lon="-51.0622120">
    <ele>766.8</ele>
   </trkpt>
   <trkpt lat="-26.2828170" lon="-51.0626590">
    <ele>766.2</ele>
   </trkpt>
   <trkpt lat="-26.2831960" lon="-51.0630380">
    <ele>764.8</ele>
   </trkpt>
   <trkpt lat="-26.2834770" lon="-51.0633110">
    <ele>763.6</ele>
   </trkpt>
   <trkpt lat="-26.2836020" lon="-51.0634190">
    <ele>763.4</ele>
   </trkpt>
   <trkpt lat="-26.2838390" lon="-51.0635400">
    <ele>763.6</ele>
   </trkpt>
   <trkpt lat="-26.2839300" lon="-51.0635680">
    <ele>763.8</ele>
   </trkpt>
   <trkpt lat="-26.2842670" lon="-51.0635910">
    <ele>764.8</ele>
   </trkpt>
   <trkpt lat="-26.2843790" lon="-51.0636040">
    <ele>765.8</ele>
   </trkpt>
   <trkpt lat="-26.2845270" lon="-51.0636150">
    <ele>767.0</ele>
   </trkpt>
   <trkpt lat="-26.2846410" lon="-51.0636230">
    <ele>768.2</ele>
   </trkpt>
   <trkpt lat="-26.2847740" lon="-51.0636370">
    <ele>769.4</ele>
   </trkpt>
   <trkpt lat="-26.2848630" lon="-51.0636510">
    <ele>770.8</ele>
   </trkpt>
   <trkpt lat="-26.2849380" lon="-51.0636660">
    <ele>772.0</ele>
   </trkpt>
   <trkpt lat="-26.2850080" lon="-51.0636830">
    <ele>773.0</ele>
   </trkpt>
   <trkpt lat="-26.2850780" lon="-51.0637200">
    <ele>774.2</ele>
   </trkpt>
   <trkpt lat="-26.2852050" lon="-51.0637520">
    <ele>775.2</ele>
   </trkpt>
   <trkpt lat="-26.2854630" lon="-51.0638220">
    <ele>776.2</ele>
   </trkpt>
   <trkpt lat="-26.2855250" lon="-51.0638520">
    <ele>776.4</ele>
   </trkpt>
   <trkpt lat="-26.2856460" lon="-51.0639030">
    <ele>777.8</ele>
   </trkpt>
   <trkpt lat="-26.2859360" lon="-51.0640640">
    <ele>779.0</ele>
   </trkpt>
   <trkpt lat="-26.2860120" lon="-51.0641160">
    <ele>780.0</ele>
   </trkpt>
   <trkpt lat="-26.2860990" lon="-51.0641910">
    <ele>781.2</ele>
   </trkpt>
   <trkpt lat="-26.2861540" lon="-51.0642340">
    <ele>782.2</ele>
   </trkpt>
   <trkpt lat="-26.2861880" lon="-51.0642580">
    <ele>783.2</ele>
   </trkpt>
   <trkpt lat="-26.2862360" lon="-51.0642860">
    <ele>784.4</ele>
   </trkpt>
   <trkpt lat="-26.2863630" lon="-51.0643350">
    <ele>785.6</ele>
   </trkpt>
   <trkpt lat="-26.2865860" lon="-51.0644790">
    <ele>786.6</ele>
   </trkpt>
   <trkpt lat="-26.2869130" lon="-51.0646480">
    <ele>787.0</ele>
   </trkpt>
   <trkpt lat="-26.2870450" lon="-51.0647030">
    <ele>787.6</ele>
   </trkpt>
   <trkpt lat="-26.2871330" lon="-51.0647340">
    <ele>788.2</ele>
   </trkpt>
   <trkpt lat="-26.2872250" lon="-51.0647650">
    <ele>788.6</ele>
   </trkpt>
   <trkpt lat="-26.2874960" lon="-51.0648150">
    <ele>787.4</ele>
   </trkpt>
   <trkpt lat="-26.2876700" lon="-51.0648390">
    <ele>786.4</ele>
   </trkpt>
   <trkpt lat="-26.2879840" lon="-51.0647680">
    <ele>785.6</ele>
   </trkpt>
   <trkpt lat="-26.2880500" lon="-51.0647080">
    <ele>785.8</ele>
   </trkpt>
   <trkpt lat="-26.2882110" lon="-51.0644820">
    <ele>785.6</ele>
   </trkpt>
   <trkpt lat="-26.2883220" lon="-51.0641770">
    <ele>787.4</ele>
   </trkpt>
   <trkpt lat="-26.2883070" lon="-51.0640220">
    <ele>788.6</ele>
   </trkpt>
   <trkpt lat="-26.2880860" lon="-51.0635490">
    <ele>789.6</ele>
   </trkpt>
   <trkpt lat="-26.2880510" lon="-51.0633590">
    <ele>790.8</ele>
   </trkpt>
   <trkpt lat="-26.2880580" lon="-51.0632340">
    <ele>792.0</ele>
   </trkpt>
   <trkpt lat="-26.2880910" lon="-51.0629600">
    <ele>793.4</ele>
   </trkpt>
   <trkpt lat="-26.2881020" lon="-51.0628250">
    <ele>794.6</ele>
   </trkpt>
   <trkpt lat="-26.2881170" lon="-51.0627070">
    <ele>795.6</ele>
   </trkpt>
   <trkpt lat="-26.2881330" lon="-51.0625820">
    <ele>796.8</ele>
   </trkpt>
   <trkpt lat="-26.2881490" lon="-51.0624320">
    <ele>797.8</ele>
   </trkpt>
   <trkpt lat="-26.2881640" lon="-51.0623220">
    <ele>798.8</ele>
   </trkpt>
   <trkpt lat="-26.2881690" lon="-51.0622140">
    <ele>799.8</ele>
   </trkpt>
   <trkpt lat="-26.2881830" lon="-51.0620670">
    <ele>801.2</ele>
   </trkpt>
   <trkpt lat="-26.2881970" lon="-51.0619650">
    <ele>802.4</ele>
   </trkpt>
   <trkpt lat="-26.2882080" lon="-51.0618680">
    <ele>803.6</ele>
   </trkpt>
   <trkpt lat="-26.2882720" lon="-51.0616950">
    <ele>804.6</ele>
   </trkpt>
   <trkpt lat="-26.2883240" lon="-51.0616190">
    <ele>805.8</ele>
   </trkpt>
   <trkpt lat="-26.2883990" lon="-51.0615580">
    <ele>807.0</ele>
   </trkpt>
   <trkpt lat="-26.2885770" lon="-51.0614210">
    <ele>808.2</ele>
   </trkpt>
   <trkpt lat="-26.2889140" lon="-51.0613130">
    <ele>809.2</ele>
   </trkpt>
   <trkpt lat="-26.2890210" lon="-51.0612490">
    <ele>810.2</ele>
   </trkpt>
   <trkpt lat="-26.2890910" lon="-51.0611730">
    <ele>811.2</ele>
   </trkpt>
   <trkpt lat="-26.2891480" lon="-51.0610370">
    <ele>812.4</ele>
   </trkpt>
   <trkpt lat="-26.2891860" lon="-51.0608920">
    <ele>813.4</ele>
   </trkpt>
   <trkpt lat="-26.2892510" lon="-51.0607390">
    <ele>814.6</ele>
   </trkpt>
   <trkpt lat="-26.2892950" lon="-51.0606770">
    <ele>815.8</ele>
   </trkpt>
   <trkpt lat="-26.2893460" lon="-51.0606350">
    <ele>817.0</ele>
   </trkpt>
   <trkpt lat="-26.2894460" lon="-51.0605620">
    <ele>818.4</ele>
   </trkpt>
   <trkpt lat="-26.2895010" lon="-51.0605060">
    <ele>819.6</ele>
   </trkpt>
   <trkpt lat="-26.2895840" lon="-51.0604240">
    <ele>820.6</ele>
   </trkpt>
   <trkpt lat="-26.2896610" lon="-51.0603550">
    <ele>821.8</ele>
   </trkpt>
   <trkpt lat="-26.2897470" lon="-51.0602750">
    <ele>823.0</ele>
   </trkpt>
   <trkpt lat="-26.2898240" lon="-51.0602280">
    <ele>824.0</ele>
   </trkpt>
   <trkpt lat="-26.2898670" lon="-51.0602170">
    <ele>825.2</ele>
   </trkpt>
   <trkpt lat="-26.2899550" lon="-51.0602090">
    <ele>826.4</ele>
   </trkpt>
   <trkpt lat="-26.2900100" lon="-51.0602320">
    <ele>827.6</ele>
   </trkpt>
   <trkpt lat="-26.2900670" lon="-51.0602490">
    <ele>828.6</ele>
   </trkpt>
   <trkpt lat="-26.2901360" lon="-51.0602780">
    <ele>829.6</ele>
   </trkpt>
   <trkpt lat="-26.2902160" lon="-51.0603280">
    <ele>830.8</ele>
   </trkpt>
   <trkpt lat="-26.2902760" lon="-51.0603790">
    <ele>831.8</ele>
   </trkpt>
   <trkpt lat="-26.2903250" lon="-51.0604460">
    <ele>832.8</ele>
   </trkpt>
   <trkpt lat="-26.2903500" lon="-51.0605290">
    <ele>834.0</ele>
   </trkpt>
   <trkpt lat="-26.2903740" lon="-51.0606350">
    <ele>835.2</ele>
   </trkpt>
   <trkpt lat="-26.2903880" lon="-51.0607790">
    <ele>836.2</ele>
   </trkpt>
   <trkpt lat="-26.2903890" lon="-51.0608630">
    <ele>837.4</ele>
   </trkpt>
   <trkpt lat="-26.2903840" lon="-51.0609210">
    <ele>837.8</ele>
   </trkpt>
   <trkpt lat="-26.2903790" lon="-51.0609970">
    <ele>838.8</ele>
   </trkpt>
   <trkpt lat="-26.2903910" lon="-51.0610630">
    <ele>839.8</ele>
   </trkpt>
   <trkpt lat="-26.2903950" lon="-51.0611930">
    <ele>840.8</ele>
   </trkpt>
   <trkpt lat="-26.2903890" lon="-51.0612970">
    <ele>842.0</ele>
   </trkpt>
   <trkpt lat="-26.2903870" lon="-51.0614070">
    <ele>843.2</ele>
   </trkpt>
   <trkpt lat="-26.2903880" lon="-51.0615180">
    <ele>844.4</ele>
   </trkpt>
   <trkpt lat="-26.2903900" lon="-51.0615960">
    <ele>845.2</ele>
   </trkpt>
   <trkpt lat="-26.2903880" lon="-51.0616160">
    <ele>845.4</ele>
   </trkpt>
   <trkpt lat="-26.2903740" lon="-51.0616830">
    <ele>846.4</ele>
   </trkpt>
   <trkpt lat="-26.2903270" lon="-51.0617690">
    <ele>847.4</ele>
   </trkpt>
   <trkpt lat="-26.2902520" lon="-51.0618820">
    <ele>848.4</ele>
   </trkpt>
   <trkpt lat="-26.2902080" lon="-51.0619820">
    <ele>849.4</ele>
   </trkpt>
   <trkpt lat="-26.2901780" lon="-51.0620990">
    <ele>850.6</ele>
   </trkpt>
   <trkpt lat="-26.2901630" lon="-51.0622040">
    <ele>851.6</ele>
   </trkpt>
   <trkpt lat="-26.2901710" lon="-51.0623670">
    <ele>852.6</ele>
   </trkpt>
   <trkpt lat="-26.2901960" lon="-51.0624620">
    <ele>853.8</ele>
   </trkpt>
   <trkpt lat="-26.2902320" lon="-51.0625590">
    <ele>854.8</ele>
   </trkpt>
   <trkpt lat="-26.2902930" lon="-51.0627290">
    <ele>856.0</ele>
   </trkpt>
   <trkpt lat="-26.2903460" lon="-51.0628460">
    <ele>857.0</ele>
   </trkpt>
   <trkpt lat="-26.2905070" lon="-51.0631290">
    <ele>858.0</ele>
   </trkpt>
   <trkpt lat="-26.2905490" lon="-51.0631830">
    <ele>858.2</ele>
   </trkpt>
   <trkpt lat="-26.2907020" lon="-51.0634860">
    <ele>858.2</ele>
   </trkpt>
   <trkpt lat="-26.2908140" lon="-51.0637540">
    <ele>858.6</ele>
   </trkpt>
   <trkpt lat="-26.2909160" lon="-51.0640910">
    <ele>858.4</ele>
   </trkpt>
   <trkpt lat="-26.2909960" lon="-51.0643180">
    <ele>859.0</ele>
   </trkpt>
   <trkpt lat="-26.2911170" lon="-51.0647210">
    <ele>860.0</ele>
   </trkpt>
   <trkpt lat="-26.2911790" lon="-51.0650110">
    <ele>861.2</ele>
   </trkpt>
   <trkpt lat="-26.2911960" lon="-51.0651490">
    <ele>862.4</ele>
   </trkpt>
   <trkpt lat="-26.2912170" lon="-51.0652890">
    <ele>863.4</ele>
   </trkpt>
   <trkpt lat="-26.2912650" lon="-51.0655100">
    <ele>864.6</ele>
   </trkpt>
   <trkpt lat="-26.2913270" lon="-51.0656760">
    <ele>865.8</ele>
   </trkpt>
   <trkpt lat="-26.2913920" lon="-51.0657940">
    <ele>866.8</ele>
   </trkpt>
   <trkpt lat="-26.2915210" lon="-51.0659380">
    <ele>868.0</ele>
   </trkpt>
   <trkpt lat="-26.2916550" lon="-51.0660110">
    <ele>869.0</ele>
   </trkpt>
   <trkpt lat="-26.2917730" lon="-51.0660450">
    <ele>870.2</ele>
   </trkpt>
   <trkpt lat="-26.2918790" lon="-51.0660580">
    <ele>871.4</ele>
   </trkpt>
   <trkpt lat="-26.2920290" lon="-51.0660580">
    <ele>872.4</ele>
   </trkpt>
   <trkpt lat="-26.2921940" lon="-51.0661110">
    <ele>873.6</ele>
   </trkpt>
   <trkpt lat="-26.2923030" lon="-51.0661410">
    <ele>874.8</ele>
   </trkpt>
   <trkpt lat="-26.2924240" lon="-51.0661820">
    <ele>876.0</ele>
   </trkpt>
   <trkpt lat="-26.2925660" lon="-51.0662910">
    <ele>877.0</ele>
   </trkpt>
   <trkpt lat="-26.2926310" lon="-51.0664370">
    <ele>878.2</ele>
   </trkpt>
   <trkpt lat="-26.2927130" lon="-51.0666030">
    <ele>879.2</ele>
   </trkpt>
   <trkpt lat="-26.2929640" lon="-51.0669780">
    <ele>879.8</ele>
   </trkpt>
   <trkpt lat="-26.2930690" lon="-51.0671660">
    <ele>880.4</ele>
   </trkpt>
   <trkpt lat="-26.2931180" lon="-51.0672830">
    <ele>881.4</ele>
   </trkpt>
   <trkpt lat="-26.2931810" lon="-51.0674150">
    <ele>882.4</ele>
   </trkpt>
   <trkpt lat="-26.2932150" lon="-51.0675240">
    <ele>883.6</ele>
   </trkpt>
   <trkpt lat="-26.2932510" lon="-51.0676560">
    <ele>884.8</ele>
   </trkpt>
   <trkpt lat="-26.2933030" lon="-51.0678070">
    <ele>885.8</ele>
   </trkpt>
   <trkpt lat="-26.2933240" lon="-51.0678980">
    <ele>886.8</ele>
   </trkpt>
   <trkpt lat="-26.2933580" lon="-51.0679700">
    <ele>888.0</ele>
   </trkpt>
   <trkpt lat="-26.2933860" lon="-51.0680340">
    <ele>889.2</ele>
   </trkpt>
   <trkpt lat="-26.2934510" lon="-51.0680890">
    <ele>890.4</ele>
   </trkpt>
   <trkpt lat="-26.2935100" lon="-51.0681180">
    <ele>891.4</ele>
   </trkpt>
   <trkpt lat="-26.2936270" lon="-51.0681780">
    <ele>892.4</ele>
   </trkpt>
   <trkpt lat="-26.2937290" lon="-51.0682380">
    <ele>893.6</ele>
   </trkpt>
   <trkpt lat="-26.2938970" lon="-51.0683040">
    <ele>894.6</ele>
   </trkpt>
   <trkpt lat="-26.2939700" lon="-51.0683290">
    <ele>895.6</ele>
   </trkpt>
   <trkpt lat="-26.2940320" lon="-51.0683680">
    <ele>896.8</ele>
   </trkpt>
   <trkpt lat="-26.2940980" lon="-51.0683780">
    <ele>897.8</ele>
   </trkpt>
   <trkpt lat="-26.2941430" lon="-51.0683850">
    <ele>898.8</ele>
   </trkpt>
   <trkpt lat="-26.2942010" lon="-51.0683990">
    <ele>900.0</ele>
   </trkpt>
   <trkpt lat="-26.2942640" lon="-51.0684050">
    <ele>901.2</ele>
   </trkpt>
   <trkpt lat="-26.2943150" lon="-51.0683880">
    <ele>902.4</ele>
   </trkpt>
   <trkpt lat="-26.2944150" lon="-51.0683610">
    <ele>903.2</ele>
   </trkpt>
   <trkpt lat="-26.2944480" lon="-51.0683350">
    <ele>903.4</ele>
   </trkpt>
   <trkpt lat="-26.2947040" lon="-51.0682730">
    <ele>903.8</ele>
   </trkpt>
   <trkpt lat="-26.2948350" lon="-51.0683190">
    <ele>904.4</ele>
   </trkpt>
   <trkpt lat="-26.2948930" lon="-51.0683700">
    <ele>905.6</ele>
   </trkpt>
   <trkpt lat="-26.2949810" lon="-51.0684500">
    <ele>906.8</ele>
   </trkpt>
   <trkpt lat="-26.2950140" lon="-51.0684860">
    <ele>907.8</ele>
   </trkpt>
   <trkpt lat="-26.2950670" lon="-51.0685360">
    <ele>908.6</ele>
   </trkpt>
   <trkpt lat="-26.2950820" lon="-51.0685510">
    <ele>909.0</ele>
   </trkpt>
   <trkpt lat="-26.2950940" lon="-51.0686230">
    <ele>910.2</ele>
   </trkpt>
   <trkpt lat="-26.2950960" lon="-51.0686780">
    <ele>911.4</ele>
   </trkpt>
   <trkpt lat="-26.2950750" lon="-51.0687000">
    <ele>912.4</ele>
   </trkpt>
   <trkpt lat="-26.2950610" lon="-51.0687450">
    <ele>913.6</ele>
   </trkpt>
   <trkpt lat="-26.2950600" lon="-51.0687620">
    <ele>914.6</ele>
   </trkpt>
   <trkpt lat="-26.2950570" lon="-51.0687810">
    <ele>915.8</ele>
   </trkpt>
   <trkpt lat="-26.2950590" lon="-51.0688800">
    <ele>917.0</ele>
   </trkpt>
   <trkpt lat="-26.2950550" lon="-51.0690540">
    <ele>918.0</ele>
   </trkpt>
   <trkpt lat="-26.2950750" lon="-51.0691650">
    <ele>919.4</ele>
   </trkpt>
   <trkpt lat="-26.2950880" lon="-51.0692210">
    <ele>920.4</ele>
   </trkpt>
   <trkpt lat="-26.2951250" lon="-51.0692930">
    <ele>921.6</ele>
   </trkpt>
   <trkpt lat="-26.2951500" lon="-51.0693690">
    <ele>922.8</ele>
   </trkpt>
   <trkpt lat="-26.2951660" lon="-51.0694430">
    <ele>923.6</ele>
   </trkpt>
   <trkpt lat="-26.2952100" lon="-51.0695230">
    <ele>923.8</ele>
   </trkpt>
   <trkpt lat="-26.2952210" lon="-51.0695530">
    <ele>924.0</ele>
   </trkpt>
   <trkpt lat="-26.2952420" lon="-51.0696690">
    <ele>924.6</ele>
   </trkpt>
   <trkpt lat="-26.2953560" lon="-51.0700640">
    <ele>922.8</ele>
   </trkpt>
   <trkpt lat="-26.2954180" lon="-51.0702610">
    <ele>921.4</ele>
   </trkpt>
   <trkpt lat="-26.2954550" lon="-51.0704100">
    <ele>920.2</ele>
   </trkpt>
   <trkpt lat="-26.2955280" lon="-51.0706490">
    <ele>918.6</ele>
   </trkpt>
   <trkpt lat="-26.2956330" lon="-51.0709390">
    <ele>917.6</ele>
   </trkpt>
   <trkpt lat="-26.2958160" lon="-51.0714830">
    <ele>916.8</ele>
   </trkpt>
   <trkpt lat="-26.2959010" lon="-51.0716990">
    <ele>917.4</ele>
   </trkpt>
   <trkpt lat="-26.2959880" lon="-51.0718490">
    <ele>918.6</ele>
   </trkpt>
   <trkpt lat="-26.2961350" lon="-51.0719980">
    <ele>919.6</ele>
   </trkpt>
   <trkpt lat="-26.2962220" lon="-51.0720520">
    <ele>920.8</ele>
   </trkpt>
   <trkpt lat="-26.2963280" lon="-51.0720930">
    <ele>921.8</ele>
   </trkpt>
   <trkpt lat="-26.2964260" lon="-51.0721460">
    <ele>923.0</ele>
   </trkpt>
   <trkpt lat="-26.2965020" lon="-51.0721850">
    <ele>924.0</ele>
   </trkpt>
   <trkpt lat="-26.2965170" lon="-51.0721920">
    <ele>924.4</ele>
   </trkpt>
   <trkpt lat="-26.2965530" lon="-51.0722160">
    <ele>925.2</ele>
   </trkpt>
   <trkpt lat="-26.2965830" lon="-51.0722220">
    <ele>925.8</ele>
   </trkpt>
   <trkpt lat="-26.2966160" lon="-51.0722260">
    <ele>926.2</ele>
   </trkpt>
   <trkpt lat="-26.2966430" lon="-51.0722390">
    <ele>926.6</ele>
   </trkpt>
   <trkpt lat="-26.2966870" lon="-51.0722580">
    <ele>927.8</ele>
   </trkpt>
   <trkpt lat="-26.2967280" lon="-51.0722750">
    <ele>928.8</ele>
   </trkpt>
   <trkpt lat="-26.2967690" lon="-51.0722840">
    <ele>930.2</ele>
   </trkpt>
   <trkpt lat="-26.2968220" lon="-51.0723200">
    <ele>931.4</ele>
   </trkpt>
   <trkpt lat="-26.2968830" lon="-51.0723390">
    <ele>932.4</ele>
   </trkpt>
   <trkpt lat="-26.2969240" lon="-51.0723690">
    <ele>933.8</ele>
   </trkpt>
   <trkpt lat="-26.2969390" lon="-51.0723740">
    <ele>934.2</ele>
   </trkpt>
   <trkpt lat="-26.2969680" lon="-51.0723850">
    <ele>935.0</ele>
   </trkpt>
   <trkpt lat="-26.2970020" lon="-51.0724150">
    <ele>935.8</ele>
   </trkpt>
   <trkpt lat="-26.2970130" lon="-51.0724270">
    <ele>936.2</ele>
   </trkpt>
   <trkpt lat="-26.2970520" lon="-51.0724550">
    <ele>937.2</ele>
   </trkpt>
   <trkpt lat="-26.2970830" lon="-51.0724750">
    <ele>938.4</ele>
   </trkpt>
   <trkpt lat="-26.2971310" lon="-51.0725040">
    <ele>939.6</ele>
   </trkpt>
   <trkpt lat="-26.2971850" lon="-51.0725210">
    <ele>940.8</ele>
   </trkpt>
   <trkpt lat="-26.2972230" lon="-51.0725570">
    <ele>942.0</ele>
   </trkpt>
   <trkpt lat="-26.2972790" lon="-51.0726050">
    <ele>943.0</ele>
   </trkpt>
   <trkpt lat="-26.2973550" lon="-51.0726500">
    <ele>944.2</ele>
   </trkpt>
   <trkpt lat="-26.2974280" lon="-51.0727550">
    <ele>945.4</ele>
   </trkpt>
   <trkpt lat="-26.2975510" lon="-51.0728800">
    <ele>946.4</ele>
   </trkpt>
   <trkpt lat="-26.2976220" lon="-51.0729690">
    <ele>947.4</ele>
   </trkpt>
   <trkpt lat="-26.2976350" lon="-51.0729750">
    <ele>947.6</ele>
   </trkpt>
   <trkpt lat="-26.2976920" lon="-51.0730140">
    <ele>948.6</ele>
   </trkpt>
   <trkpt lat="-26.2977480" lon="-51.0730670">
    <ele>949.6</ele>
   </trkpt>
   <trkpt lat="-26.2977840" lon="-51.0730980">
    <ele>950.6</ele>
   </trkpt>
   <trkpt lat="-26.2978100" lon="-51.0731330">
    <ele>951.2</ele>
   </trkpt>
   <trkpt lat="-26.2978840" lon="-51.0731920">
    <ele>951.8</ele>
   </trkpt>
   <trkpt lat="-26.2980390" lon="-51.0733060">
    <ele>951.6</ele>
   </trkpt>
   <trkpt lat="-26.2982620" lon="-51.0735010">
    <ele>950.8</ele>
   </trkpt>
   <trkpt lat="-26.2983180" lon="-51.0735840">
    <ele>950.2</ele>
   </trkpt>
   <trkpt lat="-26.2983720" lon="-51.0736980">
    <ele>949.6</ele>
   </trkpt>
   <trkpt lat="-26.2984410" lon="-51.0738130">
    <ele>948.2</ele>
   </trkpt>
   <trkpt lat="-26.2985310" lon="-51.0739130">
    <ele>946.2</ele>
   </trkpt>
   <trkpt lat="-26.2986500" lon="-51.0740250">
    <ele>945.2</ele>
   </trkpt>
   <trkpt lat="-26.2987170" lon="-51.0740890">
    <ele>944.8</ele>
   </trkpt>
   <trkpt lat="-26.2987880" lon="-51.0741580">
    <ele>944.0</ele>
   </trkpt>
   <trkpt lat="-26.2988650" lon="-51.0742240">
    <ele>943.0</ele>
   </trkpt>
   <trkpt lat="-26.2989490" lon="-51.0742870">
    <ele>941.2</ele>
   </trkpt>
   <trkpt lat="-26.2990380" lon="-51.0743460">
    <ele>939.4</ele>
   </trkpt>
   <trkpt lat="-26.2991280" lon="-51.0744030">
    <ele>937.6</ele>
   </trkpt>
   <trkpt lat="-26.2992240" lon="-51.0744610">
    <ele>936.2</ele>
   </trkpt>
   <trkpt lat="-26.2993170" lon="-51.0745170">
    <ele>934.8</ele>
   </trkpt>
   <trkpt lat="-26.2994070" lon="-51.0745750">
    <ele>933.6</ele>
   </trkpt>
   <trkpt lat="-26.2995740" lon="-51.0747240">
    <ele>931.6</ele>
   </trkpt>
   <trkpt lat="-26.2996500" lon="-51.0748020">
    <ele>930.6</ele>
   </trkpt>
   <trkpt lat="-26.2997370" lon="-51.0748700">
    <ele>929.6</ele>
   </trkpt>
   <trkpt lat="-26.2998240" lon="-51.0749190">
    <ele>928.6</ele>
   </trkpt>
   <trkpt lat="-26.2999090" lon="-51.0749520">
    <ele>927.4</ele>
   </trkpt>
   <trkpt lat="-26.2999930" lon="-51.0749680">
    <ele>926.4</ele>
   </trkpt>
   <trkpt lat="-26.3000760" lon="-51.0749690">
    <ele>925.8</ele>
   </trkpt>
   <trkpt lat="-26.3001570" lon="-51.0749580">
    <ele>925.4</ele>
   </trkpt>
   <trkpt lat="-26.3002950" lon="-51.0748860">
    <ele>924.8</ele>
   </trkpt>
   <trkpt lat="-26.3003410" lon="-51.0748310">
    <ele>924.6</ele>
   </trkpt>
   <trkpt lat="-26.3004050" lon="-51.0747090">
    <ele>924.8</ele>
   </trkpt>
   <trkpt lat="-26.3004540" lon="-51.0745720">
    <ele>925.8</ele>
   </trkpt>
   <trkpt lat="-26.3004810" lon="-51.0745220">
    <ele>927.6</ele>
   </trkpt>
   <trkpt lat="-26.3005120" lon="-51.0744810">
    <ele>929.0</ele>
   </trkpt>
   <trkpt lat="-26.3005430" lon="-51.0744540">
    <ele>930.4</ele>
   </trkpt>
   <trkpt lat="-26.3005720" lon="-51.0744380">
    <ele>931.4</ele>
   </trkpt>
   <trkpt lat="-26.3006300" lon="-51.0744190">
    <ele>932.6</ele>
   </trkpt>
   <trkpt lat="-26.3007170" lon="-51.0744070">
    <ele>933.6</ele>
   </trkpt>
   <trkpt lat="-26.3008220" lon="-51.0744060">
    <ele>934.8</ele>
   </trkpt>
   <trkpt lat="-26.3008650" lon="-51.0744220">
    <ele>935.8</ele>
   </trkpt>
   <trkpt lat="-26.3008760" lon="-51.0744300">
    <ele>936.0</ele>
   </trkpt>
   <trkpt lat="-26.3009460" lon="-51.0744610">
    <ele>937.0</ele>
   </trkpt>
   <trkpt lat="-26.3009840" lon="-51.0744800">
    <ele>938.2</ele>
   </trkpt>
   <trkpt lat="-26.3010320" lon="-51.0745040">
    <ele>939.2</ele>
   </trkpt>
   <trkpt lat="-26.3010940" lon="-51.0745070">
    <ele>940.4</ele>
   </trkpt>
   <trkpt lat="-26.3011250" lon="-51.0745270">
    <ele>941.4</ele>
   </trkpt>
   <trkpt lat="-26.3011630" lon="-51.0745450">
    <ele>942.6</ele>
   </trkpt>
   <trkpt lat="-26.3012130" lon="-51.0745540">
    <ele>943.8</ele>
   </trkpt>
   <trkpt lat="-26.3012670" lon="-51.0745910">
    <ele>945.0</ele>
   </trkpt>
   <trkpt lat="-26.3013230" lon="-51.0746080">
    <ele>946.0</ele>
   </trkpt>
   <trkpt lat="-26.3013770" lon="-51.0746180">
    <ele>947.2</ele>
   </trkpt>
   <trkpt lat="-26.3014160" lon="-51.0746340">
    <ele>948.2</ele>
   </trkpt>
   <trkpt lat="-26.3014790" lon="-51.0746710">
    <ele>949.4</ele>
   </trkpt>
   <trkpt lat="-26.3015380" lon="-51.0746910">
    <ele>950.4</ele>
   </trkpt>
   <trkpt lat="-26.3015710" lon="-51.0747060">
    <ele>948.6</ele>
   </trkpt>
   <trkpt lat="-26.3015860" lon="-51.0747060">
    <ele>944.4</ele>
   </trkpt>
   <trkpt lat="-26.3015990" lon="-51.0747060">
    <ele>938.8</ele>
   </trkpt>
   <trkpt lat="-26.3016090" lon="-51.0747080">
    <ele>933.4</ele>
   </trkpt>
   <trkpt lat="-26.3016220" lon="-51.0747050">
    <ele>927.6</ele>
   </trkpt>
   <trkpt lat="-26.3016370" lon="-51.0747060">
    <ele>925.0</ele>
   </trkpt>
   <trkpt lat="-26.3016500" lon="-51.0747160">
    <ele>928.2</ele>
   </trkpt>
   <trkpt lat="-26.3016650" lon="-51.0747190">
    <ele>932.0</ele>
   </trkpt>
   <trkpt lat="-26.3016770" lon="-51.0747330">
    <ele>938.8</ele>
   </trkpt>
   <trkpt lat="-26.3016900" lon="-51.0747370">
    <ele>946.0</ele>
   </trkpt>
   <trkpt lat="-26.3017050" lon="-51.0747370">
    <ele>949.6</ele>
   </trkpt>
   <trkpt lat="-26.3017190" lon="-51.0747360">
    <ele>951.6</ele>
   </trkpt>
   <trkpt lat="-26.3017330" lon="-51.0747390">
    <ele>952.8</ele>
   </trkpt>
   <trkpt lat="-26.3017590" lon="-51.0747410">
    <ele>953.8</ele>
   </trkpt>
   <trkpt lat="-26.3018220" lon="-51.0747690">
    <ele>954.8</ele>
   </trkpt>
   <trkpt lat="-26.3018770" lon="-51.0747840">
    <ele>956.0</ele>
   </trkpt>
   <trkpt lat="-26.3019770" lon="-51.0748080">
    <ele>957.0</ele>
   </trkpt>
   <trkpt lat="-26.3020490" lon="-51.0748230">
    <ele>958.2</ele>
   </trkpt>
   <trkpt lat="-26.3021130" lon="-51.0748330">
    <ele>959.2</ele>
   </trkpt>
   <trkpt lat="-26.3021670" lon="-51.0748400">
    <ele>960.2</ele>
   </trkpt>
   <trkpt lat="-26.3023150" lon="-51.0748700">
    <ele>961.2</ele>
   </trkpt>
   <trkpt lat="-26.3024160" lon="-51.0748800">
    <ele>962.6</ele>
   </trkpt>
   <trkpt lat="-26.3024830" lon="-51.0748810">
    <ele>963.6</ele>
   </trkpt>
   <trkpt lat="-26.3026060" lon="-51.0748830">
    <ele>964.8</ele>
   </trkpt>
   <trkpt lat="-26.3027210" lon="-51.0748620">
    <ele>965.8</ele>
   </trkpt>
   <trkpt lat="-26.3028410" lon="-51.0748210">
    <ele>967.0</ele>
   </trkpt>
   <trkpt lat="-26.3033390" lon="-51.0747400">
    <ele>965.0</ele>
   </trkpt>
   <trkpt lat="-26.3034120" lon="-51.0747340">
    <ele>963.8</ele>
   </trkpt>
   <trkpt lat="-26.3035550" lon="-51.0747310">
    <ele>962.2</ele>
   </trkpt>
   <trkpt lat="-26.3036860" lon="-51.0747330">
    <ele>961.0</ele>
   </trkpt>
   <trkpt lat="-26.3040820" lon="-51.0747860">
    <ele>961.2</ele>
   </trkpt>
   <trkpt lat="-26.3042530" lon="-51.0747840">
    <ele>962.0</ele>
   </trkpt>
   <trkpt lat="-26.3046760" lon="-51.0747610">
    <ele>961.4</ele>
   </trkpt>
   <trkpt lat="-26.3047970" lon="-51.0747710">
    <ele>960.6</ele>
   </trkpt>
   <trkpt lat="-26.3049850" lon="-51.0747960">
    <ele>959.0</ele>
   </trkpt>
   <trkpt lat="-26.3051550" lon="-51.0748300">
    <ele>958.0</ele>
   </trkpt>
   <trkpt lat="-26.3053210" lon="-51.0749310">
    <ele>958.0</ele>
   </trkpt>
   <trkpt lat="-26.3054210" lon="-51.0750460">
    <ele>958.4</ele>
   </trkpt>
   <trkpt lat="-26.3054940" lon="-51.0751850">
    <ele>958.4</ele>
   </trkpt>
   <trkpt lat="-26.3055500" lon="-51.0752690">
    <ele>957.6</ele>
   </trkpt>
   <trkpt lat="-26.3056210" lon="-51.0753490">
    <ele>956.4</ele>
   </trkpt>
   <trkpt lat="-26.3056910" lon="-51.0754190">
    <ele>955.2</ele>
   </trkpt>
   <trkpt lat="-26.3057580" lon="-51.0754800">
    <ele>953.8</ele>
   </trkpt>
   <trkpt lat="-26.3057840" lon="-51.0755040">
    <ele>953.2</ele>
   </trkpt>
   <trkpt lat="-26.3058120" lon="-51.0755230">
    <ele>952.6</ele>
   </trkpt>
   <trkpt lat="-26.3058970" lon="-51.0755570">
    <ele>951.2</ele>
   </trkpt>
   <trkpt lat="-26.3059730" lon="-51.0755410">
    <ele>950.2</ele>
   </trkpt>
   <trkpt lat="-26.3060470" lon="-51.0754930">
    <ele>948.2</ele>
   </trkpt>
   <trkpt lat="-26.3060960" lon="-51.0754380">
    <ele>946.6</ele>
   </trkpt>
   <trkpt lat="-26.3061300" lon="-51.0753880">
    <ele>945.4</ele>
   </trkpt>
   <trkpt lat="-26.3061670" lon="-51.0753250">
    <ele>944.2</ele>
   </trkpt>
   <trkpt lat="-26.3062280" lon="-51.0752470">
    <ele>943.2</ele>
   </trkpt>
   <trkpt lat="-26.3062690" lon="-51.0752160">
    <ele>942.2</ele>
   </trkpt>
   <trkpt lat="-26.3063170" lon="-51.0751930">
    <ele>941.4</ele>
   </trkpt>
   <trkpt lat="-26.3063730" lon="-51.0751770">
    <ele>939.8</ele>
   </trkpt>
   <trkpt lat="-26.3064360" lon="-51.0751670">
    <ele>938.4</ele>
   </trkpt>
   <trkpt lat="-26.3064960" lon="-51.0751660">
    <ele>937.2</ele>
   </trkpt>
   <trkpt lat="-26.3066150" lon="-51.0751810">
    <ele>935.2</ele>
   </trkpt>
   <trkpt lat="-26.3067270" lon="-51.0752000">
    <ele>933.4</ele>
   </trkpt>
   <trkpt lat="-26.3068520" lon="-51.0751980">
    <ele>931.6</ele>
   </trkpt>
   <trkpt lat="-26.3069830" lon="-51.0751750">
    <ele>930.0</ele>
   </trkpt>
   <trkpt lat="-26.3070490" lon="-51.0751630">
    <ele>928.8</ele>
   </trkpt>
   <trkpt lat="-26.3071160" lon="-51.0751540">
    <ele>927.4</ele>
   </trkpt>
   <trkpt lat="-26.3071850" lon="-51.0751500">
    <ele>925.8</ele>
   </trkpt>
   <trkpt lat="-26.3072560" lon="-51.0751470">
    <ele>924.4</ele>
   </trkpt>
   <trkpt lat="-26.3073280" lon="-51.0751490">
    <ele>923.0</ele>
   </trkpt>
   <trkpt lat="-26.3074050" lon="-51.0751540">
    <ele>921.8</ele>
   </trkpt>
   <trkpt lat="-26.3075700" lon="-51.0751740">
    <ele>920.2</ele>
   </trkpt>
   <trkpt lat="-26.3076570" lon="-51.0751820">
    <ele>919.0</ele>
   </trkpt>
   <trkpt lat="-26.3077490" lon="-51.0751840">
    <ele>917.4</ele>
   </trkpt>
   <trkpt lat="-26.3078470" lon="-51.0751740">
    <ele>915.4</ele>
   </trkpt>
   <trkpt lat="-26.3079530" lon="-51.0751590">
    <ele>914.0</ele>
   </trkpt>
   <trkpt lat="-26.3080600" lon="-51.0751470">
    <ele>912.6</ele>
   </trkpt>
   <trkpt lat="-26.3081730" lon="-51.0751380">
    <ele>911.0</ele>
   </trkpt>
   <trkpt lat="-26.3082940" lon="-51.0751320">
    <ele>908.8</ele>
   </trkpt>
   <trkpt lat="-26.3084160" lon="-51.0751310">
    <ele>906.6</ele>
   </trkpt>
   <trkpt lat="-26.3085380" lon="-51.0751390">
    <ele>904.2</ele>
   </trkpt>
   <trkpt lat="-26.3086670" lon="-51.0751520">
    <ele>902.0</ele>
   </trkpt>
   <trkpt lat="-26.3087990" lon="-51.0751630">
    <ele>900.0</ele>
   </trkpt>
   <trkpt lat="-26.3089300" lon="-51.0751810">
    <ele>898.2</ele>
   </trkpt>
   <trkpt lat="-26.3090520" lon="-51.0751920">
    <ele>896.8</ele>
   </trkpt>
   <trkpt lat="-26.3091730" lon="-51.0752050">
    <ele>895.8</ele>
   </trkpt>
   <trkpt lat="-26.3093700" lon="-51.0752050">
    <ele>894.8</ele>
   </trkpt>
   <trkpt lat="-26.3094580" lon="-51.0751850">
    <ele>894.8</ele>
   </trkpt>
   <trkpt lat="-26.3099770" lon="-51.0749790">
    <ele>894.4</ele>
   </trkpt>
   <trkpt lat="-26.3105070" lon="-51.0747440">
    <ele>893.4</ele>
   </trkpt>
   <trkpt lat="-26.3106760" lon="-51.0747030">
    <ele>892.2</ele>
   </trkpt>
   <trkpt lat="-26.3111160" lon="-51.0746030">
    <ele>891.0</ele>
   </trkpt>
   <trkpt lat="-26.3112870" lon="-51.0745620">
    <ele>891.0</ele>
   </trkpt>
   <trkpt lat="-26.3113730" lon="-51.0745140">
    <ele>891.4</ele>
   </trkpt>
   <trkpt lat="-26.3114350" lon="-51.0744480">
    <ele>892.4</ele>
   </trkpt>
   <trkpt lat="-26.3115210" lon="-51.0743360">
    <ele>893.4</ele>
   </trkpt>
   <trkpt lat="-26.3115870" lon="-51.0741900">
    <ele>894.4</ele>
   </trkpt>
   <trkpt lat="-26.3116020" lon="-51.0741380">
    <ele>894.6</ele>
   </trkpt>
   <trkpt lat="-26.3116170" lon="-51.0738160">
    <ele>895.2</ele>
   </trkpt>
   <trkpt lat="-26.3116130" lon="-51.0737310">
    <ele>895.8</ele>
   </trkpt>
   <trkpt lat="-26.3116150" lon="-51.0735890">
    <ele>897.0</ele>
   </trkpt>
   <trkpt lat="-26.3116490" lon="-51.0733990">
    <ele>898.2</ele>
   </trkpt>
   <trkpt lat="-26.3117570" lon="-51.0731690">
    <ele>898.6</ele>
   </trkpt>
   <trkpt lat="-26.3118450" lon="-51.0729490">
    <ele>899.4</ele>
   </trkpt>
   <trkpt lat="-26.3118860" lon="-51.0728350">
    <ele>900.4</ele>
   </trkpt>
   <trkpt lat="-26.3119550" lon="-51.0726570">
    <ele>901.6</ele>
   </trkpt>
   <trkpt lat="-26.3120630" lon="-51.0724250">
    <ele>902.6</ele>
   </trkpt>
   <trkpt lat="-26.3121150" lon="-51.0722070">
    <ele>902.2</ele>
   </trkpt>
   <trkpt lat="-26.3121150" lon="-51.0720800">
    <ele>901.6</ele>
   </trkpt>
   <trkpt lat="-26.3120820" lon="-51.0717940">
    <ele>900.2</ele>
   </trkpt>
   <trkpt lat="-26.3120690" lon="-51.0716440">
    <ele>899.0</ele>
   </trkpt>
   <trkpt lat="-26.3120520" lon="-51.0714220">
    <ele>898.0</ele>
   </trkpt>
   <trkpt lat="-26.3120220" lon="-51.0711380">
    <ele>896.8</ele>
   </trkpt>
   <trkpt lat="-26.3120150" lon="-51.0709470">
    <ele>897.0</ele>
   </trkpt>
   <trkpt lat="-26.3120340" lon="-51.0708120">
    <ele>898.2</ele>
   </trkpt>
   <trkpt lat="-26.3120430" lon="-51.0706590">
    <ele>899.2</ele>
   </trkpt>
   <trkpt lat="-26.3120780" lon="-51.0704530">
    <ele>899.2</ele>
   </trkpt>
   <trkpt lat="-26.3121400" lon="-51.0702850">
    <ele>898.8</ele>
   </trkpt>
   <trkpt lat="-26.3122040" lon="-51.0701850">
    <ele>898.6</ele>
   </trkpt>
   <trkpt lat="-26.3122890" lon="-51.0700990">
    <ele>898.2</ele>
   </trkpt>
   <trkpt lat="-26.3123350" lon="-51.0700630">
    <ele>897.8</ele>
   </trkpt>
   <trkpt lat="-26.3125560" lon="-51.0699710">
    <ele>897.2</ele>
   </trkpt>
   <trkpt lat="-26.3127070" lon="-51.0699430">
    <ele>898.6</ele>
   </trkpt>
   <trkpt lat="-26.3131110" lon="-51.0699300">
    <ele>898.4</ele>
   </trkpt>
   <trkpt lat="-26.3133240" lon="-51.0699010">
    <ele>897.6</ele>
   </trkpt>
   <trkpt lat="-26.3138820" lon="-51.0698850">
    <ele>897.4</ele>
   </trkpt>
   <trkpt lat="-26.3142690" lon="-51.0699190">
    <ele>898.0</ele>
   </trkpt>
   <trkpt lat="-26.3143520" lon="-51.0698990">
    <ele>898.0</ele>
   </trkpt>
   <trkpt lat="-26.3144200" lon="-51.0698540">
    <ele>898.6</ele>
   </trkpt>
   <trkpt lat="-26.3146700" lon="-51.0693700">
    <ele>896.8</ele>
   </trkpt>
   <trkpt lat="-26.3147100" lon="-51.0693000">
    <ele>895.6</ele>
   </trkpt>
   <trkpt lat="-26.3147750" lon="-51.0691660">
    <ele>894.4</ele>
   </trkpt>
   <trkpt lat="-26.3147950" lon="-51.0690940">
    <ele>894.2</ele>
   </trkpt>
   <trkpt lat="-26.3148050" lon="-51.0688200">
    <ele>893.4</ele>
   </trkpt>
   <trkpt lat="-26.3148010" lon="-51.0686220">
    <ele>891.4</ele>
   </trkpt>
   <trkpt lat="-26.3148150" lon="-51.0685310">
    <ele>890.2</ele>
   </trkpt>
   <trkpt lat="-26.3148450" lon="-51.0684500">
    <ele>889.0</ele>
   </trkpt>
   <trkpt lat="-26.3149660" lon="-51.0683230">
    <ele>887.8</ele>
   </trkpt>
   <trkpt lat="-26.3152100" lon="-51.0682300">
    <ele>886.2</ele>
   </trkpt>
   <trkpt lat="-26.3153550" lon="-51.0681740">
    <ele>885.0</ele>
   </trkpt>
   <trkpt lat="-26.3156000" lon="-51.0680800">
    <ele>885.0</ele>
   </trkpt>
   <trkpt lat="-26.3156510" lon="-51.0680240">
    <ele>886.2</ele>
   </trkpt>
   <trkpt lat="-26.3156640" lon="-51.0680000">
    <ele>887.4</ele>
   </trkpt>
   <trkpt lat="-26.3156740" lon="-51.0679780">
    <ele>888.8</ele>
   </trkpt>
   <trkpt lat="-26.3156840" lon="-51.0679540">
    <ele>890.0</ele>
   </trkpt>
   <trkpt lat="-26.3156870" lon="-51.0679090">
    <ele>891.4</ele>
   </trkpt>
   <trkpt lat="-26.3156940" lon="-51.0677960">
    <ele>892.4</ele>
   </trkpt>
   <trkpt lat="-26.3156670" lon="-51.0677210">
    <ele>893.4</ele>
   </trkpt>
   <trkpt lat="-26.3155510" lon="-51.0676520">
    <ele>894.4</ele>
   </trkpt>
   <trkpt lat="-26.3153330" lon="-51.0676750">
    <ele>893.8</ele>
   </trkpt>
   <trkpt lat="-26.3152100" lon="-51.0676790">
    <ele>893.0</ele>
   </trkpt>
   <trkpt lat="-26.3150820" lon="-51.0676560">
    <ele>891.6</ele>
   </trkpt>
   <trkpt lat="-26.3150180" lon="-51.0676380">
    <ele>890.6</ele>
   </trkpt>
   <trkpt lat="-26.3149610" lon="-51.0676130">
    <ele>890.0</ele>
   </trkpt>
   <trkpt lat="-26.3149080" lon="-51.0675840">
    <ele>889.4</ele>
   </trkpt>
   <trkpt lat="-26.3148000" lon="-51.0675150">
    <ele>888.8</ele>
   </trkpt>
   <trkpt lat="-26.3146850" lon="-51.0674570">
    <ele>888.6</ele>
   </trkpt>
   <trkpt lat="-26.3144580" lon="-51.0674020">
    <ele>888.0</ele>
   </trkpt>
   <trkpt lat="-26.3142350" lon="-51.0672840">
    <ele>888.8</ele>
   </trkpt>
   <trkpt lat="-26.3141460" lon="-51.0671900">
    <ele>890.2</ele>
   </trkpt>
   <trkpt lat="-26.3139810" lon="-51.0669720">
    <ele>891.2</ele>
   </trkpt>
   <trkpt lat="-26.3138910" lon="-51.0668120">
    <ele>892.6</ele>
   </trkpt>
   <trkpt lat="-26.3138270" lon="-51.0666860">
    <ele>893.6</ele>
   </trkpt>
   <trkpt lat="-26.3137690" lon="-51.0664660">
    <ele>894.8</ele>
   </trkpt>
   <trkpt lat="-26.3137150" lon="-51.0662860">
    <ele>895.4</ele>
   </trkpt>
   <trkpt lat="-26.3136900" lon="-51.0662170">
    <ele>895.8</ele>
   </trkpt>
   <trkpt lat="-26.3136130" lon="-51.0660110">
    <ele>896.6</ele>
   </trkpt>
   <trkpt lat="-26.3135930" lon="-51.0659460">
    <ele>897.0</ele>
   </trkpt>
   <trkpt lat="-26.3135720" lon="-51.0658570">
    <ele>898.0</ele>
   </trkpt>
   <trkpt lat="-26.3135510" lon="-51.0657330">
    <ele>898.8</ele>
   </trkpt>
   <trkpt lat="-26.3135370" lon="-51.0657030">
    <ele>899.4</ele>
   </trkpt>
   <trkpt lat="-26.3135200" lon="-51.0656410">
    <ele>900.4</ele>
   </trkpt>
   <trkpt lat="-26.3134920" lon="-51.0655300">
    <ele>901.4</ele>
   </trkpt>
   <trkpt lat="-26.3134370" lon="-51.0652930">
    <ele>902.4</ele>
   </trkpt>
   <trkpt lat="-26.3133670" lon="-51.0649450">
    <ele>903.0</ele>
   </trkpt>
   <trkpt lat="-26.3133850" lon="-51.0646980">
    <ele>903.6</ele>
   </trkpt>
   <trkpt lat="-26.3134300" lon="-51.0645460">
    <ele>904.6</ele>
   </trkpt>
   <trkpt lat="-26.3134980" lon="-51.0644060">
    <ele>905.8</ele>
   </trkpt>
   <trkpt lat="-26.3136220" lon="-51.0642480">
    <ele>906.8</ele>
   </trkpt>
   <trkpt lat="-26.3137880" lon="-51.0640810">
    <ele>908.0</ele>
   </trkpt>
   <trkpt lat="-26.3138920" lon="-51.0639960">
    <ele>909.2</ele>
   </trkpt>
   <trkpt lat="-26.3139930" lon="-51.0639180">
    <ele>910.4</ele>
   </trkpt>
   <trkpt lat="-26.3142740" lon="-51.0637870">
    <ele>911.4</ele>
   </trkpt>
   <trkpt lat="-26.3145530" lon="-51.0637380">
    <ele>913.8</ele>
   </trkpt>
   <trkpt lat="-26.3146330" lon="-51.0637030">
    <ele>915.0</ele>
   </trkpt>
   <trkpt lat="-26.3147050" lon="-51.0636470">
    <ele>913.8</ele>
   </trkpt>
   <trkpt lat="-26.3148400" lon="-51.0633450">
    <ele>915.0</ele>
   </trkpt>
   <trkpt lat="-26.3148490" lon="-51.0632490">
    <ele>916.2</ele>
   </trkpt>
   <trkpt lat="-26.3148530" lon="-51.0631970">
    <ele>917.4</ele>
   </trkpt>
   <trkpt lat="-26.3148530" lon="-51.0630550">
    <ele>916.2</ele>
   </trkpt>
   <trkpt lat="-26.3148450" lon="-51.0630190">
    <ele>914.2</ele>
   </trkpt>
   <trkpt lat="-26.3148280" lon="-51.0629570">
    <ele>916.4</ele>
   </trkpt>
   <trkpt lat="-26.3148240" lon="-51.0629310">
    <ele>917.4</ele>
   </trkpt>
   <trkpt lat="-26.3148250" lon="-51.0629090">
    <ele>918.0</ele>
   </trkpt>
   <trkpt lat="-26.3148200" lon="-51.0628930">
    <ele>919.2</ele>
   </trkpt>
   <trkpt lat="-26.3148210" lon="-51.0628900">
    <ele>918.0</ele>
   </trkpt>
   <trkpt lat="-26.3148180" lon="-51.0628860">
    <ele>916.8</ele>
   </trkpt>
   <trkpt lat="-26.3148150" lon="-51.0628840">
    <ele>915.6</ele>
   </trkpt>
   <trkpt lat="-26.3148170" lon="-51.0628900">
    <ele>916.2</ele>
   </trkpt>
   <trkpt lat="-26.3148170" lon="-51.0628920">
    <ele>916.6</ele>
   </trkpt>
   <trkpt lat="-26.3148170" lon="-51.0628930">
    <ele>916.4</ele>
   </trkpt>
   <trkpt lat="-26.3148170" lon="-51.0628950">
    <ele>914.8</ele>
   </trkpt>
   <trkpt lat="-26.3148150" lon="-51.0628940">
    <ele>914.6</ele>
   </trkpt>
   <trkpt lat="-26.3147900" lon="-51.0628350">
    <ele>913.6</ele>
   </trkpt>
   <trkpt lat="-26.3147500" lon="-51.0627680">
    <ele>915.0</ele>
   </trkpt>
   <trkpt lat="-26.3145250" lon="-51.0624090">
    <ele>913.6</ele>
   </trkpt>
   <trkpt lat="-26.3144420" lon="-51.0622670">
    <ele>912.0</ele>
   </trkpt>
   <trkpt lat="-26.3143590" lon="-51.0620980">
    <ele>910.2</ele>
   </trkpt>
   <trkpt lat="-26.3143120" lon="-51.0620160">
    <ele>908.8</ele>
   </trkpt>
   <trkpt lat="-26.3142590" lon="-51.0619430">
    <ele>907.8</ele>
   </trkpt>
   <trkpt lat="-26.3142000" lon="-51.0618790">
    <ele>907.2</ele>
   </trkpt>
   <trkpt lat="-26.3141350" lon="-51.0618250">
    <ele>906.6</ele>
   </trkpt>
   <trkpt lat="-26.3140060" lon="-51.0617380">
    <ele>905.4</ele>
   </trkpt>
   <trkpt lat="-26.3138910" lon="-51.0616490">
    <ele>905.0</ele>
   </trkpt>
   <trkpt lat="-26.3134530" lon="-51.0612800">
    <ele>904.4</ele>
   </trkpt>
   <trkpt lat="-26.3133360" lon="-51.0611870">
    <ele>902.4</ele>
   </trkpt>
   <trkpt lat="-26.3132790" lon="-51.0611290">
    <ele>901.6</ele>
   </trkpt>
   <trkpt lat="-26.3132260" lon="-51.0610590">
    <ele>901.0</ele>
   </trkpt>
   <trkpt lat="-26.3131810" lon="-51.0609730">
    <ele>900.0</ele>
   </trkpt>
   <trkpt lat="-26.3131410" lon="-51.0608740">
    <ele>898.6</ele>
   </trkpt>
   <trkpt lat="-26.3131080" lon="-51.0607630">
    <ele>897.2</ele>
   </trkpt>
   <trkpt lat="-26.3130720" lon="-51.0606470">
    <ele>896.2</ele>
   </trkpt>
   <trkpt lat="-26.3130290" lon="-51.0605320">
    <ele>894.4</ele>
   </trkpt>
   <trkpt lat="-26.3129790" lon="-51.0604210">
    <ele>892.4</ele>
   </trkpt>
   <trkpt lat="-26.3129230" lon="-51.0603150">
    <ele>889.8</ele>
   </trkpt>
   <trkpt lat="-26.3128600" lon="-51.0602200">
    <ele>888.0</ele>
   </trkpt>
   <trkpt lat="-26.3127900" lon="-51.0601360">
    <ele>886.6</ele>
   </trkpt>
   <trkpt lat="-26.3126340" lon="-51.0599990">
    <ele>885.4</ele>
   </trkpt>
   <trkpt lat="-26.3123460" lon="-51.0597400">
    <ele>884.6</ele>
   </trkpt>
   <trkpt lat="-26.3122450" lon="-51.0595990">
    <ele>884.8</ele>
   </trkpt>
   <trkpt lat="-26.3121990" lon="-51.0594510">
    <ele>885.4</ele>
   </trkpt>
   <trkpt lat="-26.3122040" lon="-51.0593010">
    <ele>886.2</ele>
   </trkpt>
   <trkpt lat="-26.3122530" lon="-51.0591400">
    <ele>886.4</ele>
   </trkpt>
   <trkpt lat="-26.3123570" lon="-51.0588850">
    <ele>885.2</ele>
   </trkpt>
   <trkpt lat="-26.3124540" lon="-51.0586330">
    <ele>884.4</ele>
   </trkpt>
   <trkpt lat="-26.3124770" lon="-51.0584770">
    <ele>884.8</ele>
   </trkpt>
   <trkpt lat="-26.3124520" lon="-51.0582570">
    <ele>886.0</ele>
   </trkpt>
   <trkpt lat="-26.3124460" lon="-51.0581930">
    <ele>886.4</ele>
   </trkpt>
   <trkpt lat="-26.3124430" lon="-51.0580810">
    <ele>887.6</ele>
   </trkpt>
   <trkpt lat="-26.3124700" lon="-51.0579820">
    <ele>889.6</ele>
   </trkpt>
   <trkpt lat="-26.3124920" lon="-51.0579430">
    <ele>891.0</ele>
   </trkpt>
   <trkpt lat="-26.3125160" lon="-51.0579060">
    <ele>892.2</ele>
   </trkpt>
   <trkpt lat="-26.3125740" lon="-51.0578350">
    <ele>893.4</ele>
   </trkpt>
   <trkpt lat="-26.3126280" lon="-51.0577640">
    <ele>894.0</ele>
   </trkpt>
   <trkpt lat="-26.3127390" lon="-51.0576080">
    <ele>894.6</ele>
   </trkpt>
   <trkpt lat="-26.3129120" lon="-51.0573630">
    <ele>893.4</ele>
   </trkpt>
   <trkpt lat="-26.3129870" lon="-51.0572580">
    <ele>892.2</ele>
   </trkpt>
   <trkpt lat="-26.3131360" lon="-51.0570770">
    <ele>891.2</ele>
   </trkpt>
   <trkpt lat="-26.3132330" lon="-51.0570230">
    <ele>891.2</ele>
   </trkpt>
   <trkpt lat="-26.3133520" lon="-51.0570060">
    <ele>891.2</ele>
   </trkpt>
   <trkpt lat="-26.3134200" lon="-51.0570140">
    <ele>891.0</ele>
   </trkpt>
   <trkpt lat="-26.3134840" lon="-51.0570370">
    <ele>890.6</ele>
   </trkpt>
   <trkpt lat="-26.3135430" lon="-51.0570700">
    <ele>890.0</ele>
   </trkpt>
   <trkpt lat="-26.3136520" lon="-51.0571380">
    <ele>888.4</ele>
   </trkpt>
   <trkpt lat="-26.3137130" lon="-51.0571740">
    <ele>887.4</ele>
   </trkpt>
   <trkpt lat="-26.3137790" lon="-51.0571990">
    <ele>886.6</ele>
   </trkpt>
   <trkpt lat="-26.3138520" lon="-51.0572130">
    <ele>885.6</ele>
   </trkpt>
   <trkpt lat="-26.3139350" lon="-51.0572110">
    <ele>884.6</ele>
   </trkpt>
   <trkpt lat="-26.3140230" lon="-51.0571900">
    <ele>883.2</ele>
   </trkpt>
   <trkpt lat="-26.3141080" lon="-51.0571500">
    <ele>881.6</ele>
   </trkpt>
   <trkpt lat="-26.3141880" lon="-51.0570990">
    <ele>879.8</ele>
   </trkpt>
   <trkpt lat="-26.3142650" lon="-51.0570420">
    <ele>878.4</ele>
   </trkpt>
   <trkpt lat="-26.3143350" lon="-51.0569820">
    <ele>877.4</ele>
   </trkpt>
   <trkpt lat="-26.3144630" lon="-51.0568500">
    <ele>876.0</ele>
   </trkpt>
   <trkpt lat="-26.3148270" lon="-51.0564510">
    <ele>877.4</ele>
   </trkpt>
   <trkpt lat="-26.3149240" lon="-51.0563240">
    <ele>878.4</ele>
   </trkpt>
   <trkpt lat="-26.3149480" lon="-51.0562900">
    <ele>879.2</ele>
   </trkpt>
   <trkpt lat="-26.3149690" lon="-51.0562550">
    <ele>880.2</ele>
   </trkpt>
   <trkpt lat="-26.3150030" lon="-51.0561940">
    <ele>881.8</ele>
   </trkpt>
   <trkpt lat="-26.3150370" lon="-51.0561290">
    <ele>883.4</ele>
   </trkpt>
   <trkpt lat="-26.3150810" lon="-51.0560260">
    <ele>884.6</ele>
   </trkpt>
   <trkpt lat="-26.3151090" lon="-51.0559210">
    <ele>886.2</ele>
   </trkpt>
   <trkpt lat="-26.3151340" lon="-51.0558190">
    <ele>887.4</ele>
   </trkpt>
   <trkpt lat="-26.3151580" lon="-51.0557280">
    <ele>888.8</ele>
   </trkpt>
   <trkpt lat="-26.3151760" lon="-51.0556340">
    <ele>889.8</ele>
   </trkpt>
   <trkpt lat="-26.3151900" lon="-51.0555430">
    <ele>891.0</ele>
   </trkpt>
   <trkpt lat="-26.3152010" lon="-51.0554170">
    <ele>892.2</ele>
   </trkpt>
   <trkpt lat="-26.3152320" lon="-51.0552170">
    <ele>893.4</ele>
   </trkpt>
   <trkpt lat="-26.3152830" lon="-51.0548800">
    <ele>892.4</ele>
   </trkpt>
   <trkpt lat="-26.3153300" lon="-51.0547310">
    <ele>891.2</ele>
   </trkpt>
   <trkpt lat="-26.3153900" lon="-51.0545770">
    <ele>889.2</ele>
   </trkpt>
   <trkpt lat="-26.3154230" lon="-51.0545040">
    <ele>888.2</ele>
   </trkpt>
   <trkpt lat="-26.3154900" lon="-51.0543570">
    <ele>887.0</ele>
   </trkpt>
   <trkpt lat="-26.3155800" lon="-51.0541350">
    <ele>885.8</ele>
   </trkpt>
   <trkpt lat="-26.3156560" lon="-51.0539390">
    <ele>885.6</ele>
   </trkpt>
   <trkpt lat="-26.3156620" lon="-51.0538010">
    <ele>885.6</ele>
   </trkpt>
   <trkpt lat="-26.3156160" lon="-51.0536550">
    <ele>885.4</ele>
   </trkpt>
   <trkpt lat="-26.3154260" lon="-51.0532610">
    <ele>884.8</ele>
   </trkpt>
   <trkpt lat="-26.3154240" lon="-51.0531080">
    <ele>884.4</ele>
   </trkpt>
   <trkpt lat="-26.3154930" lon="-51.0529450">
    <ele>883.6</ele>
   </trkpt>
   <trkpt lat="-26.3156210" lon="-51.0527930">
    <ele>881.8</ele>
   </trkpt>
   <trkpt lat="-26.3156980" lon="-51.0527220">
    <ele>880.6</ele>
   </trkpt>
   <trkpt lat="-26.3157790" lon="-51.0526540">
    <ele>879.4</ele>
   </trkpt>
   <trkpt lat="-26.3158590" lon="-51.0525890">
    <ele>878.2</ele>
   </trkpt>
   <trkpt lat="-26.3159380" lon="-51.0525270">
    <ele>876.4</ele>
   </trkpt>
   <trkpt lat="-26.3160160" lon="-51.0524630">
    <ele>874.8</ele>
   </trkpt>
   <trkpt lat="-26.3160920" lon="-51.0523970">
    <ele>873.4</ele>
   </trkpt>
   <trkpt lat="-26.3162170" lon="-51.0522570">
    <ele>871.6</ele>
   </trkpt>
   <trkpt lat="-26.3163000" lon="-51.0520940">
    <ele>870.0</ele>
   </trkpt>
   <trkpt lat="-26.3163600" lon="-51.0519040">
    <ele>868.4</ele>
   </trkpt>
   <trkpt lat="-26.3164020" lon="-51.0517090">
    <ele>866.4</ele>
   </trkpt>
   <trkpt lat="-26.3164100" lon="-51.0516070">
    <ele>865.2</ele>
   </trkpt>
   <trkpt lat="-26.3164030" lon="-51.0515060">
    <ele>864.4</ele>
   </trkpt>
   <trkpt lat="-26.3163880" lon="-51.0514080">
    <ele>863.6</ele>
   </trkpt>
   <trkpt lat="-26.3162940" lon="-51.0510190">
    <ele>865.2</ele>
   </trkpt>
   <trkpt lat="-26.3162740" lon="-51.0509580">
    <ele>866.2</ele>
   </trkpt>
   <trkpt lat="-26.3162330" lon="-51.0508350">
    <ele>867.8</ele>
   </trkpt>
   <trkpt lat="-26.3161800" lon="-51.0506620">
    <ele>869.0</ele>
   </trkpt>
   <trkpt lat="-26.3161560" lon="-51.0505530">
    <ele>870.2</ele>
   </trkpt>
   <trkpt lat="-26.3161330" lon="-51.0503080">
    <ele>871.2</ele>
   </trkpt>
   <trkpt lat="-26.3161150" lon="-51.0501820">
    <ele>870.2</ele>
   </trkpt>
   <trkpt lat="-26.3160830" lon="-51.0500590">
    <ele>869.6</ele>
   </trkpt>
   <trkpt lat="-26.3160250" lon="-51.0499370">
    <ele>868.8</ele>
   </trkpt>
   <trkpt lat="-26.3159450" lon="-51.0498350">
    <ele>868.6</ele>
   </trkpt>
   <trkpt lat="-26.3158650" lon="-51.0497610">
    <ele>868.6</ele>
   </trkpt>
   <trkpt lat="-26.3155370" lon="-51.0495550">
    <ele>867.4</ele>
   </trkpt>
   <trkpt lat="-26.3154550" lon="-51.0495060">
    <ele>866.4</ele>
   </trkpt>
   <trkpt lat="-26.3153760" lon="-51.0494430">
    <ele>865.0</ele>
   </trkpt>
   <trkpt lat="-26.3153030" lon="-51.0493700">
    <ele>863.8</ele>
   </trkpt>
   <trkpt lat="-26.3152380" lon="-51.0493000">
    <ele>862.6</ele>
   </trkpt>
   <trkpt lat="-26.3151780" lon="-51.0492350">
    <ele>861.4</ele>
   </trkpt>
   <trkpt lat="-26.3151150" lon="-51.0491810">
    <ele>860.6</ele>
   </trkpt>
   <trkpt lat="-26.3150310" lon="-51.0491600">
    <ele>859.6</ele>
   </trkpt>
   <trkpt lat="-26.3149430" lon="-51.0491490">
    <ele>858.8</ele>
   </trkpt>
   <trkpt lat="-26.3148480" lon="-51.0491420">
    <ele>857.8</ele>
   </trkpt>
   <trkpt lat="-26.3146480" lon="-51.0491030">
    <ele>855.8</ele>
   </trkpt>
   <trkpt lat="-26.3145420" lon="-51.0490670">
    <ele>854.2</ele>
   </trkpt>
   <trkpt lat="-26.3144370" lon="-51.0490150">
    <ele>852.4</ele>
   </trkpt>
   <trkpt lat="-26.3143240" lon="-51.0489660">
    <ele>850.4</ele>
   </trkpt>
   <trkpt lat="-26.3142130" lon="-51.0489040">
    <ele>848.2</ele>
   </trkpt>
   <trkpt lat="-26.3141120" lon="-51.0488210">
    <ele>846.2</ele>
   </trkpt>
   <trkpt lat="-26.3140200" lon="-51.0487220">
    <ele>843.8</ele>
   </trkpt>
   <trkpt lat="-26.3139380" lon="-51.0486150">
    <ele>840.8</ele>
   </trkpt>
   <trkpt lat="-26.3138730" lon="-51.0484990">
    <ele>838.4</ele>
   </trkpt>
   <trkpt lat="-26.3138330" lon="-51.0483760">
    <ele>836.6</ele>
   </trkpt>
   <trkpt lat="-26.3138080" lon="-51.0482550">
    <ele>835.6</ele>
   </trkpt>
   <trkpt lat="-26.3137930" lon="-51.0481350">
    <ele>835.2</ele>
   </trkpt>
   <trkpt lat="-26.3137890" lon="-51.0480180">
    <ele>835.0</ele>
   </trkpt>
   <trkpt lat="-26.3137660" lon="-51.0478010">
    <ele>835.2</ele>
   </trkpt>
   <trkpt lat="-26.3136730" lon="-51.0476240">
    <ele>835.6</ele>
   </trkpt>
   <trkpt lat="-26.3134830" lon="-51.0474090">
    <ele>835.2</ele>
   </trkpt>
   <trkpt lat="-26.3134020" lon="-51.0472170">
    <ele>834.2</ele>
   </trkpt>
   <trkpt lat="-26.3133590" lon="-51.0470160">
    <ele>833.6</ele>
   </trkpt>
   <trkpt lat="-26.3133410" lon="-51.0468060">
    <ele>833.0</ele>
   </trkpt>
   <trkpt lat="-26.3133260" lon="-51.0466980">
    <ele>832.8</ele>
   </trkpt>
   <trkpt lat="-26.3132570" lon="-51.0464890">
    <ele>831.6</ele>
   </trkpt>
   <trkpt lat="-26.3131650" lon="-51.0462850">
    <ele>830.0</ele>
   </trkpt>
   <trkpt lat="-26.3131290" lon="-51.0461800">
    <ele>829.4</ele>
   </trkpt>
   <trkpt lat="-26.3130910" lon="-51.0459630">
    <ele>828.6</ele>
   </trkpt>
   <trkpt lat="-26.3130530" lon="-51.0456190">
    <ele>828.4</ele>
   </trkpt>
   <trkpt lat="-26.3129360" lon="-51.0452710">
    <ele>826.6</ele>
   </trkpt>
   <trkpt lat="-26.3128920" lon="-51.0451510">
    <ele>824.8</ele>
   </trkpt>
   <trkpt lat="-26.3128450" lon="-51.0450310">
    <ele>822.8</ele>
   </trkpt>
   <trkpt lat="-26.3128010" lon="-51.0449170">
    <ele>820.8</ele>
   </trkpt>
   <trkpt lat="-26.3127000" lon="-51.0447010">
    <ele>818.6</ele>
   </trkpt>
   <trkpt lat="-26.3126470" lon="-51.0445900">
    <ele>817.4</ele>
   </trkpt>
   <trkpt lat="-26.3126020" lon="-51.0444690">
    <ele>816.2</ele>
   </trkpt>
   <trkpt lat="-26.3125710" lon="-51.0443430">
    <ele>814.4</ele>
   </trkpt>
   <trkpt lat="-26.3125640" lon="-51.0442110">
    <ele>812.6</ele>
   </trkpt>
   <trkpt lat="-26.3125690" lon="-51.0440820">
    <ele>810.8</ele>
   </trkpt>
   <trkpt lat="-26.3125940" lon="-51.0439520">
    <ele>809.4</ele>
   </trkpt>
   <trkpt lat="-26.3126220" lon="-51.0438300">
    <ele>807.8</ele>
   </trkpt>
   <trkpt lat="-26.3126530" lon="-51.0437120">
    <ele>806.2</ele>
   </trkpt>
   <trkpt lat="-26.3126750" lon="-51.0436000">
    <ele>805.4</ele>
   </trkpt>
   <trkpt lat="-26.3126780" lon="-51.0434940">
    <ele>804.6</ele>
   </trkpt>
   <trkpt lat="-26.3126510" lon="-51.0433960">
    <ele>804.0</ele>
   </trkpt>
   <trkpt lat="-26.3126060" lon="-51.0433140">
    <ele>803.4</ele>
   </trkpt>
   <trkpt lat="-26.3125460" lon="-51.0432420">
    <ele>803.2</ele>
   </trkpt>
   <trkpt lat="-26.3124060" lon="-51.0431370">
    <ele>803.0</ele>
   </trkpt>
   <trkpt lat="-26.3122400" lon="-51.0431100">
    <ele>802.6</ele>
   </trkpt>
   <trkpt lat="-26.3121500" lon="-51.0431120">
    <ele>802.4</ele>
   </trkpt>
   <trkpt lat="-26.3119550" lon="-51.0431070">
    <ele>800.6</ele>
   </trkpt>
   <trkpt lat="-26.3118460" lon="-51.0431000">
    <ele>799.0</ele>
   </trkpt>
   <trkpt lat="-26.3117330" lon="-51.0430840">
    <ele>797.6</ele>
   </trkpt>
   <trkpt lat="-26.3116160" lon="-51.0430660">
    <ele>796.4</ele>
   </trkpt>
   <trkpt lat="-26.3114950" lon="-51.0430440">
    <ele>795.2</ele>
   </trkpt>
   <trkpt lat="-26.3113710" lon="-51.0430200">
    <ele>793.8</ele>
   </trkpt>
   <trkpt lat="-26.3112490" lon="-51.0429960">
    <ele>791.8</ele>
   </trkpt>
   <trkpt lat="-26.3111270" lon="-51.0429760">
    <ele>789.4</ele>
   </trkpt>
   <trkpt lat="-26.3110070" lon="-51.0429560">
    <ele>787.6</ele>
   </trkpt>
   <trkpt lat="-26.3108890" lon="-51.0429420">
    <ele>786.0</ele>
   </trkpt>
   <trkpt lat="-26.3107720" lon="-51.0429490">
    <ele>784.8</ele>
   </trkpt>
   <trkpt lat="-26.3106620" lon="-51.0429620">
    <ele>783.8</ele>
   </trkpt>
   <trkpt lat="-26.3104610" lon="-51.0430330">
    <ele>782.6</ele>
   </trkpt>
   <trkpt lat="-26.3101730" lon="-51.0431700">
    <ele>782.0</ele>
   </trkpt>
   <trkpt lat="-26.3099620" lon="-51.0432100">
    <ele>781.6</ele>
   </trkpt>
   <trkpt lat="-26.3098540" lon="-51.0431990">
    <ele>781.2</ele>
   </trkpt>
   <trkpt lat="-26.3097470" lon="-51.0431730">
    <ele>780.8</ele>
   </trkpt>
   <trkpt lat="-26.3096430" lon="-51.0431320">
    <ele>780.2</ele>
   </trkpt>
   <trkpt lat="-26.3095450" lon="-51.0430760">
    <ele>779.8</ele>
   </trkpt>
   <trkpt lat="-26.3094590" lon="-51.0430070">
    <ele>779.2</ele>
   </trkpt>
   <trkpt lat="-26.3093880" lon="-51.0429220">
    <ele>778.6</ele>
   </trkpt>
   <trkpt lat="-26.3093330" lon="-51.0428230">
    <ele>778.0</ele>
   </trkpt>
   <trkpt lat="-26.3092910" lon="-51.0427160">
    <ele>777.6</ele>
   </trkpt>
   <trkpt lat="-26.3092410" lon="-51.0424830">
    <ele>776.4</ele>
   </trkpt>
   <trkpt lat="-26.3092020" lon="-51.0422390">
    <ele>775.2</ele>
   </trkpt>
   <trkpt lat="-26.3091830" lon="-51.0421200">
    <ele>774.0</ele>
   </trkpt>
   <trkpt lat="-26.3091630" lon="-51.0420070">
    <ele>772.4</ele>
   </trkpt>
   <trkpt lat="-26.3091420" lon="-51.0419010">
    <ele>770.6</ele>
   </trkpt>
   <trkpt lat="-26.3091130" lon="-51.0418070">
    <ele>769.2</ele>
   </trkpt>
   <trkpt lat="-26.3090100" lon="-51.0416540">
    <ele>767.8</ele>
   </trkpt>
   <trkpt lat="-26.3088530" lon="-51.0415670">
    <ele>767.0</ele>
   </trkpt>
   <trkpt lat="-26.3087680" lon="-51.0415430">
    <ele>766.6</ele>
   </trkpt>
   <trkpt lat="-26.3085260" lon="-51.0414800">
    <ele>765.6</ele>
   </trkpt>
   <trkpt lat="-26.3079970" lon="-51.0413170">
    <ele>766.0</ele>
   </trkpt>
   <trkpt lat="-26.3077590" lon="-51.0412010">
    <ele>767.0</ele>
   </trkpt>
   <trkpt lat="-26.3075960" lon="-51.0410990">
    <ele>768.0</ele>
   </trkpt>
   <trkpt lat="-26.3074130" lon="-51.0409790">
    <ele>768.2</ele>
   </trkpt>
   <trkpt lat="-26.3071210" lon="-51.0408020">
    <ele>767.6</ele>
   </trkpt>
   <trkpt lat="-26.3069770" lon="-51.0407060">
    <ele>766.8</ele>
   </trkpt>
   <trkpt lat="-26.3065070" lon="-51.0403980">
    <ele>766.4</ele>
   </trkpt>
   <trkpt lat="-26.3060200" lon="-51.0400310">
    <ele>766.2</ele>
   </trkpt>
   <trkpt lat="-26.3056450" lon="-51.0397170">
    <ele>766.0</ele>
   </trkpt>
   <trkpt lat="-26.3055430" lon="-51.0396300">
    <ele>765.8</ele>
   </trkpt>
   <trkpt lat="-26.3052120" lon="-51.0393780">
    <ele>764.8</ele>
   </trkpt>
   <trkpt lat="-26.3049180" lon="-51.0391320">
    <ele>763.2</ele>
   </trkpt>
   <trkpt lat="-26.3045570" lon="-51.0386130">
    <ele>762.4</ele>
   </trkpt>
   <trkpt lat="-26.3043310" lon="-51.0382050">
    <ele>762.2</ele>
   </trkpt>
   <trkpt lat="-26.3041350" lon="-51.0378380">
    <ele>762.4</ele>
   </trkpt>
   <trkpt lat="-26.3038410" lon="-51.0372930">
    <ele>762.0</ele>
   </trkpt>
   <trkpt lat="-26.3037830" lon="-51.0372130">
    <ele>762.6</ele>
   </trkpt>
   <trkpt lat="-26.3037110" lon="-51.0371680">
    <ele>763.4</ele>
   </trkpt>
   <trkpt lat="-26.3036330" lon="-51.0371510">
    <ele>764.0</ele>
   </trkpt>
   <trkpt lat="-26.3035500" lon="-51.0371430">
    <ele>764.6</ele>
   </trkpt>
   <trkpt lat="-26.3035030" lon="-51.0371430">
    <ele>764.8</ele>
   </trkpt>
   <trkpt lat="-26.3034070" lon="-51.0371810">
    <ele>764.8</ele>
   </trkpt>
   <trkpt lat="-26.3029350" lon="-51.0375220">
    <ele>764.2</ele>
   </trkpt>
   <trkpt lat="-26.3024700" lon="-51.0378540">
    <ele>764.2</ele>
   </trkpt>
   <trkpt lat="-26.3020760" lon="-51.0381230">
    <ele>764.2</ele>
   </trkpt>
   <trkpt lat="-26.3016430" lon="-51.0384090">
    <ele>763.4</ele>
   </trkpt>
   <trkpt lat="-26.3011320" lon="-51.0387410">
    <ele>763.0</ele>
   </trkpt>
   <trkpt lat="-26.3006820" lon="-51.0390190">
    <ele>762.2</ele>
   </trkpt>
   <trkpt lat="-26.3001810" lon="-51.0393660">
    <ele>762.8</ele>
   </trkpt>
   <trkpt lat="-26.2996840" lon="-51.0397160">
    <ele>763.0</ele>
   </trkpt>
   <trkpt lat="-26.2992510" lon="-51.0401460">
    <ele>762.2</ele>
   </trkpt>
   <trkpt lat="-26.2989080" lon="-51.0406650">
    <ele>762.2</ele>
   </trkpt>
   <trkpt lat="-26.2988310" lon="-51.0407990">
    <ele>762.2</ele>
   </trkpt>
   <trkpt lat="-26.2986370" lon="-51.0413910">
    <ele>762.6</ele>
   </trkpt>
   <trkpt lat="-26.2984270" lon="-51.0419930">
    <ele>762.0</ele>
   </trkpt>
   <trkpt lat="-26.2980730" lon="-51.0424810">
    <ele>762.8</ele>
   </trkpt>
   <trkpt lat="-26.2975830" lon="-51.0428450">
    <ele>763.2</ele>
   </trkpt>
   <trkpt lat="-26.2974510" lon="-51.0429340">
    <ele>763.2</ele>
   </trkpt>
   <trkpt lat="-26.2971540" lon="-51.0431980">
    <ele>763.2</ele>
   </trkpt>
   <trkpt lat="-26.2970200" lon="-51.0434050">
    <ele>762.8</ele>
   </trkpt>
   <trkpt lat="-26.2969180" lon="-51.0436370">
    <ele>762.2</ele>
   </trkpt>
   <trkpt lat="-26.2968230" lon="-51.0438570">
    <ele>762.2</ele>
   </trkpt>
   <trkpt lat="-26.2967850" lon="-51.0440110">
    <ele>762.4</ele>
   </trkpt>
   <trkpt lat="-26.2968030" lon="-51.0445700">
    <ele>762.4</ele>
   </trkpt>
   <trkpt lat="-26.2968850" lon="-51.0452120">
    <ele>762.4</ele>
   </trkpt>
   <trkpt lat="-26.2968560" lon="-51.0456160">
    <ele>762.6</ele>
   </trkpt>
   <trkpt lat="-26.2966010" lon="-51.0461470">
    <ele>763.2</ele>
   </trkpt>
   <trkpt lat="-26.2964340" lon="-51.0463230">
    <ele>763.0</ele>
   </trkpt>
   <trkpt lat="-26.2962370" lon="-51.0464420">
    <ele>762.8</ele>
   </trkpt>
   <trkpt lat="-26.2959520" lon="-51.0465520">
    <ele>763.2</ele>
   </trkpt>
   <trkpt lat="-26.2953810" lon="-51.0465480">
    <ele>764.2</ele>
   </trkpt>
   <trkpt lat="-26.2949210" lon="-51.0463180">
    <ele>765.4</ele>
   </trkpt>
   <trkpt lat="-26.2943840" lon="-51.0459840">
    <ele>765.0</ele>
   </trkpt>
   <trkpt lat="-26.2937760" lon="-51.0459040">
    <ele>766.0</ele>
   </trkpt>
   <trkpt lat="-26.2934590" lon="-51.0459330">
    <ele>765.4</ele>
   </trkpt>
   <trkpt lat="-26.2929050" lon="-51.0458400">
    <ele>765.6</ele>
   </trkpt>
   <trkpt lat="-26.2923580" lon="-51.0456330">
    <ele>764.4</ele>
   </trkpt>
   <trkpt lat="-26.2918320" lon="-51.0453800">
    <ele>765.0</ele>
   </trkpt>
   <trkpt lat="-26.2913420" lon="-51.0452420">
    <ele>766.6</ele>
   </trkpt>
   <trkpt lat="-26.2912090" lon="-51.0452480">
    <ele>767.6</ele>
   </trkpt>
   <trkpt lat="-26.2910260" lon="-51.0452750">
    <ele>768.8</ele>
   </trkpt>
   <trkpt lat="-26.2908560" lon="-51.0453110">
    <ele>770.2</ele>
   </trkpt>
   <trkpt lat="-26.2905930" lon="-51.0453610">
    <ele>771.2</ele>
   </trkpt>
   <trkpt lat="-26.2900440" lon="-51.0454740">
    <ele>772.0</ele>
   </trkpt>
   <trkpt lat="-26.2894700" lon="-51.0454290">
    <ele>771.8</ele>
   </trkpt>
   <trkpt lat="-26.2893350" lon="-51.0453830">
    <ele>771.4</ele>
   </trkpt>
   <trkpt lat="-26.2891380" lon="-51.0452910">
    <ele>770.2</ele>
   </trkpt>
   <trkpt lat="-26.2888050" lon="-51.0451170">
    <ele>769.0</ele>
   </trkpt>
   <trkpt lat="-26.2885170" lon="-51.0450000">
    <ele>767.8</ele>
   </trkpt>
   <trkpt lat="-26.2882010" lon="-51.0449600">
    <ele>766.6</ele>
   </trkpt>
   <trkpt lat="-26.2878700" lon="-51.0450270">
    <ele>765.6</ele>
   </trkpt>
   <trkpt lat="-26.2875620" lon="-51.0451950">
    <ele>764.2</ele>
   </trkpt>
   <trkpt lat="-26.2874100" lon="-51.0452960">
    <ele>763.0</ele>
   </trkpt>
   <trkpt lat="-26.2870170" lon="-51.0455060">
    <ele>761.8</ele>
   </trkpt>
   <trkpt lat="-26.2867770" lon="-51.0455460">
    <ele>761.8</ele>
   </trkpt>
   <trkpt lat="-26.2862430" lon="-51.0454340">
    <ele>762.4</ele>
   </trkpt>
   <trkpt lat="-26.2857480" lon="-51.0451270">
    <ele>761.8</ele>
   </trkpt>
   <trkpt lat="-26.2855130" lon="-51.0450040">
    <ele>762.6</ele>
   </trkpt>
   <trkpt lat="-26.2853250" lon="-51.0449450">
    <ele>763.0</ele>
   </trkpt>
   <trkpt lat="-26.2849170" lon="-51.0449200">
    <ele>763.6</ele>
   </trkpt>
   <trkpt lat="-26.2844590" lon="-51.0450600">
    <ele>764.2</ele>
   </trkpt>
   <trkpt lat="-26.2842660" lon="-51.0451810">
    <ele>764.8</ele>
   </trkpt>
   <trkpt lat="-26.2840000" lon="-51.0454630">
    <ele>765.4</ele>
   </trkpt>
   <trkpt lat="-26.2837250" lon="-51.0459300">
    <ele>766.2</ele>
   </trkpt>
   <trkpt lat="-26.2836730" lon="-51.0460860">
    <ele>766.6</ele>
   </trkpt>
   <trkpt lat="-26.2836110" lon="-51.0463150">
    <ele>767.0</ele>
   </trkpt>
   <trkpt lat="-26.2835760" lon="-51.0465520">
    <ele>767.8</ele>
   </trkpt>
   <trkpt lat="-26.2835690" lon="-51.0470250">
    <ele>769.2</ele>
   </trkpt>
   <trkpt lat="-26.2835970" lon="-51.0472450">
    <ele>769.8</ele>
   </trkpt>
   <trkpt lat="-26.2836070" lon="-51.0473810">
    <ele>770.2</ele>
   </trkpt>
   <trkpt lat="-26.2836610" lon="-51.0476860">
    <ele>771.4</ele>
   </trkpt>
   <trkpt lat="-26.2836570" lon="-51.0480670">
    <ele>772.4</ele>
   </trkpt>
   <trkpt lat="-26.2836230" lon="-51.0482640">
    <ele>772.8</ele>
   </trkpt>
   <trkpt lat="-26.2833710" lon="-51.0488290">
    <ele>772.6</ele>
   </trkpt>
   <trkpt lat="-26.2832890" lon="-51.0489470">
    <ele>772.6</ele>
   </trkpt>
   <trkpt lat="-26.2828680" lon="-51.0492680">
    <ele>771.0</ele>
   </trkpt>
   <trkpt lat="-26.2826340" lon="-51.0493440">
    <ele>769.8</ele>
   </trkpt>
   <trkpt lat="-26.2823820" lon="-51.0493940">
    <ele>768.2</ele>
   </trkpt>
   <trkpt lat="-26.2821140" lon="-51.0494220">
    <ele>767.0</ele>
   </trkpt>
   <trkpt lat="-26.2818410" lon="-51.0494580">
    <ele>765.4</ele>
   </trkpt>
   <trkpt lat="-26.2817500" lon="-51.0494700">
    <ele>764.2</ele>
   </trkpt>
   <trkpt lat="-26.2816590" lon="-51.0494740">
    <ele>763.6</ele>
   </trkpt>
   <trkpt lat="-26.2815730" lon="-51.0494500">
    <ele>763.0</ele>
   </trkpt>
   <trkpt lat="-26.2815010" lon="-51.0494110">
    <ele>762.6</ele>
   </trkpt>
   <trkpt lat="-26.2813940" lon="-51.0493420">
    <ele>762.2</ele>
   </trkpt>
   <trkpt lat="-26.2812770" lon="-51.0493280">
    <ele>762.2</ele>
   </trkpt>
   <trkpt lat="-26.2811340" lon="-51.0493870">
    <ele>762.4</ele>
   </trkpt>
   <trkpt lat="-26.2809340" lon="-51.0495680">
    <ele>761.8</ele>
   </trkpt>
   <trkpt lat="-26.2805230" lon="-51.0500020">
    <ele>761.6</ele>
   </trkpt>
   <trkpt lat="-26.2803670" lon="-51.0501680">
    <ele>762.8</ele>
   </trkpt>
   <trkpt lat="-26.2801870" lon="-51.0503710">
    <ele>763.8</ele>
   </trkpt>
   <trkpt lat="-26.2801500" lon="-51.0504230">
    <ele>764.0</ele>
   </trkpt>
   <trkpt lat="-26.2798130" lon="-51.0508920">
    <ele>763.0</ele>
   </trkpt>
   <trkpt lat="-26.2797740" lon="-51.0509490">
    <ele>763.0</ele>
   </trkpt>
   <trkpt lat="-26.2795260" lon="-51.0513490">
    <ele>763.2</ele>
   </trkpt>
   <trkpt lat="-26.2792000" lon="-51.0518410">
    <ele>762.8</ele>
   </trkpt>
   <trkpt lat="-26.2790090" lon="-51.0520920">
    <ele>761.8</ele>
   </trkpt>
   <trkpt lat="-26.2786010" lon="-51.0525200">
    <ele>761.6</ele>
   </trkpt>
   <trkpt lat="-26.2781480" lon="-51.0528670">
    <ele>760.8</ele>
   </trkpt>
   <trkpt lat="-26.2776310" lon="-51.0531850">
    <ele>760.8</ele>
   </trkpt>
   <trkpt lat="-26.2775040" lon="-51.0532460">
    <ele>760.6</ele>
   </trkpt>
   <trkpt lat="-26.2769380" lon="-51.0534690">
    <ele>761.4</ele>
   </trkpt>
   <trkpt lat="-26.2766310" lon="-51.0535710">
    <ele>761.6</ele>
   </trkpt>
   <trkpt lat="-26.2765060" lon="-51.0536030">
    <ele>761.8</ele>
   </trkpt>
   <trkpt lat="-26.2759690" lon="-51.0537790">
    <ele>761.6</ele>
   </trkpt>
   <trkpt lat="-26.2758470" lon="-51.0538120">
    <ele>763.0</ele>
   </trkpt>
   <trkpt lat="-26.2757260" lon="-51.0538460">
    <ele>764.2</ele>
   </trkpt>
   <trkpt lat="-26.2751690" lon="-51.0539670">
    <ele>763.2</ele>
   </trkpt>
   <trkpt lat="-26.2746410" lon="-51.0541710">
    <ele>764.4</ele>
   </trkpt>
   <trkpt lat="-26.2741110" lon="-51.0543240">
    <ele>764.0</ele>
   </trkpt>
   <trkpt lat="-26.2740170" lon="-51.0543490">
    <ele>764.2</ele>
   </trkpt>
   <trkpt lat="-26.2734750" lon="-51.0545140">
    <ele>764.8</ele>
   </trkpt>
   <trkpt lat="-26.2730690" lon="-51.0546510">
    <ele>765.0</ele>
   </trkpt>
   <trkpt lat="-26.2725420" lon="-51.0547880">
    <ele>765.6</ele>
   </trkpt>
   <trkpt lat="-26.2724140" lon="-51.0548260">
    <ele>767.0</ele>
   </trkpt>
   <trkpt lat="-26.2721470" lon="-51.0549190">
    <ele>765.4</ele>
   </trkpt>
   <trkpt lat="-26.2720760" lon="-51.0549460">
    <ele>763.8</ele>
   </trkpt>
   <trkpt lat="-26.2719300" lon="-51.0549880">
    <ele>762.2</ele>
   </trkpt>
   <trkpt lat="-26.2716490" lon="-51.0550870">
    <ele>761.2</ele>
   </trkpt>
   <trkpt lat="-26.2711880" lon="-51.0552810">
    <ele>762.2</ele>
   </trkpt>
   <trkpt lat="-26.2711410" lon="-51.0553030">
    <ele>762.6</ele>
   </trkpt>
   <trkpt lat="-26.2710530" lon="-51.0553390">
    <ele>763.4</ele>
   </trkpt>
   <trkpt lat="-26.2707950" lon="-51.0554570">
    <ele>764.6</ele>
   </trkpt>
   <trkpt lat="-26.2705720" lon="-51.0555880">
    <ele>765.8</ele>
   </trkpt>
   <trkpt lat="-26.2700840" lon="-51.0559280">
    <ele>766.6</ele>
   </trkpt>
   <trkpt lat="-26.2698100" lon="-51.0561300">
    <ele>766.6</ele>
   </trkpt>
   <trkpt lat="-26.2693930" lon="-51.0565160">
    <ele>765.4</ele>
   </trkpt>
   <trkpt lat="-26.2692120" lon="-51.0566950">
    <ele>764.6</ele>
   </trkpt>
   <trkpt lat="-26.2689860" lon="-51.0569270">
    <ele>763.6</ele>
   </trkpt>
   <trkpt lat="-26.2685560" lon="-51.0573840">
    <ele>763.0</ele>
   </trkpt>
   <trkpt lat="-26.2682470" lon="-51.0577190">
    <ele>762.6</ele>
   </trkpt>
   <trkpt lat="-26.2679490" lon="-51.0580270">
    <ele>761.6</ele>
   </trkpt>
   <trkpt lat="-26.2678840" lon="-51.0580960">
    <ele>761.4</ele>
   </trkpt>
   <trkpt lat="-26.2676010" lon="-51.0583680">
    <ele>760.2</ele>
   </trkpt>
   <trkpt lat="-26.2675180" lon="-51.0584240">
    <ele>759.8</ele>
   </trkpt>
   <trkpt lat="-26.2672520" lon="-51.0585260">
    <ele>759.4</ele>
   </trkpt>
   <trkpt lat="-26.2671860" lon="-51.0585860">
    <ele>759.2</ele>
   </trkpt>
   <trkpt lat="-26.2671320" lon="-51.0586600">
    <ele>759.0</ele>
   </trkpt>
   <trkpt lat="-26.2669950" lon="-51.0589990">
    <ele>758.8</ele>
   </trkpt>
   <trkpt lat="-26.2666340" lon="-51.0593720">
    <ele>760.2</ele>
   </trkpt>
   <trkpt lat="-26.2662380" lon="-51.0597870">
    <ele>760.8</ele>
   </trkpt>
   <trkpt lat="-26.2659040" lon="-51.0601390">
    <ele>761.4</ele>
   </trkpt>
   <trkpt lat="-26.2654750" lon="-51.0605920">
    <ele>761.8</ele>
   </trkpt>
   <trkpt lat="-26.2651780" lon="-51.0608670">
    <ele>761.2</ele>
   </trkpt>
   <trkpt lat="-26.2647620" lon="-51.0613090">
    <ele>761.6</ele>
   </trkpt>
   <trkpt lat="-26.2643740" lon="-51.0617340">
    <ele>761.2</ele>
   </trkpt>
   <trkpt lat="-26.2642590" lon="-51.0618810">
    <ele>761.4</ele>
   </trkpt>
   <trkpt lat="-26.2641730" lon="-51.0619720">
    <ele>761.4</ele>
   </trkpt>
   <trkpt lat="-26.2637610" lon="-51.0624220">
    <ele>761.8</ele>
   </trkpt>
   <trkpt lat="-26.2634830" lon="-51.0627320">
    <ele>762.2</ele>
   </trkpt>
   <trkpt lat="-26.2634330" lon="-51.0627790">
    <ele>762.4</ele>
   </trkpt>
   <trkpt lat="-26.2629950" lon="-51.0632360">
    <ele>762.4</ele>
   </trkpt>
   <trkpt lat="-26.2625280" lon="-51.0636380">
    <ele>762.0</ele>
   </trkpt>
   <trkpt lat="-26.2620350" lon="-51.0639850">
    <ele>762.8</ele>
   </trkpt>
   <trkpt lat="-26.2615300" lon="-51.0643190">
    <ele>763.2</ele>
   </trkpt>
   <trkpt lat="-26.2610640" lon="-51.0646300">
    <ele>762.8</ele>
   </trkpt>
   <trkpt lat="-26.2607410" lon="-51.0648500">
    <ele>763.4</ele>
   </trkpt>
   <trkpt lat="-26.2602720" lon="-51.0651740">
    <ele>764.0</ele>
   </trkpt>
   <trkpt lat="-26.2597720" lon="-51.0654810">
    <ele>763.6</ele>
   </trkpt>
   <trkpt lat="-26.2593340" lon="-51.0657790">
    <ele>762.4</ele>
   </trkpt>
   <trkpt lat="-26.2588160" lon="-51.0661390">
    <ele>762.2</ele>
   </trkpt>
   <trkpt lat="-26.2582840" lon="-51.0664840">
    <ele>762.2</ele>
   </trkpt>
   <trkpt lat="-26.2577560" lon="-51.0668290">
    <ele>762.4</ele>
   </trkpt>
   <trkpt lat="-26.2572840" lon="-51.0671630">
    <ele>763.0</ele>
   </trkpt>
   <trkpt lat="-26.2568240" lon="-51.0674900">
    <ele>762.4</ele>
   </trkpt>
   <trkpt lat="-26.2566230" lon="-51.0676020">
    <ele>762.2</ele>
   </trkpt>
   <trkpt lat="-26.2564700" lon="-51.0676110">
    <ele>762.2</ele>
   </trkpt>
   <trkpt lat="-26.2563210" lon="-51.0676110">
    <ele>762.2</ele>
   </trkpt>
   <trkpt lat="-26.2561980" lon="-51.0676890">
    <ele>762.2</ele>
   </trkpt>
   <trkpt lat="-26.2561190" lon="-51.0678360">
    <ele>762.2</ele>
   </trkpt>
   <trkpt lat="-26.2560300" lon="-51.0679790">
    <ele>762.2</ele>
   </trkpt>
   <trkpt lat="-26.2559130" lon="-51.0680880">
    <ele>762.4</ele>
   </trkpt>
   <trkpt lat="-26.2554530" lon="-51.0684130">
    <ele>761.6</ele>
   </trkpt>
   <trkpt lat="-26.2549740" lon="-51.0687270">
    <ele>762.0</ele>
   </trkpt>
   <trkpt lat="-26.2544930" lon="-51.0690510">
    <ele>761.8</ele>
   </trkpt>
   <trkpt lat="-26.2540230" lon="-51.0693730">
    <ele>761.6</ele>
   </trkpt>
   <trkpt lat="-26.2538020" lon="-51.0695240">
    <ele>761.4</ele>
   </trkpt>
   <trkpt lat="-26.2533140" lon="-51.0698800">
    <ele>760.8</ele>
   </trkpt>
   <trkpt lat="-26.2528340" lon="-51.0701900">
    <ele>760.6</ele>
   </trkpt>
   <trkpt lat="-26.2523520" lon="-51.0705100">
    <ele>760.6</ele>
   </trkpt>
   <trkpt lat="-26.2518730" lon="-51.0708450">
    <ele>760.8</ele>
   </trkpt>
   <trkpt lat="-26.2514040" lon="-51.0711620">
    <ele>760.4</ele>
   </trkpt>
   <trkpt lat="-26.2513400" lon="-51.0712040">
    <ele>760.2</ele>
   </trkpt>
   <trkpt lat="-26.2508180" lon="-51.0715550">
    <ele>761.0</ele>
   </trkpt>
   <trkpt lat="-26.2502980" lon="-51.0718930">
    <ele>761.0</ele>
   </trkpt>
   <trkpt lat="-26.2501640" lon="-51.0719700">
    <ele>761.0</ele>
   </trkpt>
   <trkpt lat="-26.2498000" lon="-51.0720660">
    <ele>760.8</ele>
   </trkpt>
   <trkpt lat="-26.2495860" lon="-51.0720800">
    <ele>761.4</ele>
   </trkpt>
   <trkpt lat="-26.2492340" lon="-51.0721040">
    <ele>762.4</ele>
   </trkpt>
   <trkpt lat="-26.2490280" lon="-51.0721260">
    <ele>763.6</ele>
   </trkpt>
   <trkpt lat="-26.2487720" lon="-51.0721470">
    <ele>764.6</ele>
   </trkpt>
   <trkpt lat="-26.2481700" lon="-51.0722110">
    <ele>764.4</ele>
   </trkpt>
   <trkpt lat="-26.2480310" lon="-51.0722220">
    <ele>763.6</ele>
   </trkpt>
   <trkpt lat="-26.2475520" lon="-51.0722620">
    <ele>762.8</ele>
   </trkpt>
   <trkpt lat="-26.2474200" lon="-51.0722830">
    <ele>762.2</ele>
   </trkpt>
   <trkpt lat="-26.2468730" lon="-51.0724470">
    <ele>763.2</ele>
   </trkpt>
   <trkpt lat="-26.2468150" lon="-51.0724700">
    <ele>763.4</ele>
   </trkpt>
   <trkpt lat="-26.2462590" lon="-51.0726630">
    <ele>764.2</ele>
   </trkpt>
   <trkpt lat="-26.2460970" lon="-51.0727220">
    <ele>764.4</ele>
   </trkpt>
   <trkpt lat="-26.2455520" lon="-51.0729480">
    <ele>763.8</ele>
   </trkpt>
   <trkpt lat="-26.2454260" lon="-51.0730100">
    <ele>763.4</ele>
   </trkpt>
   <trkpt lat="-26.2449510" lon="-51.0732140">
    <ele>763.0</ele>
   </trkpt>
   <trkpt lat="-26.2447080" lon="-51.0733070">
    <ele>762.4</ele>
   </trkpt>
   <trkpt lat="-26.2441380" lon="-51.0735210">
    <ele>762.0</ele>
   </trkpt>
   <trkpt lat="-26.2436050" lon="-51.0738000">
    <ele>761.6</ele>
   </trkpt>
   <trkpt lat="-26.2430760" lon="-51.0740680">
    <ele>762.4</ele>
   </trkpt>
   <trkpt lat="-26.2428540" lon="-51.0741990">
    <ele>763.4</ele>
   </trkpt>
   <trkpt lat="-26.2427010" lon="-51.0743320">
    <ele>764.6</ele>
   </trkpt>
   <trkpt lat="-26.2425200" lon="-51.0745170">
    <ele>765.6</ele>
   </trkpt>
   <trkpt lat="-26.2420680" lon="-51.0749470">
    <ele>764.8</ele>
   </trkpt>
   <trkpt lat="-26.2420190" lon="-51.0749940">
    <ele>764.6</ele>
   </trkpt>
   <trkpt lat="-26.2418080" lon="-51.0751840">
    <ele>763.4</ele>
   </trkpt>
   <trkpt lat="-26.2415330" lon="-51.0754420">
    <ele>762.2</ele>
   </trkpt>
   <trkpt lat="-26.2414230" lon="-51.0755390">
    <ele>761.8</ele>
   </trkpt>
   <trkpt lat="-26.2409540" lon="-51.0759570">
    <ele>761.4</ele>
   </trkpt>
   <trkpt lat="-26.2405180" lon="-51.0763460">
    <ele>762.6</ele>
   </trkpt>
   <trkpt lat="-26.2404180" lon="-51.0764290">
    <ele>763.4</ele>
   </trkpt>
   <trkpt lat="-26.2403000" lon="-51.0765390">
    <ele>764.6</ele>
   </trkpt>
   <trkpt lat="-26.2402840" lon="-51.0767160">
    <ele>765.8</ele>
   </trkpt>
   <trkpt lat="-26.2402770" lon="-51.0768080">
    <ele>766.8</ele>
   </trkpt>
   <trkpt lat="-26.2402690" lon="-51.0768530">
    <ele>767.2</ele>
   </trkpt>
   <trkpt lat="-26.2402620" lon="-51.0769430">
    <ele>768.0</ele>
   </trkpt>
   <trkpt lat="-26.2402560" lon="-51.0769880">
    <ele>768.4</ele>
   </trkpt>
   <trkpt lat="-26.2402440" lon="-51.0770720">
    <ele>769.0</ele>
   </trkpt>
   <trkpt lat="-26.2402350" lon="-51.0771540">
    <ele>769.8</ele>
   </trkpt>
   <trkpt lat="-26.2402270" lon="-51.0772810">
    <ele>771.0</ele>
   </trkpt>
   <trkpt lat="-26.2402150" lon="-51.0773630">
    <ele>773.4</ele>
   </trkpt>
   <trkpt lat="-26.2402020" lon="-51.0774500">
    <ele>775.2</ele>
   </trkpt>
   <trkpt lat="-26.2401750" lon="-51.0775800">
    <ele>772.2</ele>
   </trkpt>
   <trkpt lat="-26.2401680" lon="-51.0776270">
    <ele>771.0</ele>
   </trkpt>
   <trkpt lat="-26.2401610" lon="-51.0776750">
    <ele>768.8</ele>
   </trkpt>
   <trkpt lat="-26.2401520" lon="-51.0777780">
    <ele>769.8</ele>
   </trkpt>
   <trkpt lat="-26.2401460" lon="-51.0778760">
    <ele>772.4</ele>
   </trkpt>
   <trkpt lat="-26.2401080" lon="-51.0780660">
    <ele>773.4</ele>
   </trkpt>
   <trkpt lat="-26.2401020" lon="-51.0781120">
    <ele>774.8</ele>
   </trkpt>
   <trkpt lat="-26.2400950" lon="-51.0781580">
    <ele>777.4</ele>
   </trkpt>
   <trkpt lat="-26.2400830" lon="-51.0782450">
    <ele>779.2</ele>
   </trkpt>
   <trkpt lat="-26.2400120" lon="-51.0785550">
    <ele>779.8</ele>
   </trkpt>
   <trkpt lat="-26.2399560" lon="-51.0786370">
    <ele>780.2</ele>
   </trkpt>
   <trkpt lat="-26.2399250" lon="-51.0786750">
    <ele>780.2</ele>
   </trkpt>
   <trkpt lat="-26.2395160" lon="-51.0789630">
    <ele>780.0</ele>
   </trkpt>
   <trkpt lat="-26.2390600" lon="-51.0793040">
    <ele>780.8</ele>
   </trkpt>
   <trkpt lat="-26.2389830" lon="-51.0793620">
    <ele>781.0</ele>
   </trkpt>
   <trkpt lat="-26.2388610" lon="-51.0794410">
    <ele>781.0</ele>
   </trkpt>
   <trkpt lat="-26.2387610" lon="-51.0794410">
    <ele>781.0</ele>
   </trkpt>
   <trkpt lat="-26.2386590" lon="-51.0793930">
    <ele>781.0</ele>
   </trkpt>
   <trkpt lat="-26.2385480" lon="-51.0793110">
    <ele>781.2</ele>
   </trkpt>
   <trkpt lat="-26.2384260" lon="-51.0792360">
    <ele>782.6</ele>
   </trkpt>
   <trkpt lat="-26.2383670" lon="-51.0792080">
    <ele>783.6</ele>
   </trkpt>
   <trkpt lat="-26.2383150" lon="-51.0791740">
    <ele>784.8</ele>
   </trkpt>
   <trkpt lat="-26.2382610" lon="-51.0791480">
    <ele>786.0</ele>
   </trkpt>
   <trkpt lat="-26.2381790" lon="-51.0791140">
    <ele>787.0</ele>
   </trkpt>
   <trkpt lat="-26.2380990" lon="-51.0790800">
    <ele>788.6</ele>
   </trkpt>
   <trkpt lat="-26.2379760" lon="-51.0790060">
    <ele>790.0</ele>
   </trkpt>
   <trkpt lat="-26.2378810" lon="-51.0789670">
    <ele>791.6</ele>
   </trkpt>
   <trkpt lat="-26.2378130" lon="-51.0789320">
    <ele>792.8</ele>
   </trkpt>
   <trkpt lat="-26.2376160" lon="-51.0788690">
    <ele>794.0</ele>
   </trkpt>
   <trkpt lat="-26.2373480" lon="-51.0788790">
    <ele>794.6</ele>
   </trkpt>
   <trkpt lat="-26.2370960" lon="-51.0787840">
    <ele>793.2</ele>
   </trkpt>
   <trkpt lat="-26.2370220" lon="-51.0787760">
    <ele>792.6</ele>
   </trkpt>
   <trkpt lat="-26.2369480" lon="-51.0787790">
    <ele>791.8</ele>
   </trkpt>
   <trkpt lat="-26.2368770" lon="-51.0787910">
    <ele>791.2</ele>
   </trkpt>
   <trkpt lat="-26.2367320" lon="-51.0788250">
    <ele>789.6</ele>
   </trkpt>
   <trkpt lat="-26.2364350" lon="-51.0788920">
    <ele>788.6</ele>
   </trkpt>
   <trkpt lat="-26.2360520" lon="-51.0789800">
    <ele>787.4</ele>
   </trkpt>
   <trkpt lat="-26.2356160" lon="-51.0790850">
    <ele>786.2</ele>
   </trkpt>
   <trkpt lat="-26.2353520" lon="-51.0791570">
    <ele>785.0</ele>
   </trkpt>
   <trkpt lat="-26.2350940" lon="-51.0792120">
    <ele>784.0</ele>
   </trkpt>
   <trkpt lat="-26.2347580" lon="-51.0792840">
    <ele>783.4</ele>
   </trkpt>
   <trkpt lat="-26.2345750" lon="-51.0792730">
    <ele>783.0</ele>
   </trkpt>
   <trkpt lat="-26.2344800" lon="-51.0792530">
    <ele>782.6</ele>
   </trkpt>
   <trkpt lat="-26.2343000" lon="-51.0792130">
    <ele>781.4</ele>
   </trkpt>
  </trkseg>
 </trk>
</gpx>
